,site_no,station_nm,dec_lat_va,dec_long_va,huc_cd,tz_cd,flow,flow_unit,flow_dt,stage,stage_unit,stage_dt,flow_chg,flow_chg_percent,stage_chg,stage_chg_percent,USGSstationID,location name,proximity,river/water-body name,nws shef id,location type,usgs id,latitude,longitude,wfo,rfc,state,county,wrr,timezone,inundation,elevation,action stage,flood stage,moderate flood stage,major flood stage,flood stage unit,coeid,hydrograph page,pedts,in service,hemisphere,low water threshold value / units,forecast status,display low water impacts,low flow display,give data attribution,attribution wording,fema wms,probabilistic site,weekly chance probabilistic enabled,short-term probabilistic enabled,chance of exceeding probabilistic enabled,nrldb vertical datum name,nrldb vertical datum,navd88 vertical datum,ngvd29 vertical datum,msl vertical datum,other vertical datum,site_no_shift,stage_chg_percent_shift,river/water-body name_shift,jam_status
5534,8329900.0,"NORTH FLOODWAY CHANNEL NEAR ALAMEDA, NM",35.1981,-106.6,13020203.0,MST,Mnt,cfs,2022-08-14 16:50:00,0.12,ft,2022-08-14 16:50:00,,,0.01,9.09,8329900.0,North Floodway Channel near Alameda,at,AMAFCA,anfn5,River Stage/Flow Location,8329900.0,35.198056,106.599722,abq,wgrfc,nm,1.0,Rio Grande Region,MST,No,,0.0,0.0,0.0,0.0,FT,,https://water.weather.gov/ahps2/hydrograph.php?wfo=abq&gage=anfn5,hgirg,Yes,W,-9999 Feet,Data Point,No,No,Yes,US Geological Survey,No,No,,,,NGVD 1929,5015.0,,,,,8330775.0,-2.02,AMAFCA,jam
1700,2419988.0,ALABAMA RIVER AT MONTGOMERY AL,32.3922,-86.3154,3150201.0,CST,0,,0000-00-00 00:00:00,22.9,ft,2022-08-14 17:00:00,,,0.12,0.53,2419988.0,Montgomery,at,Alabama River,mgma1,River Stage/Flow Location,2419988.0,32.392222,86.315278,bmx,serfc,al,0.0,South Atlantic-Gulf Region,CST,No,103.3 ft,26.0,35.0,45.0,53.0,FT,,https://water.weather.gov/ahps2/hydrograph.php?wfo=bmx&gage=mgma1,hgirg,Yes,W,-9999 Feet,Year-round,Yes,No,No,US Geological Survey,Yes,Yes,Yes,No,Yes,NAVD88,103.3,,103.3 ft,,,2421350.0,-0.01,Alabama River,jam
1710,2427506.0,ALABAMA RIVER BELOW MILLERS FERRY L&D NR CAMDEN AL,32.1001,-87.3978,3150203.0,CST,0,,0000-00-00 00:00:00,34.75,ft,2022-08-14 17:00:00,,,0.06,0.17,2427506.0,Miller&#039;s Ferry,near,Alabama River,mrfa1,River Stage/Flow Location,2427506.0,32.100145,87.397773,mob,serfc,al,0.0,South Atlantic-Gulf Region,CST,No,0 ft,61.0,66.0,80.0,83.0,FT,,https://water.weather.gov/ahps2/hydrograph.php?wfo=mob&gage=mrfa1,htirg,Yes,W,0 Feet,Year-round,No,No,No,US Geological Survey,Yes,Yes,Yes,Yes,Yes,NGVD 1929,0.0,,0 ft,,,2428401.0,-1.75,Alabama River,jam
6045,11172955.0,ALAMEDA C BL DIV DAM NR SUNOL CA,37.4986,-121.779,18050004.0,PST,0.06,cfs,2022-08-14 15:30:00,3.79,ft,2022-08-14 15:30:00,0.04,200.0,0.08,2.16,11172955.0,Div Dam near Sunol,below,Alameda Creek,acbc1,River Stage/Flow Location,11172955.0,37.498611,121.779444,mtr,cnrfc,ca,1.0,California Region,PST,No,,0.0,0.0,0.0,0.0,FT,,https://water.weather.gov/ahps2/hydrograph.php?wfo=mtr&gage=acbc1,hgirg,Yes,W,-9999 Feet,No routine,No,No,Yes,US Geological Survey,No,No,,,,NAVD 1988,835.55,835.55 ft,,,,11173510.0,-0.21,Alameda Creek,jam
1420,2316000.0,"ALAPAHA RIVER NEAR ALAPAHA, GA",31.3853,-83.1935,3110202.0,EST,312,cfs,2022-08-14 18:00:00,6.4,ft,2022-08-14 18:00:00,5.0,1.63,0.04,0.63,2316000.0,Alapaha,at,Alapaha River,alag1,River Stage/Flow Location,2316000.0,31.384167,83.1925,tae,serfc,ga,19.0,South Atlantic-Gulf Region,EST,No,,220.0,223.0,226.0,0.0,FT,,https://water.weather.gov/ahps2/hydrograph.php?wfo=tae&gage=alag1,hgirg,Yes,W,209 Feet,Data Point,No,No,Yes,US Geological Survey,Yes,No,,,,,0.0,207.6,,,0,2317500.0,-0.25,Alapaha River,jam
1859,3025500.0,"Allegheny River at Franklin, PA",41.3895,-79.8203,5010003.0,EST,2300,cfs,2022-08-14 18:00:00,2.92,ft,2022-08-14 18:00:00,40.0,1.77,0.02,0.69,3025500.0,Franklin,at,Allegheny River,frkp1,River Stage/Flow Location,3025500.0,41.389444,79.820556,pbz,ohrfc,pa,121.0,Ohio Region,EST,No,955.84 ft,13.0,17.0,19.0,21.0,FT,,https://water.weather.gov/ahps2/hydrograph.php?wfo=pbz&gage=frkp1,hgirg,Yes,W,-9999 Feet,Year-round,No,No,Yes,US Geological Survey,Yes,Yes,Yes,Yes,Yes,NGVD 1929,955.84,,955.84 ft,,,3033000.0,-0.09,Allegheny River,jam
1900,3049640.0,"Allegheny R at CW Bill Young L&D  at Acmetonia, PA",40.5362,-79.8148,5010009.0,EST,0,,0000-00-00 00:00:00,9.81,ft,2022-08-14 18:45:00,,,0.03,0.31,3049640.0,C.W. Bill Young Lock and Dam,at,Allegheny River,acmp1,River Stage/Flow Location,3049640.0,40.536111,79.815,pbz,ohrfc,pa,3.0,Ohio Region,EST,No,725.52,15.0,17.0,20.0,23.0,FT,,https://water.weather.gov/ahps2/hydrograph.php?wfo=pbz&gage=acmp1,hpirg,Yes,W,-9999 Feet,Year-round,No,No,Yes,US Army Corps of Engineers,Yes,Yes,Yes,Yes,Yes,NGVD29,725.52,725.8,725.52,,740,3049680.0,-0.7,Allegheny River,jam
1323,2226000.0,"ALTAMAHA RIVER AT DOCTORTOWN, GA",31.6547,-81.8275,3070106.0,EST,5050,cfs,2022-08-14 18:00:00,6.16,ft,2022-08-14 18:00:00,30.0,0.6,0.03,0.49,2226000.0,Doctortown,at,Altamaha River,dctg1,River Stage/Flow Location,2226000.0,31.654444,81.828056,jax,serfc,ga,305.0,South Atlantic-Gulf Region,EST,No,,10.0,12.0,14.0,15.5,FT,,https://water.weather.gov/ahps2/hydrograph.php?wfo=jax&gage=dctg1,hgirg,Yes,W,2 Feet,Year-round,No,No,Yes,US Geological Survey,Yes,Yes,Yes,Yes,Yes,NAD27,23.6,23.6,,,,2226160.0,-4.47,Altamaha River,jam
41,1054000.0,"Androscoggin River near Gorham, NH",44.4358,-71.1903,1040001.0,EST,1490,cfs,2022-08-14 18:15:00,3.17,ft,2022-08-14 18:15:00,100.0,7.19,0.1,3.26,1054000.0,Gorham,at,Androscoggin River,grmn3,River Stage/Flow Location,1054000.0,44.435833,71.1903,gyx,nerfc,nh,0.0,New England Region,EST,No,,7.0,8.0,10.0,12.0,FT,,https://water.weather.gov/ahps2/hydrograph.php?wfo=gyx&gage=grmn3,hgirg,Yes,W,0 Feet,Year-round,No,No,Yes,US Geological Survey,Yes,Yes,Yes,Yes,Yes,NGVD 29,832.88,,,,,1054500.0,-1.75,Androscoggin River,jam
5094,8036500.0,"Angelina Rv nr Alto, TX",31.6718,-94.9527,12020004.0,CST,21.1,cfs,2022-08-14 17:30:00,9.92,ft,2022-08-14 17:30:00,0.27,1.3,0.01,0.1,8036500.0,Alto,near,Angelina River,alot2,River Stage/Flow Location,8036500.0,31.67184,94.95271,shv,wgrfc,tx,5.0,Texas-Gulf Region,CST,No,194.30 ft,28.5,29.0,31.0,33.0,FT,,https://water.weather.gov/ahps2/hydrograph.php?wfo=shv&gage=alot2,hgirg,Yes,W,0 Feet,High Water,No,No,Yes,US Geological Survey,Yes,Yes,Yes,No,Yes,NGVD 1929,214.3,,194.30 ft,,,8037180.0,-0.01,Angelina River,jam
734,1619000.0,"ANTIETAM CREEK NEAR WAYNESBORO, PA",39.7163,-77.6066,2070004.0,EST,36.4,cfs,2022-08-14 18:45:00,2.29,ft,2022-08-14 18:45:00,4.6,14.47,0.04,1.78,1619000.0,Waynesboro,near,Antietam Creek,wanp1,River Stage/Flow Location,1619000.0,39.716389,77.606667,lwx,marfc,md,,Mid Atlantic Region,EST,No,,5.5,6.5,10.0,12.0,FT,,https://water.weather.gov/ahps2/hydrograph.php?wfo=lwx&gage=wanp1,hgirg,Yes,W,-9999 Feet,Data Point,No,No,Yes,US Geological Survey,No,No,,,,NAVD88,536.15,,,,,1619500.0,-0.4,Antietam Creek,jam
857,2039500.0,"APPOMATTOX RIVER AT FARMVILLE, VA",37.3071,-78.3886,2080207.0,EST,60.1,cfs,2022-08-14 18:50:00,3.99,ft,2022-08-14 18:50:00,1.7,2.91,0.02,0.5,2039500.0,Farmville,at,Appomattox River,frmv2,River Stage/Flow Location,2039500.0,37.306944,78.388889,akq,marfc,va,49.0,Mid Atlantic Region,EST,No,281.93 ft,12.0,16.0,20.0,25.0,FT,,https://water.weather.gov/ahps2/hydrograph.php?wfo=akq&gage=frmv2,hgirg,Yes,W,-9999 Feet,Year-round,No,No,Yes,US Geological Survey,Yes,Yes,Yes,Yes,Yes,NAVD88   ,280.94,280.94,281.93 ft,,,2040000.0,-0.14,Appomattox River,jam
4601,7138000.0,"ARKANSAS R AT SYRACUSE, KS",37.9661,-101.757,11030001.0,CST,30.1,cfs,2022-08-14 17:15:00,3.62,ft,2022-08-14 17:15:00,1.12,3.9,0.02,0.56,7138000.0,Syracuse,at,Arkansas River,syrk1,River Stage/Flow Location,7138000.0,37.966667,101.756389,ddc,abrfc,ks,75.0,Arkansas-White-Red Region,MST,No,3209.32 ft,9.0,10.0,12.0,14.0,FT,,https://water.weather.gov/ahps2/hydrograph.php?wfo=ddc&gage=syrk1,hgirg,Yes,W,-9999 Feet,High Water,No,No,Yes,US Geological Survey,Yes,Yes,Yes,Yes,Yes,NGVD29,3209.32,,3209.32 ft,,,7138020.0,-0.2,Arkansas River,jam
4605,7139500.0,"ARKANSAS R AT DODGE CITY, KS",37.7447,-100.033,11030003.0,CST,0,,0000-00-00 00:00:00,7.26,ft,2022-08-14 17:00:00,,,0.01,0.14,7139500.0,Dodge City,at,Arkansas River,ddck1,River Stage/Flow Location,7139500.0,37.744444,100.032778,ddc,abrfc,ks,57.0,Arkansas-White-Red Region,CST,No,2468.71,10.0,11.0,13.0,15.0,FT,,https://water.weather.gov/ahps2/hydrograph.php?wfo=ddc&gage=ddck1,hgirg,Yes,W,-9999 Feet,High Water,No,No,Yes,US Geological Survey,Yes,Yes,Yes,Yes,Yes,NAVD88,2469.64,2469.64 ft,2468.71,,,7141300.0,-3.33,Arkansas River,jam
4628,7144570.0,"ARKANSAS R AT MULVANE, KS",37.4755,-97.2616,11030013.0,CST,157,cfs,2022-08-14 17:15:00,5.16,ft,2022-08-14 17:15:00,4.0,2.61,0.01,0.19,7144570.0,Mulvane,near,Arkansas River,mulk1,River Stage/Flow Location,7144570.0,37.4755,97.2613,ict,abrfc,ks,191.0,Arkansas-White-Red Region,CST,No,1203.48 ft,15.0,16.5,19.0,21.0,FT,,https://water.weather.gov/ahps2/hydrograph.php?wfo=ict&gage=mulk1,hgirg,Yes,W,-9999 Feet,High Water,No,No,No,US Geological Survey,Yes,Yes,Yes,Yes,Yes,NAVD88,1203.74,1203.74 ft,1203.48 ft,,1203.48 ft,7146500.0,-0.32,Arkansas River,jam
4779,7260800.0,"Arkansas River near Morrilton, AR",35.1269,-92.7317,11110203.0,CST,0,,0000-00-00 00:00:00,9.93,ft,2022-08-14 17:15:00,,,0.38,3.98,7260800.0,Morrilton,at,Arkansas River,mora4,River Stage/Flow Location,7260800.0,35.126944,92.731667,lzk,abrfc,ar,0.0,Arkansas-White-Red Region,CST,No,255.96 ft,29.0,30.0,34.0,38.0,FT,,https://water.weather.gov/ahps2/hydrograph.php?wfo=lzk&gage=mora4,hgirg,Yes,W,-9999 Feet,Year-round,No,No,Yes,US Army Corps of Engineers LRD,Yes,Yes,Yes,Yes,Yes,NAVD88,255.96,,255.96 ft,,,7263500.0,-0.27,Arkansas River,jam
4782,7263650.0,"Arkansas River at Pine Bluff, AR",34.2903,-91.9956,11110207.0,CST,0,,0000-00-00 00:00:00,31.41,ft,2022-08-14 17:00:00,,,0.26,0.83,7263650.0,Pine Bluff,at,Arkansas River,pbfa4,River Stage/Flow Location,7263650.0,34.288611,91.994722,lzk,abrfc,ar,0.0,Arkansas-White-Red Region,CST,No,164.71 ft,40.0,42.0,44.0,45.0,FT,,https://water.weather.gov/ahps2/hydrograph.php?wfo=lzk&gage=pbfa4,hgirg,Yes,W,-9999 Feet,Year-round,No,No,Yes,US Army Corps of Engineers LRD,Yes,Yes,Yes,Yes,Yes,NGVD 1929,164.71,,164.71 ft,,,7265280.0,-0.04,Arkansas River,jam
2978,4191058.0,Little Auglaize River at Melrose OH,41.0919,-84.4075,4100007.0,EST,345,cfs,2022-08-14 18:00:00,13.77,ft,2022-08-14 18:00:00,23.0,7.14,0.07,0.51,4191058.0,Melrose OH,at,Auglaize River,mreo1,River Stage/Flow Location,4191058.0,41.091944,84.4075,iwx,ohrfc,oh,125.0,Great Lakes Region,EST,No,,0.0,0.0,0.0,0.0,FT,,https://water.weather.gov/ahps2/hydrograph.php?wfo=iwx&gage=mreo1,hgirz,Yes,W,-9999 Feet,Data Point,No,No,Yes,USGS (04191058),Yes,No,,,,NAVD88,674.23,674.23,,,,4191500.0,-0.47,Auglaize River,jam
5020,7380238.0,"Naomi Diversion Canal near Naomi, LA",29.6991,-89.9889,8090301.0,CST,0,,0000-00-00 00:00:00,3,ft,2022-08-14 17:30:00,,,0.02,0.67,7380238.0,Naomi Diversion Canal near Naomi,at,Barataria Bay and Waterway,naol1,River Stage/Flow Location,7380238.0,29.699167,89.988889,lix,lmrfc,la,75.0,Lower Mississippi Region,CST,No,,0.0,0.0,0.0,0.0,FT,,https://water.weather.gov/ahps2/hydrograph.php?wfo=lix&gage=naol1,hgirg,Yes,W,-9999 Feet,No routine,No,No,Yes,US Geological Survey,No,No,,,,NAVD88,,,,,,7380249.0,-3.34,Barataria Bay and Waterway,jam
4043,6466400.0,"Bazile Creek at Center, Nebr",42.6157,-97.8781,10170101.0,CST,19.8,cfs,2022-08-14 17:00:00,9.42,ft,2022-08-14 17:00:00,1.3,7.03,0.02,0.21,6466400.0,Center,at,Bazile Creek,cbcn1,River Stage/Flow Location,6466400.0,42.6164,97.8781,oax,mbrfc,ne,107.0,Missouri Region,CST,No,,20.5,22.0,31.0,37.0,FT,,https://water.weather.gov/ahps2/hydrograph.php?wfo=oax&gage=cbcn1,hgirg,Yes,W,-9999 Feet,Data Point,No,No,Yes,the USGS (06466400),Yes,No,,,,NGVD29,1363.444,1363.444 ft,,,,6466500.0,-0.65,Bazile Creek,jam
5825,10011500.0,BEAR RIVER NEAR UTAH-WYOMING STATE LINE,40.9652,-110.854,16010101.0,MST,194,cfs,2022-08-14 16:30:00,4.92,ft,2022-08-14 16:30:00,8.0,4.3,0.03,0.61,10011500.0,Utah/Wyoming State Line,near,Bear River,beru1,Stage/Flow and Precipitation Location,10011500.0,40.965225,110.853508,slc,cbrfc,ut,43.0,Great Basin Region,MST,No,,7.7,8.0,9.0,9.5,FT,,https://water.weather.gov/ahps2/hydrograph.php?wfo=slc&gage=beru1,hgirg,Yes,W,-9999 Feet,Year-round,No,No,Yes,US Geological Survey,No,Yes,Yes,No,Yes,NGVD29,7965.0,,7965 ft,,,10020100.0,-1.32,Bear River,jam
5832,10039500.0,"BEAR RIVER AT BORDER, WY",42.211,-111.054,16010102.0,MST,168,cfs,2022-08-14 16:30:00,1.53,ft,2022-08-14 16:30:00,6.0,3.7,0.03,2.0,10039500.0,Border,at,Bear River,brbw4,River Stage/Flow Location,10039500.0,42.210767,111.053314,pih,cbrfc,id,7.0,Great Basin Region,MST,No,,7.0,7.5,10.5,11.7,FT,,https://water.weather.gov/ahps2/hydrograph.php?wfo=pih&gage=brbw4,hgirg,Yes,W,-9999 Feet,Year-round,Yes,No,Yes,US Geological Survey,No,No,,,,NAVD88,6056.85,,,,,10068500.0,-0.27,Bear River,jam
3853,6166000.0,Beaver Cr bl Guston Coulee nr Saco MT,48.3568,-107.582,10050014.0,MST,17.3,cfs,2022-08-14 16:15:00,1.6,ft,2022-08-14 16:15:00,0.3,1.76,0.01,0.63,6166000.0,Saco,near,Beaver Creek (MT),gscm8,River Stage/Flow Location,6166000.0,48.356944,107.582222,ggw,mbrfc,mt,71.0,Missouri Region,MST,No,2215,9.0,11.0,0.0,0.0,FT,,https://water.weather.gov/ahps2/hydrograph.php?wfo=ggw&gage=gscm8,hgirg,Yes,W,-9999 Feet,Data Point,No,No,No,US Geological Survey,No,No,,,,,2215.0,,2215,,,6167500.0,-0.3,Beaver Creek (MT),jam
3948,6402430.0,"BEAVER CREEK NEAR PRINGLE, SD",43.5814,-103.477,10120109.0,MST,1.58,cfs,2022-08-14 16:45:00,7.77,ft,2022-08-14 16:45:00,0.49,50.52,0.06,0.78,6402430.0,Pringle,near,Beaver Creek (SD),prns2,River Stage/Flow Location,6402430.0,43.581372,103.476584,unr,mbrfc,sd,33.0,Missouri Region,MST,No,,0.0,0.0,0.0,0.0,FT,,https://water.weather.gov/ahps2/hydrograph.php?wfo=unr&gage=prns2,hgirg,Yes,W,-9999 Feet,Data Point,No,No,Yes,US Geological Survey,Yes,No,,,,NAVD88,4182.0,4182,,,,6402500.0,-0.66,Beaver Creek (SD),jam
1805,2485810.0,"BELHAVEN CREEK AT RIVERSIDE DRIVE AT JACKSON, MS",32.3235,-90.1717,3180002.0,CST,0,,0000-00-00 00:00:00,3.62,ft,2022-08-14 17:30:00,,,0.05,1.4,2485810.0,Riverside Drive/Jackson,at,Belhaven Creek,jbrm6,River Stage/Flow Location,2485810.0,32.323528,90.171694,jan,lmrfc,ms,49.0,South Atlantic-Gulf Region,CST,No,,0.0,0.0,0.0,0.0,FT,,https://water.weather.gov/ahps2/hydrograph.php?wfo=jan&gage=jbrm6,hgirg,Yes,W,-9999 Feet,No routine,No,No,Yes,US Geological Survey,Yes,No,,,,NGVD 1929,,,,,,2485820.0,-2.99,Belhaven Creek,jam
1770,2479945.0,"BIG CREEK AT COUNTY RD 63 NEAR WILMER, AL.",30.856,-88.3339,3170008.0,CST,33.3,cfs,2022-08-14 17:00:00,2.55,ft,2022-08-14 17:00:00,0.3,0.91,0.01,0.39,2479945.0,Wilmer,near,Big Creek (Al),wila1,River Stage/Flow Location,2479945.0,30.855833,88.333889,mob,serfc,al,97.0,Texas-Gulf Region,CST,No,,0.0,0.0,0.0,0.0,FT,,https://water.weather.gov/ahps2/hydrograph.php?wfo=mob&gage=wila1,hgirg,Yes,W,0 Feet,No routine,No,No,No,US Geological Survey,No,No,,,,NGVD29,125.44,,,,,2480020.0,-0.51,Big Creek (Al),jam
4935,7346080.0,"Big Cypress Ck abv SH 43 nr Karnack, TX",32.7386,-94.2325,11140306.0,CST,64.2,cfs,2022-08-14 17:45:00,4.71,ft,2022-08-14 17:45:00,3.6,5.94,0.02,0.43,7346080.0,Karnack,near,Big Cypress Creek,bgkt2,River Stage/Flow Location,7346080.0,32.738611,94.2325,shv,lmrfc,tx,203.0,Arkansas-White-Red Region,CST,No,,0.0,0.0,0.0,0.0,FT,,https://water.weather.gov/ahps2/hydrograph.php?wfo=shv&gage=bgkt2,hgirg,Yes,W,,No routine,No,No,Yes,US Geological Survey,Yes,No,,,,NAVD 1988,163.27,163.272,,,,7346310.0,-0.01,Big Cypress Creek,jam
3775,6025250.0,Big Hole River at Maiden Rock nr Divide MT,45.7013,-112.736,10020004.0,MST,272,cfs,2022-08-14 16:45:00,2.77,ft,2022-08-14 16:45:00,6.0,2.26,0.01,0.36,6025250.0,Maiden Rock near Divide,at,Big Hole River,mrdm8,River Stage/Flow Location,6025250.0,45.701389,112.735833,tfx,mbrfc,mt,1.0,Missouri Region,MST,No,,0.0,0.0,0.0,0.0,FT,,https://water.weather.gov/ahps2/hydrograph.php?wfo=tfx&gage=mrdm8,hgirg,Yes,W,-9999 Feet,Data Point,No,No,Yes,US Geological Survey,Yes,No,,,,NAVD88,5300.0,,,,,6025500.0,-0.75,Big Hole River,jam
4086,6479525.0,"BIG SIOUX R NEAR CASTLEWOOD,SD",44.7315,-97.0447,10170202.0,CST,75.4,cfs,2022-08-14 17:45:00,5,ft,2022-08-14 17:45:00,0.9,1.21,0.01,0.2,6479525.0,Castlewood,near,Big Sioux River,csws2,River Stage/Flow Location,6479525.0,44.731667,97.044444,abr,mbrfc,sd,57.0,Missouri Region,CST,No,,8.0,9.0,11.0,16.0,FT,,https://water.weather.gov/ahps2/hydrograph.php?wfo=abr&gage=csws2,hgirg,Yes,W,-9999 Feet,High Water,No,No,Yes,US Geological Survey,Yes,Yes,Yes,Yes,Yes,NAVD88,1668.47,1668.47,,,,6480000.0,-0.43,Big Sioux River,jam
4090,6481000.0,"BIG SIOUX R NEAR DELL RAPIDS,SD",43.7904,-96.7457,10170203.0,CST,145,cfs,2022-08-14 17:30:00,3.27,ft,2022-08-14 17:30:00,4.0,2.84,0.02,0.62,6481000.0,Dell Rapids,near,Big Sioux River,ders2,River Stage/Flow Location,6481000.0,43.790556,96.745278,fsd,mbrfc,sd,99.0,Missouri Region,CST,No,,11.0,12.0,14.0,15.0,FT,,https://water.weather.gov/ahps2/hydrograph.php?wfo=fsd&gage=ders2,hgirg,Yes,W,-9999 Feet,High Water,No,No,Yes,US Geological Survey,Yes,Yes,Yes,Yes,Yes,NAVD88,1456.89,1456.89,,,,6481400.0,-2.78,Big Sioux River,jam
3897,6287800.0,"Bighorn River at bridge, at St. Xavier, MT",45.4608,-107.749,10080015.0,MST,2340,cfs,2022-08-14 16:30:00,6.06,ft,2022-08-14 16:30:00,10.0,0.43,0.01,0.17,6287800.0,ST. Xavier Bridge,at,Bighorn River,sxvm8,River Stage/Flow Location,6287800.0,45.4608,107.7486,byz,mbrfc,mt,3.0,Missouri Region,MST,No,3030,0.0,0.0,0.0,0.0,FT,,https://water.weather.gov/ahps2/hydrograph.php?wfo=byz&gage=sxvm8,hgirz,Yes,W,-9999 Feet,Data Point,No,No,Yes,US Geological Survey,Yes,No,,,,NAVD 1988,3030.0,,3030,,,6294500.0,-0.66,Bighorn River,jam
1066,2136030.0,"BLACK RIVER NEAR ANDREWS,SC",33.4904,-79.5456,3040205.0,EST,400,cfs,2022-07-27 08:15:00,19.2,ft,2022-08-14 18:00:00,,,0.01,0.05,2136030.0,Andrews,near,Black River,adrs1,River Stage/Flow Location,2136030.0,33.490278,79.544833,ilm,serfc,sc,43.0,South Atlantic-Gulf Region,EST,No,,0.0,0.0,0.0,0.0,FT,,https://water.weather.gov/ahps2/hydrograph.php?wfo=ilm&gage=adrs1,hgirg,Yes,W,0 Feet,Data Point,No,No,Yes,US Geological Survey,No,No,,,,,,,,,,4200500.0,-2.3,Black River,jam
3110,4260500.0,BLACK RIVER AT WATERTOWN NY,43.9858,-75.9246,4150101.0,EST,1450,cfs,2022-08-14 17:30:00,2.97,ft,2022-08-14 17:30:00,20.0,1.4,0.02,0.68,4260500.0,Watertown,at,Black River,artn6,Stage/Flow and Precipitation Location,4260500.0,43.985556,75.924722,buf,nerfc,ny,45.0,Great Lakes Region,EST,No,,8.0,10.0,12.0,14.0,FT,,https://water.weather.gov/ahps2/hydrograph.php?wfo=buf&gage=artn6,hgirg,Yes,W,-9999 Feet,Year-round,No,No,Yes,US Geological Survey,No,Yes,Yes,Yes,Yes,NAVD 1988,374.09,374.09 ft,373.88 ft,,,7064000.0,-0.78,Black River,jam
1733,2462952.0,BLACK WARRIOR RIVER BELOW HOLT L&D NEAR HOLT AL,33.2529,-87.4514,3160112.0,CST,0,,0000-00-00 00:00:00,123.03,ft,2022-08-14 17:45:00,,,0.08,0.07,2462952.0,Holt Lock and Dam,at,Black Warrior River,tcla1,River Stage/Flow Location,2462952.0,33.252778,87.451389,bmx,serfc,al,0.0,South Atlantic-Gulf Region,CST,No,0 ft,138.0,140.0,148.0,158.0,FT,,https://water.weather.gov/ahps2/hydrograph.php?wfo=bmx&gage=tcla1,htirz,Yes,W,-9999 Feet,High Water,No,No,Yes,US Geological Survey,Yes,Yes,Yes,No,Yes,NGVD 1929,0.0,,0 ft,,,2465000.0,-0.41,Black Warrior River,jam
2974,4189131.0,Blanchard River at Gilboa OH,41.0153,-83.9189,4100008.0,EST,62,cfs,2022-08-14 18:45:00,4.29,ft,2022-08-14 18:45:00,1.4,2.31,0.01,0.23,4189131.0,Gilboa,at,Blanchard River,gilo1,Stage/Flow and Precipitation Location,4189131.0,41.015278,83.918889,iwx,ohrfc,oh,137.0,Great Lakes Region,EST,No,,0.0,0.0,0.0,0.0,FT,,https://water.weather.gov/ahps2/hydrograph.php?wfo=iwx&gage=gilo1,hgirg,Yes,W,-9999 Feet,Data Point,No,No,Yes,the USGS (04189131),Yes,No,,,,NAVD88,723.82,723.82,,,,4190000.0,-0.17,Blanchard River,jam
4385,6893510.0,"Blue River at Highway 71, Kansas City, Mo",38.9719,-94.5478,10300101.0,CST,0,,0000-00-00 00:00:00,2.17,ft,2022-08-14 16:17:00,,,0.05,2.44,6893510.0,71 Highway,at,Blue River,knym7,River Stage/Flow Location,6893510.0,38.971944,94.547778,eax,mbrfc,mo,95.0,Missouri Region,CST,No,,22.0,27.0,36.0,38.0,FT,,https://water.weather.gov/ahps2/hydrograph.php?wfo=eax&gage=knym7,hgirr,Yes,W,-9999 Feet,High Water,No,No,No,US Geological Survey,Yes,Yes,Yes,Yes,Yes,NAVD88,751.157,751.157 ft,,,,6893578.0,-0.18,Blue River,jam
4897,7332348.0,"Blue River North of Connerville, OK",34.4544,-96.6356,11140102.0,CST,30.6,cfs,2022-08-14 17:30:00,2.63,ft,2022-08-14 17:30:00,1.2,4.08,0.01,0.38,7332348.0,Connerville,at,Blue River (OK),cnbo2,River Stage/Flow Location,7332348.0,34.454419,96.635639,oun,abrfc,ok,69.0,Arkansas-White-Red Region,CST,No,,0.0,0.0,0.0,0.0,FT,,https://water.weather.gov/ahps2/hydrograph.php?wfo=oun&gage=cnbo2,hgirg,Yes,W,-9999 Feet,Data Point,No,No,Yes,US Geological Survey,No,No,,,,NAVD88,,,,,,7332500.0,-0.39,Blue River (OK),jam
1429,2319302.0,"MADISON BLUE SPRING NR BLUE SPRINGS, FL",30.4805,-83.2443,3110203.0,EST,116,cfs,2022-08-14 18:30:00,10.36,ft,2022-08-14 18:45:00,-3.0,-2.52,0.01,0.1,2319302.0,Blue Springs near Madison (in NAVD88),at,Blue Spring,blsf1,River Stage/Flow Location,2319302.0,30.480278,83.244444,tae,serfc,fl,79.0,South Atlantic-Gulf Region,EST,No,,54.0,60.0,65.0,70.0,FT,,https://water.weather.gov/ahps2/hydrograph.php?wfo=tae&gage=blsf1,hgirg,Yes,W,40.1 Feet,Data Point,No,No,Yes,US Geological Survey,Yes,No,,,,,0.0,,,,,2319950.0,-0.05,Blue Spring,jam
1380,2262900.0,"BOGGY CREEK NEAR TAFT, FL",28.3714,-81.3106,3090101.0,EST,139,cfs,2022-08-14 18:45:00,6.62,ft,2022-08-14 18:45:00,1.0,0.72,0.01,0.15,2262900.0,Taft/nr Narcoosee 6NW,near,Boggy Creek,bctf1,River Stage/Flow Location,2262900.0,28.371111,81.310833,mlb,serfc,fl,95.0,South Atlantic-Gulf Region,AST,No,,0.0,0.0,0.0,0.0,FT,,https://water.weather.gov/ahps2/hydrograph.php?wfo=mlb&gage=bctf1,hgirg,Yes,W,0 Feet,Data Point,No,No,Yes,US Geological Survey,No,No,,,,,0.0,,,,,8158030.0,-2.44,Boggy Creek,jam
1818,2490500.0,"BOGUE CHITTO NR TYLERTOWN, MS",31.1769,-90.2794,3180005.0,CST,415,cfs,2022-08-14 17:00:00,6.01,ft,2022-08-14 17:00:00,11.0,2.72,0.03,0.5,2490500.0,Tylertown,near,Bogue Chitto River,tytm6,River Stage/Flow Location,2490500.0,31.176944,90.28,lix,lmrfc,ms,113.0,South Atlantic-Gulf Region,CST,No,,14.0,15.0,17.0,23.0,FT,,https://water.weather.gov/ahps2/hydrograph.php?wfo=lix&gage=tytm6,hgirg,Yes,W,-9999 Feet,Year-round,No,No,Yes,US Geological Survey,Yes,Yes,Yes,Yes,Yes,NGVD29,227.4,227.4 ft,,,,2491500.0,-0.87,Bogue Chitto River,jam
6768,15239001.0,BRADLEY R BL DAM NR HOMER AK,59.7577,-150.853,19020301.0,AKST,64.6,cfs,2022-08-14 14:15:00,2.92,ft,2022-08-14 14:15:00,1.5,2.38,0.01,0.34,15239001.0,Dam nr Homer,below,Bradley River,brra2,River Stage/Flow Location,15239001.0,59.758333,150.850556,pafc,aprfc,ak,122.0,Alaska Region,AKST,No,,0.0,0.0,0.0,0.0,FT,,https://water.weather.gov/ahps2/hydrograph.php?wfo=pafc&gage=brra2,hgirz,Yes,W,-9999 Feet,Data Point,No,No,Yes,US Geological Survey,No,No,,,,NGVD29,1054.16,,,,,15239060.0,-0.11,Bradley River,jam
5197,8079510.0,"N Fk DMF Brazos Rv at Loop 289 nr Lubbock, TX",33.5548,-101.788,12050003.0,CST,9.47,cfs,2022-08-14 17:45:00,6.45,ft,2022-08-14 17:45:00,0.85,9.86,0.02,0.31,8079510.0,Lubbock 4ESE,near,Brazos River,lset2,River Stage/Flow Location,8079510.0,33.5547,101.7881,lub,wgrfc,tx,303.0,Texas-Gulf Region,CST,No,,10.0,11.0,20.0,21.0,FT,,https://water.weather.gov/ahps2/hydrograph.php?wfo=lub&gage=lset2,hgirg,Yes,W,0 Feet,Data Point,No,No,Yes,US Geological Survey,No,No,,,,NAVD88,3098.47,3098.47,,,,8082500.0,-3.85,Brazos River,jam
5225,8090800.0,"Brazos Rv nr Dennis, TX",32.6157,-97.9259,12060201.0,CST,181,cfs,2022-08-14 17:45:00,2.3,ft,2022-08-14 17:45:00,22.0,13.84,0.09,4.07,8090800.0,Dennis,near,Brazos River,dnnt2,River Stage/Flow Location,8090800.0,32.615556,97.925556,fwd,wgrfc,tx,,Texas-Gulf Region,CST,No,697.67 ft,10.0,21.0,25.0,27.0,FT,,https://water.weather.gov/ahps2/hydrograph.php?wfo=fwd&gage=dnnt2,hgirg,Yes,W,,High Water,No,No,Yes,US Geological Survey,Yes,Yes,Yes,No,Yes,USGS NAD 1929,697.67,,697.67 ft,,,8091000.0,-0.24,Brazos River,jam
5233,8093100.0,"Brazos Rv nr Aquilla, TX",31.8124,-97.2978,12060202.0,CST,27,cfs,2022-08-14 17:00:00,5.86,ft,2022-08-14 17:00:00,0.9,3.45,0.01,0.17,8093100.0,Aquilla,near,Brazos River,aqlt2,River Stage/Flow Location,8093100.0,31.812222,97.2975,fwd,wgrfc,tx,0.0,Texas-Gulf Region,CST,No,404.29 ft,27.0,29.0,32.0,35.0,FT,,https://water.weather.gov/ahps2/hydrograph.php?wfo=fwd&gage=aqlt2,hgirg,Yes,W,-9999 Feet,High Water,No,No,Yes,US Geological Survey,Yes,Yes,Yes,No,Yes,USGS NAD 1929,404.29,,404.29 ft,,,8108700.0,-0.79,Brazos River,jam
5281,8114000.0,"Brazos Rv at Richmond, TX",29.5825,-95.7577,12070104.0,CST,585,cfs,2022-08-14 17:15:00,8.23,ft,2022-08-14 17:15:00,36.0,6.56,0.07,0.86,8114000.0,Richmond,at,Brazos River,rmot2,River Stage/Flow Location,8114000.0,29.582222,95.7575,hgx,wgrfc,tx,157.0,Texas-Gulf Region,CST,No,27.94,20.0,45.0,48.0,50.0,FT,,https://water.weather.gov/ahps2/hydrograph.php?wfo=hgx&gage=rmot2,hgirg,Yes,W,0 Feet,Year-round,No,No,Yes,US Geological Survey,Yes,Yes,Yes,No,Yes,NAVD 1988,27.02,27.02,27.94,,,8114100.0,-0.04,Brazos River,jam
7027,73745257.0,Crooked B. NW of L. Cuatro Caballo near Delacroix,29.7083,-89.7195,8090203.0,CST,0,,0000-00-00 00:00:00,5.77,ft,2022-08-14 17:15:00,,,0.04,0.7,73745257.0,Crooked Bayou near Delacroix,at,Breton Sound Basin,cbdl1,River Stage/Flow Location,73745257.0,29.708056,89.719444,lix,lmrfc,la,75.0,South Atlantic-Gulf Region,CST,No,,0.0,0.0,0.0,0.0,FT,,https://water.weather.gov/ahps2/hydrograph.php?wfo=lix&gage=cbdl1,hgirg,Yes,W,-9999 Feet,No routine,No,No,Yes,US Geological Survey,No,No,,,,NAVD88,,,,,,73745258.0,-3.66,Breton Sound Basin,jam
1129,2161000.0,"BROAD RIVER AT ALSTON, SC",34.2432,-81.3195,3050106.0,EST,3150,cfs,2022-08-14 18:45:00,4.45,ft,2022-08-14 18:45:00,20.0,0.64,0.01,0.23,2161000.0,Alston,at,Broad River in NC/SC,alts1,River Stage/Flow Location,2161000.0,34.243056,81.319722,cae,serfc,sc,39.0,South Atlantic-Gulf Region,EST,No,,11.5,20.0,25.0,30.0,FT,,https://water.weather.gov/ahps2/hydrograph.php?wfo=cae&gage=alts1,hgirg,Yes,W,,Data Point,No,No,Yes,US Geological Survey,No,No,,,,NGVD 29,211.91,,,,,2162035.0,-0.01,Broad River in NC/SC,jam
706,1607300.0,"BRUSHY FORK NEAR SUGAR GROVE, WV",38.4664,-79.3189,2070001.0,EST,0,,0000-00-00 00:00:00,46.33,ft,2022-08-14 18:30:00,,,0.02,0.04,1607300.0,Sugar Grove,near,Brushy Fork,sugw2,River Stage/Flow Location,1607300.0,38.466389,79.318889,lwx,marfc,wv,71.0,Mid Atlantic Region,EST,No,,0.0,0.0,0.0,0.0,FT,,https://water.weather.gov/ahps2/hydrograph.php?wfo=lwx&gage=sugw2,hgirg,Yes,W,-9999 Feet,Data Point,No,No,Yes,US Geological Survey,No,No,,,,NAVD88,1952.0,,,,,3126395.0,-0.52,Brushy Fork,jam
1912,3052450.0,"BUCKHANNON R AT BUCKHANNON, WV",39.0054,-80.2093,5020001.0,EST,0,,0000-00-00 00:00:00,6.58,ft,2022-08-14 18:45:00,,,0.05,0.77,3052450.0,Buckhannon,at,Buckhannon River,bknw2,River Stage/Flow Location,3052450.0,39.005376,80.209249,rlx,ohrfc,wv,97.0,Ohio Region,EST,No,,21.0,23.0,25.0,26.0,FT,,https://water.weather.gov/ahps2/hydrograph.php?wfo=rlx&gage=bknw2,hgirg,Yes,W,-9999 Feet,High Water,No,No,Yes,US Geological Survey,Yes,No,,,,NAVD88,1384.25,1384.25 ft,,,1384.10ft,3053500.0,-0.36,Buckhannon River,jam
4735,7229050.0,"Canadian River at Norman, OK",35.1945,-97.485,11090202.0,CST,51.7,cfs,2022-08-14 17:00:00,86.07,ft,2022-08-14 17:00:00,4.4,9.3,0.03,0.03,7229050.0,Norman,at,Canadian River,nrco2,River Stage/Flow Location,7229050.0,35.194444,97.484722,oun,abrfc,ok,27.0,Arkansas-White-Red Region,CST,No,1000,93.0,94.0,96.0,99.0,FT,,https://water.weather.gov/ahps2/hydrograph.php?wfo=oun&gage=nrco2,hgirg,Yes,W,-9999 Feet,High Water,No,No,Yes,U.S. Geological Survey,Yes,Yes,Yes,Yes,Yes,NGVD29,1000.0,,1000,,,7231500.0,-0.16,Canadian River,jam
4675,7174400.0,"Caney River above Coon Creek at Bartlesville, OK",36.7556,-95.9722,11070106.0,CST,21.4,cfs,2022-08-14 17:00:00,2.98,ft,2022-08-14 17:00:00,1.4,7.0,0.01,0.34,7174400.0,Bartlesville,at,Caney River,bvlo2,River Stage/Flow Location,7174400.0,36.755556,95.971944,tsa,abrfc,ok,0.0,Arkansas-White-Red Region,CST,No,653.33 ft,13.0,13.0,15.0,19.0,FT,,https://water.weather.gov/ahps2/hydrograph.php?wfo=tsa&gage=bvlo2,hgirg,Yes,W,-9999 Feet,High Water,No,No,Yes,US Geological Survey,Yes,Yes,Yes,Yes,Yes,NGVD 1929,653.33,,653.33 ft,,,7175500.0,-0.36,Caney River,jam
1229,2203000.0,"CANOOCHEE RIVER NEAR CLAXTON, GA",32.1844,-81.8892,3060203.0,EST,51.6,cfs,2022-08-14 18:15:00,1.69,ft,2022-08-14 18:15:00,1.6,3.2,0.01,0.6,2203000.0,Claxton,near,Canoochee River,cnog1,River Stage/Flow Location,2203000.0,32.184591,81.89024,chs,serfc,ga,109.0,South Atlantic-Gulf Region,EST,No,80.5 ft,9.5,11.0,13.5,16.0,FT,,https://water.weather.gov/ahps2/hydrograph.php?wfo=chs&gage=cnog1,hgirg,Yes,W,-9999 Feet,High Water,No,No,Yes,US Geological Survey,Yes,Yes,Yes,No,Yes,NGVD29,80.5,79.7807,80.5 ft,,,2203518.0,-0.16,Canoochee River,jam
5907,10312150.0,"CARSON RV BLW LAHONTAN RESERVOIR NR FALLON, NV",39.4639,-119.046,16050203.0,PST,625,cfs,2022-08-14 15:55:00,5.09,ft,2022-08-14 15:55:00,3.2,0.52,0.01,0.2,10312150.0,Lahontan Dam,below,Carson River,cbln2,River Stage/Flow Location,10312150.0,39.463889,119.046389,rev,cnrfc,nv,1.0,Great Basin Region,PST,No,4040,0.0,0.0,0.0,0.0,FT,,https://water.weather.gov/ahps2/hydrograph.php?wfo=rev&gage=cbln2,hgirg,Yes,W,0 Feet,Data Point,No,No,Yes,US Geological Survey,Yes,No,,,,NGVD29,4040.0,,4040,,,10312275.0,-1.01,Carson River,jam
3758,5595820.0,"CASEY FORK AT MOUNT VERNON, IL",38.2867,-88.8722,7140106.0,CST,4.66,cfs,2022-08-14 16:30:00,1.64,ft,2022-08-14 16:30:00,0.11,2.42,0.01,0.61,5595820.0,Mount Vernon,above,Casey Fork,cfmi2,River Stage/Flow Location,5595820.0,38.286389,88.871389,pah,ncrfc,il,81.0,Upper Mississippi Region,CST,No,420,0.0,0.0,0.0,0.0,FT,,https://water.weather.gov/ahps2/hydrograph.php?wfo=pah&gage=cfmi2,hgirg,Yes,W,-9999 Feet,Data Point,No,No,Yes,US Geological Survey,No,No,,,,NGVD29,420.0,,420,,,5595860.0,-0.13,Casey Fork,jam
1498,2336000.0,"CHATTAHOOCHEE RIVER AT ATLANTA, GA",33.8592,-84.4544,3130001.0,EST,1130,cfs,2022-08-14 18:45:00,3.02,ft,2022-08-14 18:45:00,10.0,0.89,0.01,0.33,2336000.0,Atlanta,at,Chattahoochee River,ving1,River Stage/Flow Location,2336000.0,33.858889,84.454167,ffc,serfc,ga,121.0,South Atlantic-Gulf Region,EST,Yes,750.1 ft,12.0,14.0,18.0,20.0,FT,,https://water.weather.gov/ahps2/hydrograph.php?wfo=ffc&gage=ving1,hgirg,Yes,W,0 Feet,Year-round,Yes,No,Yes,US Geological Survey,Yes,Yes,Yes,Yes,Yes,NAVD88,750.3,,750.1 ft,,,2336490.0,-0.23,Chattahoochee River,jam
1536,2343801.0,"CHATTAHOOCHEE RIVER NEAR COLUMBIA, AL",31.2593,-85.1111,3130004.0,EST,4300,cfs,2022-08-14 18:45:00,77.76,ft,2022-08-14 18:45:00,2980.0,225.76,0.14,0.18,2343801.0,George W. Andrews Lock and Dam (USACE),at,Chattahoochee River,cola1,River Stage/Flow Location,2343801.0,31.259167,85.110278,tae,serfc,ga,99.0,South Atlantic-Gulf Region,EST,No,0 ft,92.0,106.0,112.0,124.0,FT,,https://water.weather.gov/ahps2/hydrograph.php?wfo=tae&gage=cola1,htirg,Yes,W,76.5 Feet,High Water,Yes,No,Yes,USGS and USACE,Yes,Yes,Yes,No,Yes,"WB FORM 4004B,3/7/56",0.0,,0 ft,,,23432415.0,-0.03,Chattahoochee River,jam
6197,12021800.0,"CHEHALIS RIVER NEAR ADNA, WA",46.6257,-123.102,17100103.0,PST,98.5,cfs,2022-08-14 15:00:00,192.7,ft,2022-08-14 15:00:00,1.9,1.97,0.01,0.01,12021800.0,Adna,near,Chehalis River,adnw1,River Stage/Flow Location,12021800.0,46.625833,123.100556,sew,nwrfc,wa,41.0,Pacific Northwest Region,PST,No,,0.0,0.0,0.0,0.0,FT,,https://water.weather.gov/ahps2/hydrograph.php?wfo=sew&gage=adnw1,hgirg,Yes,W,0 Feet,No routine,No,No,Yes,US Geological Survey,No,No,,,,NAVD88,0.0,,,,,12031000.0,-0.03,Chehalis River,jam
472,1505000.0,CHENANGO RIVER AT SHERBURNE NY,42.6786,-75.5106,2050102.0,EST,39.1,cfs,2022-08-14 17:30:00,1.55,ft,2022-08-14 17:30:00,1.4,3.71,0.01,0.65,1505000.0,Sherburne,at,Chenango River,shbn6,River Stage/Flow Location,1505000.0,42.678611,75.510833,bgm,marfc,ny,17.0,Mid Atlantic Region,EST,No,1037.16 ft,6.5,8.5,9.5,10.6,FT,,https://water.weather.gov/ahps2/hydrograph.php?wfo=bgm&gage=shbn6,hgirg,Yes,W,-9999 Feet,Year-round,No,No,Yes,US Geological Survey,Yes,Yes,Yes,Yes,Yes,NAVD88,1036.86,1036.86 ft,1037.16 ft,,,1505810.0,-0.15,Chenango River,jam
3634,5536140.0,"CHICAGO SANITARY AND SHIP CANAL AT STICKNEY, IL",41.8169,-87.7539,7120004.0,CST,0,,0000-00-00 00:00:00,-2.46,ft,2022-08-14 16:00:00,,,-0.02,0.82,5536140.0,Stickney,at,Chicago Sanitary and Ship Canal,stii2,River Stage/Flow Location,5536140.0,41.816944,87.753889,lot,ncrfc,il,31.0,Upper Mississippi Region,CST,No,,6.0,6.5,0.0,0.0,FT,,https://water.weather.gov/ahps2/hydrograph.php?wfo=lot&gage=stii2,hgirp,Yes,W,-4 Feet,No routine,Yes,No,Yes,US Geological Survey,Yes,No,,,,NAVD88,579.2,579.2,,,,5536890.0,-0.4,Chicago Sanitary and Ship Canal,jam
1762,2477500.0,"CHICKASAWHAY RIVER NR WAYNESBORO, MS",31.6826,-88.6835,3170002.0,CST,721,cfs,2022-08-14 17:00:00,5.48,ft,2022-08-14 17:00:00,25.0,3.59,0.1,1.86,2477500.0,Waynesboro,near,Chickasawhay River,wynm6,River Stage/Flow Location,2477500.0,31.68248,88.6835,mob,lmrfc,ms,153.0,South Atlantic-Gulf Region,CST,No,,30.0,35.0,45.0,48.0,FT,,https://water.weather.gov/ahps2/hydrograph.php?wfo=mob&gage=wynm6,hgirg,Yes,W,-9999 Feet,Year-round,No,No,No,US Geological Survey,Yes,Yes,Yes,Yes,Yes,NGVD29,119.91,,,,119.908 ft,2478500.0,-0.59,Chickasawhay River,jam
1579,2358789.0,CHIPOLA RIVER AT MARIANNA FL,30.773,-85.2163,3130012.0,CST,613,cfs,2022-08-14 17:00:00,7.13,ft,2022-08-14 17:00:00,3.0,0.49,0.01,0.14,2358789.0,Marianna (US 90),at,Chipola River,malf1,River Stage/Flow Location,2358789.0,30.772778,85.216389,tae,serfc,fl,63.0,South Atlantic-Gulf Region,EST,No,56 ft,14.0,18.0,22.0,26.0,FT,,https://water.weather.gov/ahps2/hydrograph.php?wfo=tae&gage=malf1,hgirg,Yes,W,5.65 Feet,High Water,No,No,Yes,US Geological Survey,Yes,Yes,Yes,No,Yes,,56.0,,56 ft,,,2359000.0,-0.17,Chipola River,jam
3353,5366800.0,"CHIPPEWA R AT GRAND AVE AT EAU CLAIRE, WI",44.8096,-91.503,7050005.0,CST,3060,cfs,2022-08-14 17:00:00,4.38,ft,2022-08-14 17:00:00,10.0,0.33,0.01,0.23,5366800.0,Eau Claire,at,Chippewa River (WI),eclw3,River Stage/Flow Location,5366800.0,44.8097,91.5029,mpx,ncrfc,wi,35.0,Upper Mississippi Region,CST,No,,764.0,773.0,776.0,778.0,FT,,https://water.weather.gov/ahps2/hydrograph.php?wfo=mpx&gage=eclw3,hgirp,Yes,W,-9999 Feet,High Water,No,No,Yes,City of Eau Claire/USGS 05366800,Yes,Yes,Yes,Yes,Yes,NAVD88,0.0,0,,,,5369500.0,-0.58,Chippewa River (WI),jam
428,1478000.0,"CHRISTINA RIVER AT COOCHS BRIDGE, DE",39.6374,-75.7279,2040205.0,EST,8.5,cfs,2022-08-14 18:15:00,4.16,ft,2022-08-14 18:15:00,0.39,4.81,0.01,0.24,1478000.0,Coochs Bridge,at,Christina River,chbd1,River Stage/Flow Location,1478000.0,39.6375,75.727778,phi,marfc,de,0.0,Mid Atlantic Region,EST,No,,9.0,11.0,12.0,13.0,FT,,https://water.weather.gov/ahps2/hydrograph.php?wfo=phi&gage=chbd1,hgirg,Yes,W,-9999 Feet,High Water,No,No,Yes,US Geological Survey,Yes,No,,,,NAVD88,24.52,24.52,,,,1480065.0,-48.34,Christina River,jam
2470,3350400.0,"MORSE RESERVOIR AT NOBLESVILLE, IN",40.0748,-86.0453,5120201.0,EST,0,,0000-00-00 00:00:00,9.42,ft,2022-08-14 17:45:00,,,0.02,0.21,3350400.0,Morse Reservoir,at,Cicero Creek,nmsi3,River Stage/Flow Location,3350400.0,40.0748,86.0453,ind,ohrfc,in,57.0,Ohio Region,EST,No,,0.0,0.0,0.0,0.0,FT,,https://water.weather.gov/ahps2/hydrograph.php?wfo=ind&gage=nmsi3,hpirg,Yes,W,809.44 Feet,Data Point,Yes,No,Yes,US Geological Survey,Yes,No,,,,NAVD88,800.12,800.12 ft,,,,3350500.0,-1.89,Cicero Creek,jam
4654,7157950.0,"Cimarron River near Buffalo, OK",36.852,-99.3154,11050001.0,CST,0.04,cfs,2022-08-14 17:30:00,2.81,ft,2022-08-14 17:30:00,0.01,33.33,0.01,0.36,7157950.0,Buffalo,near,Cimarron River,bffo2,River Stage/Flow Location,7157950.0,36.851975,99.315387,oun,abrfc,ok,151.0,Arkansas-White-Red Region,CST,No,1599.67,8.0,9.0,10.0,12.0,FT,,https://water.weather.gov/ahps2/hydrograph.php?wfo=oun&gage=bffo2,hgirg,Yes,W,-9999 Feet,High Water,No,No,Yes,US Geological Survey,No,Yes,Yes,Yes,Yes,NGVD29,1599.67,,1599.67,,,7159100.0,-0.23,Cimarron River,jam
3879,6207500.0,Clarks Fork Yellowstone River nr Belfry MT,45.0099,-109.065,10070006.0,MST,607,cfs,2022-08-14 16:00:00,1.72,ft,2022-08-14 16:00:00,6.0,1.0,0.01,0.58,6207500.0,Belfry,near,Clarks Fork of the Yellowstone,bfym8,River Stage/Flow Location,6207500.0,45.009911,109.065367,byz,mbrfc,mt,9.0,Missouri Region,MST,No,3986.24 ft,0.0,9.0,0.0,0.0,FT,,https://water.weather.gov/ahps2/hydrograph.php?wfo=byz&gage=bfym8,hgirz,Yes,W,-9999 Feet,Summer-only,No,No,Yes,US Geological Survey,Yes,Yes,Yes,Yes,Yes,NGVD 1929,3986.24,,3986.24 ft,,,6208500.0,-0.53,Clarks Fork of the Yellowstone,jam
4170,6715000.0,CLEAR CREEK ABV WEST FORK CLEAR CREEK NR EMPIRE CO,39.7519,-105.662,10190004.0,MST,52.3,cfs,2022-08-14 16:00:00,3.95,ft,2022-08-14 16:00:00,1.2,2.35,0.01,0.25,6715000.0,Empire,near,Clear Creek (CO),cwcc2,River Stage/Flow Location,6715000.0,39.7519,105.6619,bou,mbrfc,co,19.0,Missouri Region,MST,No,8280,6.5,7.0,0.0,0.0,FT,,https://water.weather.gov/ahps2/hydrograph.php?wfo=bou&gage=cwcc2,hgirg,Yes,W,-9999 Feet,Data Point,No,No,Yes,US Geological Survey,Yes,No,,,,,8280.0,,8280,,,6719505.0,-0.24,Clear Creek (CO),jam
617,1575500.0,"Codorus Creek near York, PA",39.9462,-76.7552,2050306.0,EST,177,cfs,2022-08-14 18:00:00,2.59,ft,2022-08-14 18:00:00,12.0,7.27,0.05,1.97,1575500.0,York,near,Codorus Creek,yrcp1,River Stage/Flow Location,1575500.0,39.946111,76.755556,ctp,marfc,pa,133.0,Mid Atlantic Region,EST,No,356.39,0.0,0.0,0.0,0.0,FT,,https://water.weather.gov/ahps2/hydrograph.php?wfo=ctp&gage=yrcp1,hgirg,Yes,W,,Data Point,No,No,Yes,US Geological Survey,Yes,No,,,,NGVD29,356.39,,356.39,,,1575598.0,-0.49,Codorus Creek,jam
5596,9010500.0,"COLORADO RIVER BELOW BAKER GULCH NR GRAND LAKE, CO",40.3258,-105.857,14010001.0,MST,23.9,cfs,2022-08-14 16:55:00,4.31,ft,2022-08-14 16:55:00,1.3,5.75,0.02,0.47,9010500.0,Grand Lake,above,Colorado River,bakc2,Stage/Flow and Precipitation Location,9010500.0,40.3258,105.8561,bou,cbrfc,co,49.0,Upper Colorado Region,MST,No,,7.6,8.0,8.5,9.0,FT,,https://water.weather.gov/ahps2/hydrograph.php?wfo=bou&gage=bakc2,hgirg,Yes,W,-9999 Feet,Year-round,No,No,Yes,US Geological Survey,Yes,No,,,,,8750.0,,8750,,,9058000.0,-0.17,Colorado River,jam
5617,9070500.0,"COLORADO RIVER NEAR DOTSERO, CO",39.6446,-107.078,14010001.0,MST,1560,cfs,2022-08-14 16:00:00,2.94,ft,2022-08-14 16:00:00,20.0,1.3,0.02,0.68,9070500.0,Dotsero,near,Colorado River,eglc2,River Stage/Flow Location,9070500.0,39.644611,107.078014,gjt,cbrfc,co,37.0,Upper Colorado Region,MST,No,6130 ft,11.5,12.0,13.0,14.0,FT,,https://water.weather.gov/ahps2/hydrograph.php?wfo=gjt&gage=eglc2,hgirg,Yes,W,-9999 Feet,Year-round,No,No,Yes,US Geological Survey,Yes,No,,,,NGVD29,6130.0,,6130 ft,,6130 ft,9085100.0,-0.22,Colorado River,jam
5703,9380000.0,"COLORADO RIVER AT LEES FERRY, AZ",36.8643,-111.588,14070007.0,MST,9810,cfs,2022-08-14 15:00:00,8.56,ft,2022-08-14 15:00:00,40.0,0.41,0.01,0.12,9380000.0,Lees Ferry,at,Colorado River,clfa3,River Stage/Flow Location,9380000.0,36.864722,111.5875,fgz,cbrfc,az,5.0,Lower Colorado Region,MST7,No,,0.0,0.0,0.0,0.0,FT,,https://water.weather.gov/ahps2/hydrograph.php?wfo=fgz&gage=clfa3,hgirg,Yes,W,-9999 Feet,Year-round,No,No,Yes,US Geological Survey,No,No,,,,NAVD88,3083.0,,,,,9402500.0,-0.25,Colorado River,jam
5740,9421500.0,"COLORADO RV BLW HOOVER DAM, AZ-NV",36.0153,-114.739,15010005.0,PST,0,,0000-00-00 00:00:00,46.64,ft,2022-08-14 15:55:00,,,0.43,0.93,9421500.0,Hoover Dam,below,Colorado River,bhda3,River Stage/Flow Location,9421500.0,36.01528,114.7378,vef,cbrfc,az,15.0,Lower Colorado Region,MST7,No,,0.0,0.0,0.0,0.0,FT,,https://water.weather.gov/ahps2/hydrograph.php?wfo=vef&gage=bhda3,hgirg,Yes,W,-9999 Feet,Data Point,No,No,Yes,US Geological Survey,No,No,,,,NGVD29,675.49,,,,,9422500.0,-0.05,Colorado River,jam
5303,8126380.0,"Colorado Rv nr Ballinger, TX",31.7154,-100.026,12090101.0,CST,0.25,cfs,2022-08-14 17:00:00,4.17,ft,2022-08-14 17:00:00,0.02,8.7,0.01,0.24,8126380.0,Ballinger,near,Colorado River (TX),blit2,River Stage/Flow Location,8126380.0,31.715278,100.026111,sjt,wgrfc,tx,,Texas-Gulf Region,CST,No,1606.51 ft,15.0,18.0,21.0,24.0,FT,,https://water.weather.gov/ahps2/hydrograph.php?wfo=sjt&gage=blit2,hgirg,Yes,W,,High Water,No,No,Yes,US Geological Survey,No,Yes,Yes,No,Yes,USGS,1606.51,,1606.51 ft,,,8136700.0,-0.54,Colorado River (TX),jam
5327,8147000.0,"Colorado Rv nr San Saba, TX",31.2179,-98.5645,12090201.0,CST,0,cfs,2022-08-14 17:35:00,0.96,ft,2022-08-14 17:35:00,,,0.01,1.05,8147000.0,San Saba,near,Colorado River (TX),snbt2,River Stage/Flow Location,8147000.0,31.217778,98.564167,sjt,wgrfc,tx,,Texas-Gulf Region,CST,No,1096.22 ft,25.0,30.0,34.0,38.0,FT,,https://water.weather.gov/ahps2/hydrograph.php?wfo=sjt&gage=snbt2,hgirg,Yes,W,,High Water,No,No,Yes,US Geological Survey,No,Yes,Yes,No,Yes,USGS,1096.22,,1096.22 ft,,,8154900.0,-0.01,Colorado River (TX),jam
5369,8159200.0,"Colorado Rv at Bastrop, TX",30.1047,-97.3194,12090301.0,CST,612,cfs,2022-08-14 17:40:00,3,ft,2022-08-14 17:40:00,17.0,2.86,0.03,1.01,8159200.0,Bastrop,at,Colorado River (TX),brtt2,River Stage/Flow Location,8159200.0,30.104444,97.319167,ewx,wgrfc,tx,0.0,Texas-Gulf Region,CST,Yes,307.38 ft,14.0,23.0,25.0,28.0,FT,,https://water.weather.gov/ahps2/hydrograph.php?wfo=ewx&gage=brtt2,hgirz,Yes,W,-9999 Feet,Year-round,No,No,Yes,US Geological Survey,Yes,Yes,Yes,No,Yes,NGVD 1929,307.38,,307.38 ft,,,8159500.0,-0.66,Colorado River (TX),jam
4991,7377500.0,"Comite River near Olive Branch, LA",30.7566,-91.044,8070202.0,CST,0,,0000-00-00 00:00:00,-0.72,ft,2022-08-14 17:15:00,,,-0.02,2.86,7377500.0,Olive Branch,near,Comite River,olvl1,River Stage/Flow Location,7377500.0,30.756389,91.043889,lix,lmrfc,la,37.0,South Atlantic-Gulf Region,CST,No,,16.0,19.0,22.0,24.0,FT,,https://water.weather.gov/ahps2/hydrograph.php?wfo=lix&gage=olvl1,hgirg,Yes,W,-9999 Feet,Year-round,No,No,Yes,US Geological Survey,Yes,Yes,Yes,Yes,Yes,NAVD88,113.15,113.15 ft,,,,7377600.0,-0.15,Comite River,jam
1156,2169750.0,"CONGAREE RIVER AT U.S. HWY 601 NR. FORT MOTTE, SC",33.7531,-80.645,3050110.0,EST,0,,0000-00-00 00:00:00,74.79,ft,2022-08-14 18:15:00,,,0.05,0.07,2169750.0,Fort Motte SC,above,Congaree River,cfms1,River Stage/Flow Location,2169750.0,33.75247,80.645374,cae,serfc,sc,17.0,South Atlantic-Gulf Region,EST,No,,0.0,0.0,0.0,0.0,FT,,https://water.weather.gov/ahps2/hydrograph.php?wfo=cae&gage=cfms1,hgirg,Yes,W,-9999 Feet,No routine,No,No,Yes,US Geological Survey,Yes,No,,,,0,0.0,0,,,,21695075.0,-0.02,Congaree River,jam
117,1144500.0,"CONNECTICUT RIVER AT WEST LEBANON, NH",43.6462,-72.3123,1080105.0,EST,5560,cfs,2022-08-14 18:30:00,6.5,ft,2022-08-14 18:30:00,420.0,8.17,0.19,3.01,1144500.0,West Lebanon,at,Connecticut River,wlbn3,River Stage/Flow Location,1144500.0,43.646182,72.3123,gyx,nerfc,nh,0.0,New England Region,EST,No,321.52 ft,20.0,22.0,26.0,29.0,FT,,https://water.weather.gov/ahps2/hydrograph.php?wfo=gyx&gage=wlbn3,hgirg,Yes,W,0 Feet,Year-round,No,No,Yes,US Geological Survey,Yes,Yes,Yes,Yes,Yes,NAVD88,321.11,,321.52 ft,,,1154500.0,-8.23,Connecticut River,jam
139,1190070.0,"CONNECTICUT RIVER AT HARTFORD, CT",41.7691,-72.6675,1080205.0,EST,0,,0000-00-00 00:00:00,3.04,ft,2022-08-14 18:30:00,,,0.04,1.33,1190070.0,Hartford,at,Connecticut River,hfdc3,River Stage/Flow Location,1190070.0,41.769094,72.66755,box,nerfc,ct,3.0,New England Region,EST,No,0,12.0,16.0,24.0,28.0,FT,,https://water.weather.gov/ahps2/hydrograph.php?wfo=box&gage=hfdc3,hgirg,Yes,W,-9999 Feet,Year-round,No,No,Yes,US Geological Survey,Yes,Yes,Yes,Yes,Yes,NGVD29,0.0,,0,,,1193050.0,-23.0,Connecticut River,jam
1187,2176500.0,"COOSAWHATCHIE RIVER NEAR HAMPTON, SC",32.8363,-81.1318,3050208.0,EST,34.6,cfs,2022-08-14 18:15:00,5.6,ft,2022-08-14 18:15:00,1.0,2.98,0.01,0.18,2176500.0,Hampton,near,Coosawhatchie River,hmps1,River Stage/Flow Location,2176500.0,32.836615,81.131492,chs,serfc,sc,49.0,South Atlantic-Gulf Region,EST,No,47.149,11.0,12.0,14.0,15.0,FT,,https://water.weather.gov/ahps2/hydrograph.php?wfo=chs&gage=hmps1,hgirg,Yes,W,-9999 Feet,Data Point,No,No,Yes,US Geological Survey,Yes,No,,,,NAVD88,46.26,46.26,47.149,,,21765182.0,-18.6,Coosawhatchie River,jam
1277,2208485.0,"CORNISH CREEK AT LOWER JERSEY RD, NR COVINGTON, GA",33.7108,-83.8111,3070103.0,EST,2.04,cfs,2022-08-14 18:45:00,1.61,ft,2022-08-14 18:45:00,0.13,6.81,0.01,0.62,2208485.0,Lower Jersey Road near Covington,at,Cornish Creek,ccjg1,Stage/Flow and Precipitation Location,2208485.0,33.710833,83.811111,ffc,serfc,ga,97.0,South Atlantic-Gulf Region,EST,No,,9.0,11.0,17.0,19.0,FT,,https://water.weather.gov/ahps2/hydrograph.php?wfo=ffc&gage=ccjg1,hgirg,Yes,W,-9999 Feet,Data Point,Yes,No,Yes,US Geological Survey,Yes,No,,,,NAVD88,706.95,706.95 ft,,,,2208493.0,-0.17,Cornish Creek,jam
3582,5514500.0,"Cuivre River near Troy, MO",39.0088,-90.9775,7110008.0,CST,93.6,cfs,2022-08-14 17:30:00,5.79,ft,2022-08-14 17:30:00,1.9,2.07,0.01,0.17,5514500.0,Troy,at,Cuivre River,trym7,River Stage/Flow Location,5514500.0,39.008889,90.9775,lsx,ncrfc,mo,113.0,Upper Mississippi Region,CST,No,450.27 ft,19.0,21.0,25.0,29.0,FT,,https://water.weather.gov/ahps2/hydrograph.php?wfo=lsx&gage=trym7,hgirg,Yes,W,-9999 Feet,High Water,No,No,Yes,US Geological Survey,Yes,Yes,Yes,Yes,Yes,NGVD 1929,450.27,449.92 ft,450.27 ft,,,5514705.0,-0.17,Cuivre River,jam
2593,3414100.0,"CUMBERLAND RIVER AT BURKESVILLE, KY",36.7867,-85.3652,5130103.0,CST,7860,cfs,2022-08-14 17:15:00,31.56,ft,2022-08-14 17:15:00,690.0,9.62,0.48,1.54,3414100.0,Burkesville,at,Cumberland River,brkk2,River Stage/Flow Location,3414100.0,36.78667,85.36528,lmk,ohrfc,ky,57.0,Ohio Region,CST,No,,43.0,46.0,55.0,64.0,FT,,https://water.weather.gov/ahps2/hydrograph.php?wfo=lmk&gage=brkk2,hgirg,Yes,W,-9999 Feet,High Water,No,No,Yes,US Geological Survey,Yes,Yes,Yes,Yes,Yes,NAVD88,499.61,499.61,,,,3417500.0,-0.11,Cumberland River,jam
2607,3431091.0,"CUMBERLAND R AT OMOHUNDRO WTR PLT AT NASHVILLE, TN",36.1653,-86.7214,5130202.0,CST,0,,0000-00-00 00:00:00,21.98,ft,2022-08-14 17:00:00,,,0.01,0.05,3431091.0,Omohundro,at,Cumberland River,omot1,River Stage/Flow Location,3431091.0,36.165278,86.721389,ohx,ohrfc,tn,0.0,Ohio Region,CST,No,,35.0,41.0,45.0,50.0,FT,,https://water.weather.gov/ahps2/hydrograph.php?wfo=ohx&gage=omot1,hgirz,Yes,W,-9999 Feet,Data Point,No,No,Yes,US Geological Survey,Yes,No,,,,,365.5,,,,,3431500.0,-0.05,Cumberland River,jam
3013,4206425.0,Cuyahoga River at Jaite OH,41.2889,-81.5651,4110002.0,EST,218,cfs,2022-08-14 18:45:00,2.4,ft,2022-08-14 18:45:00,7.0,3.32,0.02,0.84,4206425.0,Jaite,above,Cuyahoga River,jaio1,River Stage/Flow Location,4206425.0,41.2888,81.5652,cle,ohrfc,oh,153.0,Great Lakes Region,EST,No,,11.0,0.0,0.0,0.0,FT,,https://water.weather.gov/ahps2/hydrograph.php?wfo=cle&gage=jaio1,hgirg,Yes,W,0 Feet,Data Point,No,No,No,US Geological Survey,Yes,No,,,,NAVD88,0.0,,,,,4208000.0,-0.36,Cuyahoga River,jam
903,2068500.0,"DAN RIVER NEAR FRANCISCO, NC",36.515,-80.3031,3010103.0,EST,109,cfs,2022-08-14 18:30:00,1.68,ft,2022-08-14 18:30:00,2.0,1.87,0.01,0.6,2068500.0,Francisco,near,Dan River,frnn7,River Stage/Flow Location,2068500.0,36.515,80.303056,rnk,serfc,nc,0.0,South Atlantic-Gulf Region,EST,No,831.99,9.0,13.0,16.0,19.0,FT,,https://water.weather.gov/ahps2/hydrograph.php?wfo=rnk&gage=frnn7,hgirg,Yes,W,0 Feet,Data Point,No,No,Yes,US Geological Survey,Yes,No,,,,NAVD88,831.4,831.4,831.99,,,2069000.0,-0.46,Dan River,jam
627,1580000.0,"DEER CREEK AT ROCKS, MD",39.63,-76.4033,2050306.0,EST,53.8,cfs,2022-08-14 18:15:00,2.08,ft,2022-08-14 18:15:00,1.5,2.87,0.01,0.48,1580000.0,Rocks State Park,at,Deer Creek (MD),rspm2,River Stage/Flow Location,1580000.0,39.63,76.403333,lwx,marfc,md,25.0,Mid Atlantic Region,EST,No,,10.0,11.0,13.0,15.0,FT,,https://water.weather.gov/ahps2/hydrograph.php?wfo=lwx&gage=rspm2,hgirg,Yes,W,-9999 Feet,Data Point,No,No,Yes,US Geological Survey,Yes,No,,,,NAVD88,249.6,,,,,1580520.0,-0.81,Deer Creek (MD),jam
364,1440200.0,Delaware River near Delaware Water Gap Pa,41.0133,-75.0861,2040104.0,EST,0,,0000-00-00 00:00:00,5.33,ft,2022-08-14 18:15:00,,,0.02,0.38,1440200.0,Tocks Island,at,Delaware River,tksn4,River Stage/Flow Location,1440200.0,41.013333,75.086111,phi,marfc,nj,0.0,Mid Atlantic Region,EST,No,293.64 ft,20.0,21.0,23.0,25.0,FT,,https://water.weather.gov/ahps2/hydrograph.php?wfo=phi&gage=tksn4,hgirg,Yes,W,0 Feet,Year-round,No,No,Yes,US Geological Survey,Yes,Yes,Yes,No,Yes,NGVD 1929,293.64,,293.64 ft,,,1446500.0,-0.62,Delaware River,jam
389,1458500.0,Delaware River at Frenchtown NJ,40.5261,-75.065,2040105.0,EST,0,,0000-00-00 00:00:00,1.05,ft,2022-08-14 18:00:00,,,0.07,7.14,1458500.0,Frenchtown,at,Delaware River,fren4,River Stage/Flow Location,1458500.0,40.526111,75.065,phi,marfc,nj,0.0,Mid Atlantic Region,EST,Yes,99.88 ft,14.0,16.0,18.0,20.0,FT,,https://water.weather.gov/ahps2/hydrograph.php?wfo=phi&gage=fren4,hgirg,Yes,W,0 Feet,Year-round,No,No,Yes,Delaware Joint Toll Bridge Comm.,Yes,Yes,Yes,No,Yes,NGVD 1929,99.88,,99.88 ft,,,1461500.0,-5.56,Delaware River,jam
3541,5482000.0,"Des Moines River at 2nd Avenue at Des Moines, IA",41.6119,-93.6197,7100004.0,CST,760,cfs,2022-08-14 17:15:00,15.05,ft,2022-08-14 17:15:00,13.0,1.74,0.01,0.07,5482000.0,Des Moines 2nd Ave,at,Des Moines River,dmoi4,Stage/Flow and Precipitation Location,5482000.0,41.612291,93.619945,dmx,ncrfc,ia,153.0,Upper Mississippi Region,CST,No,,19.0,23.0,26.0,30.0,FT,,https://water.weather.gov/ahps2/hydrograph.php?wfo=dmx&gage=dmoi4,hgir2,Yes,W,-9999 Feet,High Water,Yes,Yes,Yes,US Geological Survey,Yes,Yes,Yes,Yes,Yes,NAVD88,773.26,,773.74 ft,,,5485500.0,-0.1,Des Moines River,jam
3619,5532500.0,"DES PLAINES RIVER AT RIVERSIDE, IL",41.8217,-87.8219,7120004.0,CST,189,cfs,2022-08-14 16:45:00,1.79,ft,2022-08-14 16:45:00,3.0,1.61,0.01,0.56,5532500.0,Riverside,at,Des Plaines River,rvri2,River Stage/Flow Location,5532500.0,41.821667,87.821944,lot,ncrfc,il,31.0,Upper Mississippi Region,CST,No,,7.0,7.5,8.0,9.0,FT,,https://water.weather.gov/ahps2/hydrograph.php?wfo=lot&gage=rvri2,hgirg,Yes,W,1.5 Feet,High Water,Yes,No,Yes,US Geological Survey,Yes,Yes,Yes,Yes,Yes,NAVD88,594.38,594.4,,,,5532600.0,-0.17,Des Plaines River,jam
3186,5056215.0,"EDMORE COULEE TRIB NR WEBSTER, ND",48.2664,-98.6809,9020201.0,CST,51.8,cfs,2022-08-14 17:00:00,69.65,ft,2022-08-14 17:00:00,1.5,2.98,0.04,0.06,5056215.0,Edmore Coulee Trib near Webster,at,Devils Lake,ectn8,River Stage/Flow Location,5056215.0,48.266389,98.680556,fgf,ncrfc,nd,71.0,Souris-Red-Rainy Region,CST,No,1403.80 ft,0.0,0.0,0.0,0.0,FT,,https://water.weather.gov/ahps2/hydrograph.php?wfo=fgf&gage=ectn8,hgirg,Yes,W,-9999 Feet,Data Point,No,No,Yes,US Geological Survey,Yes,No,,,,NAVD88,1405.04,1405.04 ft,1403.80 ft,,,5056239.0,-0.39,Devils Lake,jam
3190,5056265.0,"BIG COULEE AT HWY 2 NEAR CHURCHS FERRY, ND",48.2617,-99.1876,9020201.0,CST,0,,0000-00-00 00:00:00,50.46,ft,2022-08-14 17:15:00,,,0.01,0.02,5056265.0,Big Coulee at Hwy 2 near Churchs Ferry,at,Devils Lake,cfcn8,River Stage/Flow Location,5056265.0,48.261667,99.187222,fgf,ncrfc,nd,71.0,Souris-Red-Rainy Region,CST,No,1400.00 ft,0.0,0.0,0.0,0.0,FT,,https://water.weather.gov/ahps2/hydrograph.php?wfo=fgf&gage=cfcn8,hgirg,Yes,W,-9999 Feet,Data Point,No,No,Yes,US Geological Survey,Yes,No,,,,NAVD88,1455.0,1455.00 ft,1400.00 ft,,,5056500.0,-0.04,Devils Lake,jam
5644,9166500.0,"DOLORES RIVER AT DOLORES, CO.",37.4725,-108.498,14030002.0,MST,110,cfs,2022-08-14 16:45:00,2.4,ft,2022-08-14 16:45:00,9.0,8.91,0.04,1.69,9166500.0,Dolores,at,Dolores River,dolc2,River Stage/Flow Location,9166500.0,37.472493,108.497591,gjt,cbrfc,co,83.0,Upper Colorado Region,MST,No,6940 ft,7.0,8.0,9.0,10.0,FT,,https://water.weather.gov/ahps2/hydrograph.php?wfo=gjt&gage=dolc2,hgirg,Yes,W,-9999 Feet,Year-round,No,No,Yes,US Geological Survey,Yes,No,,,,NGVD29,6940.0,,6940 ft,,6940 ft,9171100.0,-1.42,Dolores River,jam
2698,3596000.0,"DUCK RIVER BELOW MANCHESTER, TN",35.4709,-86.1217,6040002.0,CST,31.1,cfs,2022-08-14 17:00:00,0.38,ft,2022-08-14 17:00:00,1.1,3.67,0.01,2.7,3596000.0,Manchester,at,Duck River,mcst1,River Stage/Flow Location,3596000.0,35.470833,86.121667,ohx,lmrfc,tn,,Tennessee Region,CST,No,,0.0,0.0,0.0,0.0,FT,,https://water.weather.gov/ahps2/hydrograph.php?wfo=ohx&gage=mcst1,hgirg,Yes,W,,Data Point,No,No,No,US Geological Survey,Yes,No,,,,NAVD88,878.25,,,,,3599240.0,-0.09,Duck River,jam
2539,3364000.0,"EAST FORK WHITE RIVER AT COLUMBUS, IN",39.2001,-85.9255,5120206.0,EST,390,cfs,2022-08-14 17:00:00,-0.67,ft,2022-08-14 17:00:00,-3.0,-0.76,-0.01,1.52,3364000.0,Columbus,at,East Fork White River,baki3,River Stage/Flow Location,3364000.0,39.2,85.9256,ind,ohrfc,in,5.0,Ohio Region,EST,No,603.12 ft,4.5,9.0,14.0,16.0,FT,,https://water.weather.gov/ahps2/hydrograph.php?wfo=ind&gage=baki3,hgirg,Yes,W,0.133 KCFS,Year-round,No,No,Yes,US Geological Survey,Yes,Yes,Yes,Yes,Yes,NAVD88,602.61,602.61 ft,603.12 ft,,,3371500.0,-0.35,East Fork White River,jam
1180,2174055.0,"EDISTO RIVER BELOW CANADYS, SC",33.0617,-80.5244,3050205.0,EST,0,,0000-00-00 00:00:00,13.7,ft,2022-08-14 18:30:00,,,0.01,0.07,2174055.0,Canadys,below,Edisto River,cers1,River Stage/Flow Location,2174055.0,33.061667,80.524389,chs,serfc,sc,35.0,South Atlantic-Gulf Region,EST,No,48.199,0.0,0.0,0.0,0.0,FT,,https://water.weather.gov/ahps2/hydrograph.php?wfo=chs&gage=cers1,hgirg,Yes,W,-9999 Feet,Data Point,No,No,Yes,US Geological Survey,Yes,No,,,,,,47.24,48.199,,,2175025.0,-6.7,Edisto River,jam
865,2042893.0,"WB ELIZABETH RIVER AT ROUTE 17 NEAR PORTSMOUTH, VA",36.8437,-76.3649,2080208.0,EST,0,,0000-00-00 00:00:00,2.63,ft,2022-08-14 18:54:00,,,0.18,7.35,2042893.0,Pinehurst in Portsmouth (IN MLLW),near,Elizabeth River,elzv2,River Stage/Flow Location,2042893.0,36.8436,76.3647,akq,marfc,va,740.0,Mid Atlantic Region,EST,No,-0.909,4.5,5.0,6.0,7.0,FT,,https://water.weather.gov/ahps2/hydrograph.php?wfo=akq&gage=elzv2,hmirz,Yes,W,-9999 Feet,Year-round,No,No,Yes,US Geological Survey,Yes,No,,,,NAVD88,0.0,-1.78,-0.909,-1.483,-3.025,204288721.0,-0.81,Elizabeth River,jam
4209,6797500.0,"Elkhorn River at Ewing, Nebr.",42.2684,-98.3394,10220001.0,CST,16.3,cfs,2022-08-14 17:45:00,1.99,ft,2022-08-14 17:45:00,0.7,4.49,0.01,0.51,6797500.0,Ewing,at,Elkhorn River,ewin1,River Stage/Flow Location,6797500.0,42.268333,98.339444,lbf,mbrfc,ne,89.0,Missouri Region,CST,No,1836.24 ft,8.0,9.0,10.0,12.0,FT,,https://water.weather.gov/ahps2/hydrograph.php?wfo=lbf&gage=ewin1,hgirg,Yes,W,-9999 Feet,High Water,No,No,Yes,US Geological Survey,Yes,Yes,Yes,Yes,Yes,NGVD 1929,1836.24,,1836.24 ft,,,6799315.0,-0.33,Elkhorn River,jam
944,2086849.0,"ELLERBE CREEK NEAR GORMAN, NC",36.0593,-78.8325,3020201.0,EST,17.1,cfs,2022-08-14 18:00:00,1.51,ft,2022-08-14 18:00:00,0.8,4.91,0.01,0.67,2086849.0,Gorman,near,Ellerbe Creek (NC),gorn7,River Stage/Flow Location,2086849.0,36.059167,78.832778,rah,abrfc,nc,63.0,South Atlantic-Gulf Region,EST,No,,14.0,15.0,16.0,0.0,FT,,https://water.weather.gov/ahps2/hydrograph.php?wfo=rah&gage=gorn7,hgirg,Yes,W,-9999 Feet,No routine,No,No,No,US Geological Survey,No,No,,,,NAVD88,252.81,252.81,,,,208675010.0,-2.63,Ellerbe Creek (NC),jam
1653,2388975.0,"ETOWAH RIVER AT GA 136, NEAR LANDDRUM, GA",34.4091,-84.0198,3150104.0,EST,126,cfs,2022-08-14 18:45:00,1.93,ft,2022-08-14 18:45:00,1.0,0.8,0.01,0.52,2388975.0,GA 136 near Landrum,at,Etowah River,lang1,Stage/Flow and Precipitation Location,2388975.0,34.408889,84.019722,ffc,serfc,ga,85.0,South Atlantic-Gulf Region,EST,No,,12.0,14.0,21.0,27.0,FT,,https://water.weather.gov/ahps2/hydrograph.php?wfo=ffc&gage=lang1,hgirg,Yes,W,-9999 Feet,Data Point,Yes,No,Yes,US Geological Survey,Yes,No,,,,NGVD29,1080.0,,1080 ft,,,2389150.0,-0.24,Etowah River,jam
1676,2395000.0,"ETOWAH RIVER NEAR KINGSTON,GA",34.2093,-84.9788,3150104.0,EST,599,cfs,2022-08-14 18:00:00,3.74,ft,2022-08-14 18:00:00,7.0,1.18,0.01,0.27,2395000.0,Kingston,near,Etowah River,kgtg1,River Stage/Flow Location,2395000.0,34.208889,84.978611,ffc,serfc,ga,15.0,South Atlantic-Gulf Region,EST,No,609.97 ft,18.0,20.0,24.0,26.0,FT,,https://water.weather.gov/ahps2/hydrograph.php?wfo=ffc&gage=kgtg1,hgirg,Yes,W,0 Feet,Data Point,Yes,No,Yes,US Geological Survey,Yes,No,,,,NAVD88,609.6,,609.97 ft,,,2395980.0,-0.3,Etowah River,jam
1538,2344143.0,"FLINT RIVER AT GA 85, NEAR FOREST PARK, GA",33.6055,-84.4045,3130005.0,EST,6.81,cfs,2022-08-14 18:45:00,-1.48,ft,2022-08-14 18:45:00,-0.19,-2.71,-0.01,0.68,2344143.0,GA 85 near Forest Park,at,Flint River,frsg1,Stage/Flow and Precipitation Location,2344143.0,33.605472,84.404639,ffc,serfc,ga,63.0,South Atlantic-Gulf Region,EST,No,,0.0,0.0,0.0,0.0,FT,,https://water.weather.gov/ahps2/hydrograph.php?wfo=ffc&gage=frsg1,hgirg,Yes,W,-9999 Feet,Data Point,No,No,Yes,US Geological Survey,Yes,No,,,,NGVD29,833.2,,,,,2344500.0,-0.59,Flint River,jam
1563,2352500.0,"FLINT RIVER AT ALBANY, GA",31.5942,-84.1442,3130008.0,EST,2240,cfs,2022-08-14 18:45:00,3.23,ft,2022-08-14 18:45:00,460.0,25.84,0.46,16.61,2352500.0,Albany,at,Flint River (GA),abng1,River Stage/Flow Location,2352500.0,31.594167,84.144167,tae,serfc,ga,95.0,South Atlantic-Gulf Region,EST,Yes,150.03 ft,16.0,26.0,31.0,42.0,FT,,https://water.weather.gov/ahps2/hydrograph.php?wfo=tae&gage=abng1,hgirg,Yes,W,2 Feet,Year-round,No,No,Yes,US Geological Survey,Yes,Yes,Yes,No,Yes,NAVD88,150.03,,150.03 ft,,,2353000.0,-2.71,Flint River (GA),jam
1571,2355662.0,"FLINT RIVER AT RIVERVIEW PLANTATION, NR HOPEFUL,GA",31.1406,-84.4803,3130008.0,EST,4870,cfs,2022-08-14 18:00:00,6.54,ft,2022-08-14 18:00:00,70.0,1.46,0.06,0.93,2355662.0,Riverview Plantation,at,Flint River (GA),hopg1,River Stage/Flow Location,2355662.0,31.140556,84.480833,tae,serfc,ga,205.0,South Atlantic-Gulf Region,EST,No,,25.0,30.0,38.0,43.0,FT,,https://water.weather.gov/ahps2/hydrograph.php?wfo=tae&gage=hopg1,hgirg,Yes,W,3.8 Feet,Data Point,No,No,Yes,US Geological Survey,Yes,No,,,,,75.9,75.9,,,,2356000.0,-0.1,Flint River (GA),jam
3675,5543830.0,"FOX RIVER AT WAUKESHA, WI",43.0047,-88.2436,7120006.0,CST,32.2,cfs,2022-08-14 17:00:00,2.72,ft,2022-08-14 17:00:00,1.1,3.54,0.01,0.37,5543830.0,Waukesha,at,Fox River,wkew3,River Stage/Flow Location,5543830.0,43.004722,88.243611,mkx,ncrfc,wi,133.0,Upper Mississippi Region,CST,Yes,793.04 ft,5.0,6.0,8.0,10.0,FT,,https://water.weather.gov/ahps2/hydrograph.php?wfo=mkx&gage=wkew3,hgirp,Yes,W,-9999 Feet,High Water,No,No,Yes,US Geological Survey,Yes,Yes,Yes,Yes,Yes,NAVD88,792.8,792.8 ft,793.04 ft,,,5544348.0,-0.65,Fox River,jam
3680,5547000.0,"CHANNEL LAKE NEAR ANTIOCH, IL",42.4717,-88.1469,7120006.0,CST,0,,0000-00-00 00:00:00,4.11,ft,2022-08-14 16:45:00,,,0.02,0.49,5547000.0,Antioch,near,Fox River,anci2,River Stage/Flow Location,5547000.0,42.4717,88.146944,lot,ncrfc,il,97.0,Upper Mississippi Region,CST,No,,5.0,6.0,7.0,7.5,FT,,https://water.weather.gov/ahps2/hydrograph.php?wfo=lot&gage=anci2,hgirg,Yes,W,-9999 Feet,No routine,No,No,Yes,US Geological Survey,No,No,,,,NAVD88,732.7,,,,,5548000.0,-0.24,Fox River,jam
2780,4073365.0,"FOX RIVER AT PRINCETON, WI",43.8511,-89.1333,4030201.0,CST,497,cfs,2022-08-14 17:00:00,3.81,ft,2022-08-14 17:00:00,3.0,0.61,0.01,0.26,4073365.0,Princeton,at,Fox River (North),pcnw3,Stage/Flow and Precipitation Location,4073365.0,43.85113,89.13336,mkx,ncrfc,wi,47.0,Great Lakes Region,CST,No,,7.5,9.5,11.0,12.0,FT,,https://water.weather.gov/ahps2/hydrograph.php?wfo=mkx&gage=pcnw3,hgirp,Yes,W,-9999 Feet,High Water,No,No,Yes,US Geological Survey,Yes,Yes,Yes,Yes,Yes,NAVD88,754.48,754.48 ft,753.96 ft,,,4073500.0,-0.12,Fox River (North),jam
2638,3454500.0,"FRENCH BROAD RIVER AT HOT SPRINGS, NC",35.8899,-82.821,6010105.0,EST,1650,cfs,2022-08-14 18:15:00,3.06,ft,2022-08-14 18:15:00,30.0,1.85,0.01,0.33,3454500.0,Hot Springs,near,French Broad River,hspn7,River Stage/Flow Location,3454500.0,35.889722,82.821111,gsp,lmrfc,nc,115.0,Tennessee Region,EST,No,1311.55,7.5,9.5,16.0,21.0,FT,,https://water.weather.gov/ahps2/hydrograph.php?wfo=gsp&gage=hspn7,hgirg,Yes,W,-9999 Feet,High Water,No,No,Yes,US Geological Survey,Yes,Yes,Yes,Yes,Yes,NAVD88,1311.1,,1311.55,,,3455000.0,-0.87,French Broad River,jam
5749,9430030.0,"Gila River nr Gila Hot Springs, NM",33.1797,-108.206,15040001.0,MST,932,cfs,2022-08-14 16:25:00,17.4,ft,2022-08-14 16:25:00,9.0,0.98,0.03,0.17,9430030.0,East Fork and Gila Hot Springs,below,Gila River,efgn5,River Stage/Flow Location,9430030.0,33.17991,108.20646,epz,cbrfc,nm,17.0,Lower Colorado Region,MST,No,,0.0,0.0,0.0,0.0,FT,,https://water.weather.gov/ahps2/hydrograph.php?wfo=epz&gage=efgn5,hgirg,Yes,W,-9999 Feet,Data Point,No,No,Yes,US Geological Survey,No,No,,,,NAVD88,5556.0,,,,,9430500.0,-1.82,Gila River,jam
5753,9432000.0,"GILA RIVER BELOW BLUE CREEK, NEAR VIRDEN, NM",32.6482,-108.846,15040002.0,MST,1620,cfs,2022-08-14 15:30:00,8.91,ft,2022-08-14 15:30:00,40.0,2.53,0.09,1.02,9432000.0,Virden,near,Gila River,gvrn5,River Stage/Flow Location,9432000.0,32.64619,108.84656,epz,cbrfc,nm,0.0,Lower Colorado Region,MST,No,3875 ft,9.0,15.0,20.0,28.0,FT,,https://water.weather.gov/ahps2/hydrograph.php?wfo=epz&gage=gvrn5,hgirg,Yes,W,-9999 Feet,High Water,No,No,Yes,US Geological Survey,No,No,,,,NAVD88,3869.0,,3875 ft,,,9448500.0,-0.41,Gila River,jam
5761,9466500.0,"GILA RIVER AT CALVA, AZ.",33.1856,-110.22,15040005.0,MST,1080,cfs,2022-08-14 15:00:00,5.13,ft,2022-08-14 15:00:00,30.0,2.86,0.05,0.98,9466500.0,Calva,near,Gila River,glca3,River Stage/Flow Location,9466500.0,33.185613,110.22009,twc,cbrfc,az,0.0,Lower Colorado Region,MST7,No,2517.29 ft,15.0,20.0,24.0,27.0,FT,,https://water.weather.gov/ahps2/hydrograph.php?wfo=twc&gage=glca3,hgirg,Yes,W,-9999 Feet,Year-round,No,No,Yes,US Geological Survey,No,No,,,,NGVD 1929,2517.29,,2517.29 ft,,,9474000.0,-1.02,Gila River,jam
2858,4114000.0,"GRAND RIVER AT PORTLAND, MI",42.8564,-84.9122,4050004.0,EST,768,cfs,2022-08-14 17:00:00,6.13,ft,2022-08-14 17:00:00,20.0,2.67,0.03,0.49,4114000.0,Portland,at,Grand River,porm4,River Stage/Flow Location,4114000.0,42.856423,84.912218,grr,ncrfc,mi,67.0,Great Lakes Region,EST,No,,11.0,12.0,14.0,16.0,FT,,https://water.weather.gov/ahps2/hydrograph.php?wfo=grr&gage=porm4,hgirg,Yes,W,-9999 Feet,High Water,No,No,Yes,US Geological Survey,Yes,Yes,Yes,Yes,Yes,NAVD88,704.52,704.52 ft,,,,4116000.0,-0.11,Grand River,jam
2869,4118564.0,"GRAND RIVER AT N PARK ST NE AT GRAND RAPIDS, MI",43.0228,-85.6608,4050006.0,EST,0,,0000-00-00 00:00:00,3.9,ft,2022-08-14 17:00:00,,,0.01,0.26,4118564.0,North Park St at Grand Rapids,at,Grand River,gnpm4,River Stage/Flow Location,4118564.0,43.022778,85.660833,grr,ncrfc,mi,81.0,Great Lakes Region,EST,No,,0.0,0.0,0.0,0.0,FT,,https://water.weather.gov/ahps2/hydrograph.php?wfo=grr&gage=gnpm4,hgirz,Yes,W,-9999 Feet,Data Point,No,No,Yes,US Geological Survey,No,No,,,,NAVD88,601.5,601.50 ft,,,,4119070.0,-0.97,Grand River,jam
2384,3316500.0,"GREEN RIVER AT PARADISE, KY",37.2639,-86.9778,5110003.0,CST,6650,cfs,2022-08-14 17:15:00,4.42,ft,2022-08-14 17:15:00,50.0,0.76,0.03,0.68,3316500.0,Paradise,at,Green River (KY),prdk2,River Stage/Flow Location,3316500.0,37.263889,86.977778,pah,ohrfc,ky,177.0,Ohio Region,CST,No,0,378.0,380.0,386.0,400.0,FT,,https://water.weather.gov/ahps2/hydrograph.php?wfo=pah&gage=prdk2,hgirg,Yes,W,364 Feet,Year-round,No,No,No,US Geological Survey,Yes,Yes,Yes,Yes,Yes,NGVD29,363.19,,0,,,3316645.0,-0.25,Green River (KY),jam
5402,8168500.0,"Guadalupe Rv abv Comal Rv at New Braunfels, TX",29.7149,-98.11,12100202.0,CST,93.4,cfs,2022-08-14 17:45:00,1.85,ft,2022-08-14 17:45:00,1.6,1.74,0.01,0.54,8168500.0,Comal River at New Braunfels,above,Guadalupe River,nbrt2,River Stage/Flow Location,8168500.0,29.714722,98.109722,ewx,wgrfc,tx,,Texas-Gulf Region,CST,No,586.65 ft,6.0,7.0,10.0,14.0,FT,,https://water.weather.gov/ahps2/hydrograph.php?wfo=ewx&gage=nbrt2,hgirg,Yes,W,-9999 Feet,Year-round,No,No,Yes,US Geological Survey,Yes,Yes,Yes,No,Yes,NGVD 1929,586.65,,586.65 ft,,,8169740.0,-14.04,Guadalupe River,jam
5421,8173900.0,"Guadalupe Rv at Gonzales, TX",29.4844,-97.4503,12100202.0,CST,120,cfs,2022-08-14 17:45:00,10.82,ft,2022-08-14 17:45:00,3.0,2.56,0.01,0.09,8173900.0,Gonzales,at,Guadalupe River,gnlt2,River Stage/Flow Location,8173900.0,29.484167,97.45,ewx,wgrfc,tx,,Texas-Gulf Region,CST,No,231.8 ft,17.0,31.0,37.0,43.0,FT,,https://water.weather.gov/ahps2/hydrograph.php?wfo=ewx&gage=gnlt2,hgirg,Yes,W,-9999 Feet,Year-round,No,No,Yes,US Geological Survey,Yes,Yes,Yes,No,Yes,NGVD 1929,231.8,,231.8 ft,,,8174700.0,-1.31,Guadalupe River,jam
1399,2299230.0,MYAKKA RIVER AT NORTH PORT CHARLOTTE FL,27.0452,-82.2931,3100102.0,EST,0,,0000-00-00 00:00:00,1.22,ft,2022-08-14 18:00:00,,,0.22,22.0,2299230.0,North Port Charlotte (In MHHW),at,Gulf of Mexico Tide Gauge,mrnf1,River Stage/Flow Location,2299230.0,27.044722,82.293056,tbw,serfc,fl,115.0,South Atlantic-Gulf Region,EST,No,,0.0,0.0,0.0,0.0,FT,,https://water.weather.gov/ahps2/hydrograph.php?wfo=tbw&gage=mrnf1,hgirg,Yes,W,-4 Feet,No routine,No,No,No,US Geological Survey,No,No,,,,NAVD88,,-0.09,,,-0.58,2327031.0,-16.41,Gulf of Mexico Tide Gauge,jam
4510,7029270.0,"HATCHIE RIVER NR WALNUT, MS",34.9418,-88.7876,8010207.0,CST,99.1,cfs,2022-08-14 17:15:00,8.73,ft,2022-08-14 17:15:00,0.8,0.81,0.01,0.11,7029270.0,Walnut,other,Hatchie River,wlnm6,River Stage/Flow Location,7029270.0,34.941667,88.7875,meg,lmrfc,ms,3.0,Lower Mississippi Region,CST,No,372.79,0.0,0.0,0.0,0.0,FT,,https://water.weather.gov/ahps2/hydrograph.php?wfo=meg&gage=wlnm6,hgirg,Yes,W,-9999 Feet,No routine,No,No,No,US Geological Survey,Yes,No,,,,NGVD29,372.79,,372.79,,,7029500.0,-1.02,Hatchie River,jam
981,2096960.0,"HAW RIVER NEAR BYNUM, NC",35.7653,-79.1358,3030002.0,EST,115,cfs,2022-08-14 18:45:00,2.92,ft,2022-08-14 18:45:00,3.0,2.68,0.01,0.34,2096960.0,Bynum,near,Haw River,bynn7,River Stage/Flow Location,2096960.0,35.76528,79.13583,rah,serfc,nc,37.0,South Atlantic-Gulf Region,EST,Yes,283.31 ft,10.0,11.0,15.0,17.0,FT,,https://water.weather.gov/ahps2/hydrograph.php?wfo=rah&gage=bynn7,hgirg,Yes,W,0 Feet,Year-round,No,No,Yes,US Geological Survey,Yes,Yes,Yes,Yes,Yes,NAVD88,282.51,,283.31 ft,,,2098206.0,-0.45,Haw River,jam
5663,9229500.0,"HENRYS FORK NEAR MANILA, UT",41.0045,-109.668,14040106.0,MST,Rat,cfs,2022-08-14 16:15:00,6.76,ft,2022-08-14 16:15:00,,,0.04,0.6,9229500.0,Manila,at,Henrys Fork,hfmw4,Stage/Flow and Precipitation Location,9229500.0,41.0109,109.67369,riw,cbrfc,wy,37.0,Upper Colorado Region,MST,No,,6.5,7.0,0.0,0.0,FT,,https://water.weather.gov/ahps2/hydrograph.php?wfo=riw&gage=hfmw4,hgirg,No,W,-9999 Feet,Year-round,No,No,Yes,US Geological Survey,No,Yes,Yes,No,Yes,NGVD 1929,6060.0,,6060.0 ft,,,13046000.0,-0.26,Henrys Fork,jam
172,1315500.0,HUDSON RIVER AT NORTH CREEK NY,43.7008,-73.9833,2020001.0,EST,1060,cfs,2022-08-14 17:15:00,3.63,ft,2022-08-14 17:15:00,793.0,297.0,1.14,45.78,1315500.0,North Creek,at,Hudson River,nckn6,River Stage/Flow Location,1315500.0,43.700833,73.983333,aly,nerfc,ny,0.0,Mid Atlantic Region,EST,No,987.51 ft,8.0,10.0,11.0,13.0,FT,,https://water.weather.gov/ahps2/hydrograph.php?wfo=aly&gage=nckn6,hgirg,Yes,W,-9999 Feet,Year-round,No,No,Yes,US Geological Survey,No,Yes,Yes,Yes,Yes,NGVD 1929,987.51,,987.51 ft,,,1318500.0,-2.08,Hudson River,jam
205,1359139.0,HUDSON RIVER AT ALBANY NY,42.6479,-73.7475,2020006.0,EST,0,,0000-00-00 00:00:00,4.57,ft,2022-08-14 17:30:00,,,0.76,19.95,1359139.0,Albany,at,Hudson River,albn6,River Stage/Flow Location,1359139.0,42.646111,73.7475,aly,nerfc,ny,0.0,Mid Atlantic Region,EST,No,0 ft,9.0,11.0,13.0,15.0,FT,,https://water.weather.gov/ahps2/hydrograph.php?wfo=aly&gage=albn6,hgirg,Yes,W,-9999 Feet,Year-round,No,No,Yes,US Geological Survey,No,No,,,,NGVD 1929,0.0,,0 ft,,,1372043.0,-36.07,Hudson River,jam
5917,10321000.0,"HUMBOLDT RV NR CARLIN, NV",40.7277,-116.009,16040101.0,PST,4.08,cfs,2022-08-14 15:45:00,0.41,ft,2022-08-14 15:45:00,0.27,7.09,0.01,2.5,10321000.0,Carlin,near,Humboldt River,hrcn2,River Stage/Flow Location,10321000.0,40.727778,116.008333,lkn,cnrfc,nv,0.0,Great Basin Region,PST,No,,6.0,7.0,8.0,8.5,FT,,https://water.weather.gov/ahps2/hydrograph.php?wfo=lkn&gage=hrcn2,hgirg,Yes,W,-9999 Feet,Data Point,No,No,Yes,US Geological Survey,Yes,No,,,,NAVD88,4935.6,4935.6 ft,,,,10322500.0,-1.54,Humboldt River,jam
5923,10325000.0,"HUMBOLDT RV AT BATTLE MOUNTAIN, NV",40.6677,-116.931,16040105.0,PST,1.1,cfs,2022-08-14 15:15:00,2.49,ft,2022-08-14 15:15:00,0.09,8.91,0.01,0.4,10325000.0,Battle Mountain,at,Humboldt River,hbmn2,River Stage/Flow Location,10325000.0,40.667778,116.930278,lkn,cnrfc,nv,15.0,Great Basin Region,PST,No,,8.5,9.5,10.5,11.5,FT,,https://water.weather.gov/ahps2/hydrograph.php?wfo=lkn&gage=hbmn2,hgirg,Yes,W,-9999 Feet,Year-round,No,No,Yes,US Geological Survey,Yes,Yes,Yes,No,Yes,NAVD88,4492.9,4492.9 ft,,,,10333000.0,-1.23,Humboldt River,jam
3673,5543010.0,"ILLINOIS RIVER AT SENECA, IL",41.2997,-88.6142,7120005.0,CST,0,,0000-00-00 00:00:00,20.81,ft,2022-08-14 16:45:00,,,0.01,0.05,5543010.0,Seneca,at,Illinois River,snai2,River Stage/Flow Location,5543010.0,41.299722,88.614167,lot,ncrfc,il,99.0,Upper Mississippi Region,CST,No,,26.0,0.0,0.0,0.0,FT,,https://water.weather.gov/ahps2/hydrograph.php?wfo=lot&gage=snai2,hgirg,Yes,W,18.6 Feet,No routine,Yes,No,Yes,US Geological Survey,No,No,,,,NAVD88,462.44,462.44,,,,5543500.0,-0.88,Illinois River,jam
3711,5568615.0,"ILLINOIS RIVER AT COPPERAS CREEK, IL",40.4762,-89.8884,7130003.0,CST,0,,0000-00-00 00:00:00,3.04,ft,2022-08-14 16:00:00,,,0.03,1.0,5568615.0,Copperas Creek,at,Illinois River,copi2,River Stage/Flow Location,5568615.0,40.476151,89.888446,ilx,ncrfc,il,57.0,Upper Mississippi Region,CST,No,428.00 ft,0.0,0.0,0.0,0.0,FT,,https://water.weather.gov/ahps2/hydrograph.php?wfo=ilx&gage=copi2,hgirg,Yes,W,-9999 Feet,Data Point,No,No,Yes,US Geological Survey & USACE,Yes,No,,,,NGVD29,428.0,,428.00 ft,,,5585500.0,-1.54,Illinois River,jam
4717,7195500.0,"Illinois River near Watts, OK",36.1301,-94.5722,11110103.0,CST,247,cfs,2022-08-14 17:30:00,2.86,ft,2022-08-14 17:30:00,3.0,1.23,0.01,0.35,7195500.0,Watts,near,Illinois River (AR OK),wtto2,River Stage/Flow Location,7195500.0,36.13,94.571944,tsa,abrfc,ok,,Arkansas-White-Red Region,CST,No,893.78 ft,13.0,13.0,17.0,23.0,FT,,https://water.weather.gov/ahps2/hydrograph.php?wfo=tsa&gage=wtto2,hgirg,Yes,W,-9999 Feet,Year-round,No,No,Yes,US Geological Survey,Yes,Yes,Yes,Yes,Yes,1929 NGVD,893.78,,893.78 ft,,,7196500.0,-0.2,Illinois River (AR OK),jam
446,1484540.0,"INDIAN RIVER AT ROSEDALE BEACH, DE",38.5915,-75.2116,2040303.0,EST,0,,0000-00-00 00:00:00,-0.65,ft,2022-08-14 18:36:00,,,-0.29,80.56,1484540.0,Rosedale Beach (IN MLLW),at,Indian River,irrd1,River Stage/Flow Location,1484540.0,38.591667,75.211667,phi,marfc,de,5.0,Mid Atlantic Region,EST,No,,0.0,4.5,5.5,6.5,FT,,https://water.weather.gov/ahps2/hydrograph.php?wfo=phi&gage=irrd1,hgirg,Yes,W,-2 Feet,No routine,No,No,Yes,US Geological Survey,No,No,,,,,0.0,-1.5,,,-0.94,1484683.0,-36.92,Indian River,jam
3473,5453100.0,"Iowa River at Marengo, IA",41.8127,-92.0648,7080208.0,CST,413,cfs,2022-08-14 17:00:00,6.08,ft,2022-08-14 17:00:00,4.0,0.98,0.01,0.16,5453100.0,Marengo,at,Iowa River,mroi4,River Stage/Flow Location,5453100.0,41.812726,92.064792,dvn,ncrfc,ia,95.0,Upper Mississippi Region,CST,No,720.52 ft,13.0,15.0,17.0,19.0,FT,,https://water.weather.gov/ahps2/hydrograph.php?wfo=dvn&gage=mroi4,hgirg,Yes,W,-9999 Feet,High Water,No,No,Yes,U.S. Geological Survey,Yes,Yes,Yes,Yes,Yes,NGVD29,720.45,720.45 ft,720.52 ft,,,5465100.0,-0.09,Iowa River,jam
3598,5525000.0,"IROQUOIS RIVER AT IROQUOIS, IL",40.8231,-87.5817,7120002.0,CST,130,cfs,2022-08-14 16:00:00,4.78,ft,2022-08-14 16:00:00,2.0,1.56,0.02,0.42,5525000.0,Iroquois,at,Iroquois River,irqi2,River Stage/Flow Location,5525000.0,40.822778,87.581389,lot,ncrfc,il,75.0,Upper Mississippi Region,CST,No,614.34,17.0,18.0,24.0,25.0,FT,,https://water.weather.gov/ahps2/hydrograph.php?wfo=lot&gage=irqi2,hgirg,Yes,W,3 Feet,High Water,Yes,No,Yes,US Geological Survey,Yes,Yes,Yes,Yes,No,NAVD88,614.1,614.1,614.34,,,5526000.0,-0.36,Iroquois River,jam
4064,6476000.0,"JAMES R AT HURON,SD",44.3636,-98.1993,10160006.0,CST,2240,cfs,2022-08-14 17:00:00,11.11,ft,2022-08-14 17:00:00,60.0,2.75,0.04,0.36,6476000.0,Huron,at,James River,hurs2,River Stage/Flow Location,6476000.0,44.363611,98.198889,fsd,mbrfc,sd,5.0,Missouri Region,CST,No,,10.0,11.0,13.0,15.0,FT,,https://water.weather.gov/ahps2/hydrograph.php?wfo=fsd&gage=hurs2,hgirp,Yes,W,-9999 Feet,High Water,No,No,Yes,US Geological Survey,Yes,Yes,Yes,Yes,Yes,NAVD88,1224.32,1224.32,,,,6478500.0,-0.34,James River,jam
841,2025500.0,"JAMES RIVER AT HOLCOMB ROCK, VA",37.5013,-79.2625,2080203.0,EST,1000,cfs,2022-08-14 18:45:00,4.42,ft,2022-08-14 18:45:00,13.0,1.32,0.01,0.23,2025500.0,Holcomb Rock,at,James River (VA),hrkv2,River Stage/Flow Location,2025500.0,37.501111,79.262778,rnk,marfc,va,19.0,Mid Atlantic Region,EST,No,548.53 ft,18.0,22.0,24.0,28.0,FT,,https://water.weather.gov/ahps2/hydrograph.php?wfo=rnk&gage=hrkv2,hgirg,Yes,W,0 Feet,Year-round,No,No,Yes,US Geological Survey,Yes,Yes,Yes,Yes,Yes,NAVD88,547.83,547.83,548.53 ft,,,2029000.0,-0.79,James River (VA),jam
854,2037705.0,"JAMES RIVER AT CITY LOCKS AT RICHMOND, VA",37.5251,-77.4208,2080206.0,EST,0,,0000-00-00 00:00:00,2.44,ft,2022-08-14 18:54:00,,,0.44,28.03,2037705.0,Richmond Locks,at,James River (VA),ricv2,River Stage/Flow Location,2037705.0,37.525,77.421111,akq,marfc,va,760.0,Mid Atlantic Region,EST,No,,6.0,8.0,19.0,28.0,FT,,https://water.weather.gov/ahps2/hydrograph.php?wfo=akq&gage=ricv2,hgirg,Yes,W,-9999 Feet,Year-round,No,No,Yes,US Geological Survey,Yes,No,,,,NAVD 1988,0.0,0 ft,,,,2042770.0,-45.37,James River (VA),jam
4369,6891080.0,"KANSAS R AT LAWRENCE, KS",38.9733,-95.2321,10270104.0,CST,1520,cfs,2022-08-14 17:45:00,13.63,ft,2022-08-14 17:50:00,,,0.01,0.07,6891080.0,Lawrence,at,Kansas River,lwrk1,River Stage/Flow Location,6891080.0,38.974167,95.235833,top,mbrfc,ks,45.0,Missouri Region,CST,No,799.86 ft,15.0,18.0,20.0,29.0,FT,,https://water.weather.gov/ahps2/hydrograph.php?wfo=top&gage=lwrk1,hgirg,Yes,W,-9999 Feet,High Water,No,No,Yes,US Geological Survey,Yes,Yes,Yes,Yes,Yes,NAVD88,799.98,799.98 ft,799.86 ft,,,6892950.0,-0.82,Kansas River,jam
3742,5590520.0,"KASKASKIA RIVER BELOW FICKLIN, IL",39.7917,-88.3678,7140201.0,CST,14.9,cfs,2022-08-14 16:15:00,1.98,ft,2022-08-14 16:15:00,1.2,8.76,0.02,1.02,5590520.0,Ficklin,below,Kaskaskia River,fcki2,River Stage/Flow Location,5590520.0,39.791667,88.367778,ilx,ncrfc,il,41.0,Upper Mississippi Region,CST,No,,0.0,0.0,0.0,0.0,FT,,https://water.weather.gov/ahps2/hydrograph.php?wfo=ilx&gage=fcki2,hgirg,Yes,W,-9999 Feet,Data Point,No,No,Yes,US Geological Survey,Yes,No,,,,NAVD88,641.87,641.87 ft,,,,5592100.0,-0.3,Kaskaskia River,jam
3751,5592500.0,"KASKASKIA RIVER AT VANDALIA, IL",38.9606,-89.089,7140202.0,CST,1130,cfs,2022-08-14 16:30:00,7.56,ft,2022-08-14 16:30:00,10.0,0.89,0.03,0.4,5592500.0,Vandalia,at,Kaskaskia River,vndi2,River Stage/Flow Location,5592500.0,38.959722,89.088889,lsx,ncrfc,il,51.0,Upper Mississippi Region,CST,No,453.3 ft,16.0,18.0,24.0,26.0,FT,,https://water.weather.gov/ahps2/hydrograph.php?wfo=lsx&gage=vndi2,hgirg,Yes,W,-9999 Feet,High Water,No,No,Yes,US Geological Survey,Yes,Yes,Yes,Yes,Yes,NGVD 1929,453.3,452.68 ft,453.3 ft,,,5593000.0,-0.06,Kaskaskia River,jam
6295,12314000.0,KOOTENAI R AT KLOCKMANN RANCH NR BONNERS FERRY ID,48.7938,-116.382,17010104.0,PST,0,,0000-00-00 00:00:00,46.71,ft,2022-08-14 15:30:00,,,0.01,0.02,12314000.0,Klockmann Ranch,at,Kootenai River,krki1,River Stage/Flow Location,12314000.0,48.793889,116.380833,otx,nwrfc,id,21.0,Pacific Northwest Region,PST,No,1700,0.0,0.0,0.0,0.0,FT,,https://water.weather.gov/ahps2/hydrograph.php?wfo=otx&gage=krki1,hgirz,Yes,W,40 Feet,Data Point,No,No,Yes,US Geological Survey,No,No,,,,Topo Division 1928,1700.0,,1700,,,12322000.0,-0.04,Kootenai River,jam
1161,2171635.0,"LK MOULTRIE AT REDIVERSION NR RUSSELLVILLE, SC",33.3989,-79.9975,3050201.0,EST,0,,0000-00-00 00:00:00,74.73,ft,2022-08-14 18:00:00,,,0.94,1.27,2171635.0,Russelville,near,Lake Moultrie,lmis1,River Stage/Flow Location,2171635.0,33.398889,79.9975,chs,serfc,sc,15.0,South Atlantic-Gulf Region,EST,No,,0.0,0.0,0.0,0.0,FT,,https://water.weather.gov/ahps2/hydrograph.php?wfo=chs&gage=lmis1,hpirg,Yes,W,-9999 Feet,Data Point,No,No,Yes,US Geological Survey,Yes,No,,,,NGVD29,0.0,,,,,2172000.0,-0.01,Lake Moultrie,jam
5183,8072760.0,"Langham Ck at W Little York Rd nr Addicks, TX",29.8672,-95.6466,12040104.0,CST,20.5,cfs,2022-08-14 17:30:00,96.71,ft,2022-08-14 17:30:00,0.5,2.5,0.01,0.01,8072760.0,Addicks,near,Langham Creek,llyt2,River Stage/Flow Location,8072760.0,29.866944,95.646389,hgx,wgrfc,tx,201.0,Texas-Gulf Region,CST,No,,106.0,109.0,110.0,111.0,FT,,https://water.weather.gov/ahps2/hydrograph.php?wfo=hgx&gage=llyt2,hgirg,Yes,W,0 Feet,High Water,No,No,No,US Geological Survey,No,No,,,,,0.0,,,,,8073000.0,-0.01,Langham Creek,jam
378,1451000.0,"Lehigh River at Walnutport, PA",40.757,-75.603,2040106.0,EST,562,cfs,2022-08-14 18:30:00,2.2,ft,2022-08-14 18:30:00,233.0,70.82,0.26,13.4,1451000.0,Walnutport,at,Lehigh River,wntp1,River Stage/Flow Location,1451000.0,40.756944,75.603333,phi,marfc,pa,0.0,Mid Atlantic Region,EST,No,350.27 ft,7.5,8.0,12.0,16.0,FT,,https://water.weather.gov/ahps2/hydrograph.php?wfo=phi&gage=wntp1,hgirg,Yes,W,0 Feet,Year-round,No,No,Yes,US Geological Survey,Yes,Yes,Yes,No,Yes,NGVD 1929,350.27,,350.27 ft,,,1453000.0,-1.35,Lehigh River,jam
2238,3249505.0,"LICKING RIVER AT HWY 60 AT FARMERS, KY",38.1401,-83.5571,5100101.0,EST,0,,0000-00-00 00:00:00,8.76,ft,2022-08-14 18:15:00,,,0.01,0.11,3249505.0,Farmers,at,Licking River,frmk2,Stage/Flow and Precipitation Location,3249505.0,38.14,83.557222,jkl,ohrfc,ky,205.0,Ohio Region,EST,No,,0.0,0.0,0.0,0.0,FT,,https://water.weather.gov/ahps2/hydrograph.php?wfo=jkl&gage=frmk2,hgirg,Yes,W,-9999 Feet,Data Point,No,No,Yes,US Geological Survey,Yes,No,,,,NGVD29,646.55,,646.6,,,3250500.0,-0.26,Licking River,jam
3637,5536165.0,"LITTLE CALUMET RIVER AT HIGHLAND, IN",41.5697,-87.461,7120003.0,EST,0,,0000-00-00 00:00:00,7.87,ft,2022-08-14 17:15:00,,,0.02,0.25,5536165.0,Highland (Kennedy Avenue),at,Little Calumet River,hgli3,River Stage/Flow Location,5536165.0,41.5696,87.4609,lot,ncrfc,in,89.0,Great Lakes Region,CST,No,,11.0,15.0,17.0,20.0,FT,,https://water.weather.gov/ahps2/hydrograph.php?wfo=lot&gage=hgli3,hgirg,Yes,W,-9999 Feet,No routine,No,No,Yes,US Geological Survey,Yes,No,,,,NAVD88,581.81,581.81,,,,5536191.0,-0.1,Little Calumet River,jam
5708,9385700.0,"LITTLE COLORADO RIVER BELOW SALADO SPRINGS, AZ",34.4506,-109.362,15020002.0,MST,23.8,cfs,2022-08-14 15:15:00,10.41,ft,2022-08-14 15:15:00,17.99,309.64,0.78,8.1,9385700.0,St Johns,near,Little Colorado River,lcsa3,River Stage/Flow Location,9385700.0,34.450593,109.36232,fgz,cbrfc,az,0.0,Lower Colorado Region,MST7,No,,11.0,12.5,15.0,17.0,FT,,https://water.weather.gov/ahps2/hydrograph.php?wfo=fgz&gage=lcsa3,hgirg,Yes,W,-9999 Feet,Data Point,No,No,Yes,US Geological Survey,No,No,,,,NGVD29,5785.0,,,,5785,9397000.0,-0.62,Little Colorado River,jam
5713,9397300.0,"LITTLE COLORADO RIVER NEAR JOSEPH CITY, AZ",34.9011,-110.255,15020008.0,MST,654,cfs,2022-08-14 15:30:00,3.22,ft,2022-08-14 15:30:00,42.0,6.86,0.04,1.26,9397300.0,Joseph City,near,Little Colorado River,lcja3,River Stage/Flow Location,9397300.0,34.901111,110.254722,fgz,cbrfc,az,0.0,Lower Colorado Region,MST7,No,,7.5,9.0,11.0,14.0,FT,,https://water.weather.gov/ahps2/hydrograph.php?wfo=fgz&gage=lcja3,hgirg,Yes,W,-9999 Feet,Year-round,No,No,Yes,US Geological Survey,No,No,,,,NGVD29,5031.1,,,,5031.1 ft,9400350.0,-0.16,Little Colorado River,jam
2231,3242050.0,Little Miami River near Spring Valley OH,39.5834,-84.0302,5090202.0,EST,0,,0000-00-00 00:00:00,2.32,ft,2022-08-14 18:00:00,,,0.01,0.43,3242050.0,Spring Valley,near,Little Miami River,llmo1,River Stage/Flow Location,3242050.0,39.583333,84.030278,iln,ohrfc,oh,0.0,Ohio Region,EST,No,729.29 ft,9.0,11.0,14.0,17.0,FT,,https://water.weather.gov/ahps2/hydrograph.php?wfo=iln&gage=llmo1,hgirg,Yes,W,-9999 Feet,No routine,No,No,Yes,US Geological Survey,Yes,No,,,,NGVD 1929,729.29,,729.29 ft,,,3245500.0,-0.19,Little Miami River,jam
1665,2392780.0,"LITTLE RIVER AT GA 5, NEAR WOODSTOCK, GA",34.1225,-84.5046,3150104.0,EST,74,cfs,2022-08-14 18:15:00,0.86,ft,2022-08-14 18:15:00,1.2,1.65,0.01,1.18,2392780.0,GA 5 near Woodstock,at,Little River,wodg1,Stage/Flow and Precipitation Location,2392780.0,34.122222,84.504444,ffc,serfc,ga,57.0,South Atlantic-Gulf Region,EST,No,,9.0,11.0,16.0,21.0,FT,,https://water.weather.gov/ahps2/hydrograph.php?wfo=ffc&gage=wodg1,hgirg,Yes,W,-9999 Feet,Data Point,Yes,No,Yes,US Geological Survey,Yes,No,,,,NAVD88,843.76,,860 ft,,,2399200.0,-0.4,Little River,jam
5255,8104500.0,"Little Rv nr Little River, TX",30.9666,-97.3461,12070204.0,CST,63.7,cfs,2022-08-14 17:15:00,1.16,ft,2022-08-14 17:15:00,1.7,2.74,0.02,1.75,8104500.0,Little River,near,Little River,lrit2,River Stage/Flow Location,8104500.0,30.966389,97.345833,fwd,wgrfc,tx,,Texas-Gulf Region,CST,No,400.11 ft,28.0,30.0,40.0,46.0,FT,,https://water.weather.gov/ahps2/hydrograph.php?wfo=fwd&gage=lrit2,hgirg,Yes,W,,High Water,No,No,Yes,US Geological Survey,Yes,Yes,Yes,No,Yes,USGS NAD 1929,400.11,,400.11 ft,,,8106350.0,-0.24,Little River,jam
1425,2318000.0,"LITTLE RIVER NEAR ADEL, GA",31.1556,-83.5436,3110204.0,EST,243,cfs,2022-08-14 18:00:00,4.29,ft,2022-08-14 18:00:00,4.0,1.69,0.02,0.47,2318000.0,Adel (SR 37),near,Little River (SW Georgia),adlg1,River Stage/Flow Location,2318000.0,31.155,83.543611,tae,serfc,ga,75.0,South Atlantic-Gulf Region,EST,No,,187.0,189.0,193.0,195.0,FT,,https://water.weather.gov/ahps2/hydrograph.php?wfo=tae&gage=adlg1,hgirg,Yes,W,175.3 Feet,Data Point,No,No,Yes,US Geological Survey,Yes,No,,,,,0.0,173.1,,,0,2318380.0,-0.27,Little River (SW Georgia),jam
5672,9253000.0,"LITTLE SNAKE RIVER NEAR SLATER, CO",40.9994,-107.143,14050003.0,MST,53.9,cfs,2022-08-14 16:45:00,3.46,ft,2022-08-14 16:45:00,6.45,15.73,0.05,1.49,9253000.0,Slater,near,Little Snake River,lsrc2,River Stage/Flow Location,9253000.0,40.99941,107.143388,gjt,cbrfc,co,107.0,Upper Colorado Region,MST,No,6830 ft,8.3,9.5,11.0,12.0,FT,,https://water.weather.gov/ahps2/hydrograph.php?wfo=gjt&gage=lsrc2,hgirg,Yes,W,-9999 Feet,Year-round,No,No,No,US Geological Survey,Yes,Yes,Yes,No,Yes,NGVD29,6830.0,,6830 ft,,6831 ft,9260000.0,-1.39,Little Snake River,jam
1056,2134170.0,"LUMBER RIVER AT LUMBERTON, NC",34.6203,-79.0111,3040203.0,EST,122,cfs,2022-08-14 18:45:00,6.9,ft,2022-08-14 18:45:00,1.0,0.83,0.01,0.15,2134170.0,Lumberton West 5th Street,at,Lumber River,lumn7,River Stage/Flow Location,2134170.0,34.62,79.010833,ilm,serfc,nc,0.0,South Atlantic-Gulf Region,EST,No,,11.0,13.0,16.0,17.0,FT,,https://water.weather.gov/ahps2/hydrograph.php?wfo=ilm&gage=lumn7,hgirg,Yes,W,-9999 Feet,Data Point,No,No,Yes,US Geological Survey,Yes,No,,,,NAVD88,97.49,,,,110 ft,2134500.0,-0.48,Lumber River,jam
1050,2131510.0,"LYNCHES RIVER AT I-95, ABOVE OLANTA,SC",34.0382,-79.9861,3040202.0,EST,0,,0000-00-00 00:00:00,7.08,ft,2022-08-14 18:15:00,,,0.01,0.14,2131510.0,I-95,at,Lynches River,lyos1,River Stage/Flow Location,2131510.0,34.038,79.9861,cae,serfc,sc,85.0,South Atlantic-Gulf Region,EST,No,,0.0,0.0,0.0,0.0,FT,,https://water.weather.gov/ahps2/hydrograph.php?wfo=cae&gage=lyos1,hgirg,Yes,W,-9999 Feet,Data Point,No,No,Yes,US Geological Survey,No,No,,,,NAD83,,,,,,2132000.0,-0.42,Lynches River,jam
6171,11481000.0,MAD R NR ARCATA CA,40.9099,-124.061,18010102.0,PST,70.5,cfs,2022-08-14 15:45:00,5.64,ft,2022-08-14 15:45:00,1.4,2.03,0.01,0.18,11481000.0,Arcata,near,Mad River,arcc1,River Stage/Flow Location,11481000.0,40.91,124.059444,eka,cnrfc,ca,23.0,California Region,PST,No,12.79 ft,15.0,22.0,24.0,28.0,FT,,https://water.weather.gov/ahps2/hydrograph.php?wfo=eka&gage=arcc1,hgirg,Yes,W,-9999 Feet,Year-round,No,No,Yes,US Geological Survey,Yes,Yes,Yes,No,Yes,NGVD 1929,12.79,,12.79 ft,,,12452890.0,-0.42,Mad River,jam
303,1408000.0,Manasquan River at Squankum NJ,40.1614,-74.1547,2040301.0,EST,19.3,cfs,2022-08-14 18:30:00,2.45,ft,2022-08-14 18:30:00,0.8,4.32,0.01,0.41,1408000.0,Squankum,at,Manasquan River,samn4,River Stage/Flow Location,1408000.0,40.161389,74.154722,phi,marfc,nj,25.0,Mid Atlantic Region,EST,No,18.82,7.0,8.5,10.0,11.0,FT,,https://water.weather.gov/ahps2/hydrograph.php?wfo=phi&gage=samn4,hgirg,Yes,W,-9999 Feet,Data Point,Yes,No,Yes,US Geological Survey,Yes,No,,,,,18.82,,18.82,,,1408029.0,-0.14,Manasquan River,jam
2886,4124200.0,"MANISTEE RIVER NEAR MESICK, MI",44.3631,-85.8209,4060103.0,EST,934,cfs,2022-08-14 17:45:00,3.55,ft,2022-08-14 17:45:00,11.0,1.19,0.02,0.57,4124200.0,Mesick (Hodenpyl Dam),near,Manistee River,mskm4,River Stage/Flow Location,4124200.0,44.363056,85.820833,apx,ncrfc,mi,101.0,Great Lakes Region,EST,No,732.22,0.0,0.0,0.0,0.0,FT,,https://water.weather.gov/ahps2/hydrograph.php?wfo=apx&gage=mskm4,hgirg,Yes,W,-9999 Feet,Data Point,No,No,Yes,US Geological Survey,Yes,No,,,,NAVD88,731.95,731.95,732.22,,,4125550.0,-0.12,Manistee River,jam
2956,4182830.0,"MAUMEE RIVER AT COLUMBIA ST AT FORT WAYNE, IN",41.0819,-85.1322,4100005.0,EST,0,,0000-00-00 00:00:00,12.82,ft,2022-08-14 17:00:00,,,0.02,0.16,4182830.0,Columbia St. at Ft. Wayne,at,Maumee River,cmbi3,River Stage/Flow Location,4182830.0,41.081944,85.132222,iwx,ohrfc,in,3.0,Great Lakes Region,EST,No,,0.0,0.0,0.0,0.0,FT,,https://water.weather.gov/ahps2/hydrograph.php?wfo=iwx&gage=cmbi3,hgirg,Yes,W,-9999 Feet,Data Point,No,No,Yes,the USGS (04182830),Yes,No,,,,NAVD88,729.82,729.82,,,,4182900.0,-0.44,Maumee River,jam
1096,2146600.0,"MCALPINE CR AT SARDIS ROAD NEAR CHARLOTTE, NC",35.1378,-80.7675,3050103.0,EST,2.2,cfs,2022-08-14 18:55:00,0.54,ft,2022-08-14 18:55:00,0.14,6.8,0.01,1.89,2146600.0,Sardis Road,below,McAlpine Creek,maln7,River Stage/Flow Location,2146600.0,35.137778,80.7675,gsp,serfc,nc,119.0,South Atlantic-Gulf Region,EST,No,,14.0,20.0,26.0,28.0,FT,,https://water.weather.gov/ahps2/hydrograph.php?wfo=gsp&gage=maln7,hgirr,Yes,W,0 Feet,Data Point,No,No,No,US Geological Survey,Yes,No,,,,NAVD88,552.36,,,,,2146750.0,-0.78,McAlpine Creek,jam
2769,4066003.0,"MENOMINEE RIVER BELOW PEMENE CREEK NR PEMBINE, WI",45.5795,-87.787,4030108.0,CST,2450,cfs,2022-08-14 17:00:00,8.06,ft,2022-08-14 17:00:00,20.0,0.82,0.01,0.12,4066003.0,Pembine,near,Menominee River,pbiw3,River Stage/Flow Location,4066003.0,45.579444,87.786944,grb,ncrfc,wi,75.0,Great Lakes Region,CST,No,,14.0,16.0,17.0,18.5,FT,,https://water.weather.gov/ahps2/hydrograph.php?wfo=grb&gage=pbiw3,hgirp,Yes,W,-9999 Feet,Data Point,No,No,Yes,US Geological Survey,Yes,No,,,,NAVD88,740.0,740 ft,,,,4066030.0,-0.27,Menominee River,jam
4489,7014500.0,"Meramec River near Sullivan, MO",38.1585,-91.1085,7140102.0,CST,641,cfs,2022-08-14 17:30:00,3.28,ft,2022-08-14 17:30:00,45.0,7.55,0.08,2.5,7014500.0,Sullivan,near,Meramec River,sllm7,River Stage/Flow Location,7014500.0,38.158528,91.108472,lsx,ncrfc,mo,55.0,Upper Mississippi Region,CST,No,581.82 ft,9.0,11.0,20.0,29.0,FT,,https://water.weather.gov/ahps2/hydrograph.php?wfo=lsx&gage=sllm7,hgirg,Yes,W,-9999 Feet,High Water,No,No,Yes,US Geological Survey,Yes,Yes,Yes,Yes,Yes,NAVD 1988,582.16,,581.82 ft,,,7019000.0,-0.29,Meramec River,jam
4497,7019130.0,"Meramec River at Valley Park, MO",38.5466,-90.485,7140102.0,CST,0,,0000-00-00 00:00:00,-1.97,ft,2022-08-14 17:30:00,,,-0.01,0.51,7019130.0,Valley Park,at,Meramec River,vllm7,River Stage/Flow Location,7019130.0,38.546667,90.485,lsx,ncrfc,mo,189.0,Upper Mississippi Region,CST,No,391.54 ft,11.0,18.0,21.0,27.0,FT,,https://water.weather.gov/ahps2/hydrograph.php?wfo=lsx&gage=vllm7,hgirg,Yes,W,-9999 Feet,High Water,No,No,Yes,US Geological Survey,Yes,No,,,,NAVD 1988,391.22,391.22 ft,391.54 ft,,,7019210.0,-0.4,Meramec River,jam
66,1096508.0,"MERRIMACK RIVER AT NASHUA, NH",42.7634,-71.4428,1070002.0,EST,0,,0000-00-00 00:00:00,4.52,ft,2022-08-14 18:45:00,,,0.01,0.22,1096508.0,Nashua,at,Merrimack River,nshn3,River Stage/Flow Location,1096508.0,42.76173,71.44404,gyx,nerfc,nh,0.0,New England Region,EST,No,0.702,16.0,18.0,26.0,35.0,FT,,https://water.weather.gov/ahps2/hydrograph.php?wfo=gyx&gage=nshn3,hgirg,Yes,W,-9999 Feet,High Water,No,No,Yes,US Geological Survey,Yes,No,,,,NAVD88,0.0,0,0.702,,,1100500.0,-3.65,Merrimack River,jam
3847,6154100.0,Milk River near Harlem MT,48.4896,-108.759,10050004.0,MST,492,cfs,2022-08-14 16:30:00,5.89,ft,2022-08-14 16:30:00,2.0,0.41,0.02,0.34,6154100.0,Harlem,near,Milk River,hrlm8,River Stage/Flow Location,6154100.0,48.489444,108.757778,tfx,mbrfc,mt,5.0,Missouri Region,MST,No,2319.4 ft,20.0,21.0,23.0,25.0,FT,,https://water.weather.gov/ahps2/hydrograph.php?wfo=tfx&gage=hrlm8,hgirg,Yes,W,-9999 Feet,High Water,Yes,No,Yes,US Geological Survey,Yes,Yes,Yes,No,Yes,NGVD29,2319.4,,2319.4 ft,,,6155500.0,-0.62,Milk River,jam
2338,3294550.0,"MILL CREEK CUTOFF NEAR LOUISVILLE, KY",38.1776,-85.8669,5140101.0,EST,1.12,cfs,2022-08-14 18:15:00,2.73,ft,2022-08-14 18:15:00,0.06,5.66,0.01,0.37,3294550.0,Pleasure Ridge Park,near,Mill Creek (KY),prpk2,River Stage/Flow Location,3294550.0,38.1775,85.866944,lmk,ohrfc,ky,111.0,Ohio Region,EST,No,414.28,0.0,0.0,0.0,0.0,FT,,https://water.weather.gov/ahps2/hydrograph.php?wfo=lmk&gage=prpk2,hgirg,Yes,W,-9999 Feet,Data Point,No,No,Yes,US Geological Survey,Yes,No,,,,NGVD29,414.28,,414.28,,,3294570.0,-1.09,Mill Creek (KY),jam
3292,5267000.0,"MISSISSIPPI RIVER NEAR ROYALTON, MN",45.8261,-94.3553,7010201.0,CST,5010,cfs,2022-08-14 17:15:00,9.8,ft,2022-08-14 17:15:00,60.0,1.21,0.02,0.2,5267000.0,Royalton,near,Mississippi River,blhm5,River Stage/Flow Location,5267000.0,45.826111,94.355,mpx,ncrfc,mn,97.0,Upper Mississippi Region,CST,No,1040.04 ft,0.0,0.0,0.0,0.0,FT,,https://water.weather.gov/ahps2/hydrograph.php?wfo=mpx&gage=blhm5,hgirg,Yes,W,1.5 KCFS,,Yes,No,Yes,MN Power & USGS (05267000),Yes,No,,,,1929,1040.0,,1040.04 ft,,0,5270700.0,-0.39,Mississippi River,jam
3739,5587450.0,"Mississippi River at Grafton, IL",38.968,-90.429,7110009.0,CST,100000,cfs,2022-08-14 17:30:00,15.7,ft,2022-08-14 17:30:00,900.0,0.91,0.01,0.06,5587450.0,Grafton,at,Mississippi River,grfi2,River Stage/Flow Location,5587450.0,38.968056,90.428889,lsx,ncrfc,il,83.0,Upper Mississippi Region,CST,No,403.79 ft,18.0,20.0,24.0,29.0,FT,,https://water.weather.gov/ahps2/hydrograph.php?wfo=lsx&gage=grfi2,hgirg,Yes,W,-9999 Feet,Year-round,No,No,Yes,US Geological Survey,Yes,Yes,Yes,Yes,Yes,NGVD 1929,403.79,403.21 ft,403.79 ft,,,5587498.0,-0.05,Mississippi River,jam
3809,6078200.0,Missouri River near Ulm MT,47.435,-111.388,10030102.0,MST,4020,cfs,2022-08-14 16:00:00,3.46,ft,2022-08-14 16:00:00,10.0,0.25,0.01,0.29,6078200.0,Ulm,near,Missouri River,ulmm8,River Stage/Flow Location,6078200.0,47.434967,111.388444,tfx,mbrfc,mt,13.0,Missouri Region,MST,No,,13.0,13.5,15.0,17.0,FT,,https://water.weather.gov/ahps2/hydrograph.php?wfo=tfx&gage=ulmm8,hgirg,Yes,W,-9999 Feet,Summer-only,No,Yes,Yes,US Geological Survey,Yes,Yes,Yes,Yes,Yes,NGVD29,3313.27,,,,3313.27 ft,6090300.0,-0.62,Missouri River,jam
3818,6090800.0,Missouri River at Fort Benton MT,47.8169,-110.666,10030102.0,MST,4580,cfs,2022-08-14 16:30:00,2.28,ft,2022-08-14 16:30:00,30.0,0.66,0.01,0.44,6090800.0,Fort Benton,at,Missouri River,fbnm8,River Stage/Flow Location,6090800.0,47.816911,110.666142,tfx,mbrfc,mt,15.0,Missouri Region,MST,No,2614.05 ft,13.0,13.5,15.0,17.0,FT,,https://water.weather.gov/ahps2/hydrograph.php?wfo=tfx&gage=fbnm8,hgirg,Yes,W,-9999 Feet,Summer-only,Yes,No,Yes,US Geological Survey,Yes,Yes,Yes,Yes,Yes,NGVD29,2614.05,,2614.05 ft,,,6109500.0,-0.3,Missouri River,jam
3832,6115200.0,Missouri River near Landusky MT,47.6314,-108.688,10040104.0,MST,5910,cfs,2022-08-14 16:00:00,13.75,ft,2022-08-14 16:00:00,140.0,2.43,0.08,0.59,6115200.0,Landusky,near,Missouri River,ldkm8,River Stage/Flow Location,6115200.0,47.631431,108.687744,tfx,mbrfc,mt,27.0,Missouri Region,MST,No,2239.96 ft,26.0,27.0,29.0,33.0,FT,,https://water.weather.gov/ahps2/hydrograph.php?wfo=tfx&gage=ldkm8,hgirg,Yes,W,-9999 Feet,High Water,No,No,Yes,US Geological Survey,Yes,Yes,Yes,Yes,Yes,NGVD29,2239.96,,2239.96 ft,,,6177000.0,-0.91,Missouri River,jam
4017,6442996.0,"LAKE FRANCIS CASE AT CHAMBERLAIN, SD",43.8161,-99.3273,10140101.0,CST,0,,0000-00-00 00:00:00,55.82,ft,2022-08-14 17:30:00,,,0.07,0.13,6442996.0,Chamberlain,at,Missouri River,cbls2,River Stage/Flow Location,6442996.0,43.816111,99.326944,fsd,mbrfc,sd,15.0,Missouri Region,CST,No,,63.0,65.0,68.0,70.0,FT,,https://water.weather.gov/ahps2/hydrograph.php?wfo=fsd&gage=cbls2,hpirg,Yes,W,-9999 Feet,Data Point,No,No,Yes,US Geological Survey,Yes,No,,,,NAVD88,1301.0,1301,,,,6453620.0,-0.05,Missouri River,jam
4047,6467500.0,"Missouri River at Yankton, SD",42.8661,-97.394,10170101.0,CST,0,,0000-00-00 00:00:00,11.38,ft,2022-08-14 17:30:00,,,0.01,0.09,6467500.0,Yankton,at,Missouri River,yans2,River Stage/Flow Location,6467500.0,42.866111,97.393611,fsd,mbrfc,sd,135.0,Missouri Region,CST,No,1139.68,18.0,20.0,21.0,23.0,FT,,https://water.weather.gov/ahps2/hydrograph.php?wfo=fsd&gage=yans2,hgirg,Yes,W,-9999 Feet,Data Point,No,No,Yes,US Geological Survey,Yes,No,,,,NAVD88,1140.2,1140.2,1139.68,,,6478526.0,-0.05,Missouri River,jam
4107,6486000.0,"Missouri River at Sioux City, IA",42.4858,-96.4139,10230001.0,CST,33400,cfs,2022-08-14 17:00:00,12.02,ft,2022-08-14 17:00:00,100.0,0.3,0.03,0.25,6486000.0,Sioux City,at,Missouri River,sscn1,River Stage/Flow Location,6486000.0,42.485833,96.413611,fsd,mbrfc,ne,43.0,Missouri Region,CST,No,,25.0,30.0,33.0,36.0,FT,,https://water.weather.gov/ahps2/hydrograph.php?wfo=fsd&gage=sscn1,hgirg,Yes,W,-9999 Feet,Year-round,Yes,No,Yes,US Geological Survey,Yes,Yes,Yes,Yes,Yes,NAVD88,1057.421,1057.421 ft,,,,6610000.0,-0.07,Missouri River,jam
4247,6810070.0,"Missouri River at Brownville, NE",40.3989,-95.6533,10240005.0,CST,33700,cfs,2022-08-14 17:15:00,23.63,ft,2022-08-14 17:15:00,,,0.01,0.04,6810070.0,Brownville,at,Missouri River,bron1,River Stage/Flow Location,6810070.0,40.39889,95.6533,oax,mbrfc,ne,127.0,Missouri Region,CST,No,,33.0,34.0,38.5,43.0,FT,,https://water.weather.gov/ahps2/hydrograph.php?wfo=oax&gage=bron1,hgirg,Yes,W,16.5 Feet,Year-round,Yes,No,Yes,the Army Corps of Engineers,Yes,Yes,Yes,Yes,Yes,NAVD88,859.947,859.947 ft,,,,6813500.0,-0.15,Missouri River,jam
4396,6894650.0,"Missouri River at Napoleon, MO",39.1332,-94.0642,10300101.0,CST,34700,cfs,2022-08-14 17:00:00,5.62,ft,2022-08-14 17:00:00,100.0,0.29,0.01,0.18,6894650.0,Napoleon,at,Missouri River,napm7,River Stage/Flow Location,6894650.0,39.133169,94.064225,eax,mbrfc,mo,107.0,Missouri Region,CST,No,,14.0,17.0,25.0,30.0,FT,,https://water.weather.gov/ahps2/hydrograph.php?wfo=eax&gage=napm7,hgirg,Yes,W,-9999 Feet,Year-round,No,No,No,,Yes,Yes,Yes,Yes,No,NAVD88,680.14,680.14 ft,,,,6895500.0,-0.31,Missouri River,jam
4414,6906500.0,"Missouri River at Glasgow, MO",39.2223,-92.8488,10300102.0,CST,36000,cfs,2022-08-14 17:30:00,9.76,ft,2022-08-14 17:30:00,100.0,0.28,0.02,0.21,6906500.0,Glasgow,at,Missouri River,glzm7,River Stage/Flow Location,6906500.0,39.222222,92.848611,eax,mbrfc,mo,89.0,Missouri Region,CST,No,,22.0,25.0,27.0,32.0,FT,,https://water.weather.gov/ahps2/hydrograph.php?wfo=eax&gage=glzm7,hgirg,Yes,W,-9999 Feet,Year-round,No,No,Yes,US Geological Survey,Yes,Yes,Yes,Yes,No,NAVD88,586.65,586.65 ft,,,,6909000.0,-0.35,Missouri River,jam
4422,6910450.0,"Missouri River at Jefferson City, MO",38.5871,-92.1786,10300102.0,CST,39300,cfs,2022-08-14 17:45:00,4.32,ft,2022-08-14 17:45:00,,,0.01,0.23,6910450.0,Jefferson City,at,Missouri River,jffm7,River Stage/Flow Location,6910450.0,38.587111,92.178639,lsx,mbrfc,mo,51.0,Missouri Region,CST,No,520.13 feet,21.0,23.0,25.0,30.0,FT,,https://water.weather.gov/ahps2/hydrograph.php?wfo=lsx&gage=jffm7,hgirg,Yes,W,-9999 Feet,Year-round,Yes,No,Yes,US Geological Survey,Yes,Yes,Yes,Yes,No,NAVD 88,520.18,520.18 feet,520.13 feet,,,6934500.0,-0.44,Missouri River,jam
186,1342602.0,MOHAWK RIVER NEAR UTICA NY,43.0937,-75.1579,2020004.0,EST,287,cfs,2022-08-14 17:30:00,4.31,ft,2022-08-14 17:30:00,3.0,1.06,0.01,0.23,1342602.0,Utica,at,Mohawk River,ucan6,River Stage/Flow Location,1342602.0,43.108611,75.222222,aly,nerfc,ny,0.0,Mid Atlantic Region,EST,No,0 ft,401.0,403.0,405.0,407.0,FT,,https://water.weather.gov/ahps2/hydrograph.php?wfo=aly&gage=ucan6,hpirz,Yes,W,-9999 Feet,High Water,No,No,No,US Geological Survey,Yes,No,,,,NGVD 1929,0.0,,0 ft,,,1347000.0,-0.4,Mohawk River,jam
1931,3063000.0,"Monongahela R L&D8 (Lower Pool) @ Point Marion, PA",39.727,-79.9114,5020003.0,EST,0,,0000-00-00 00:00:00,12.16,ft,2022-08-14 18:15:00,,,0.04,0.33,3063000.0,Point Marion Lock and Dam (lower pool),at,Monongahela River,pmrp1,River Stage/Flow Location,3063000.0,39.726944,79.911667,pbz,ohrfc,pa,59.0,Ohio Region,EST,No,782.5,20.0,26.0,27.0,28.0,FT,,https://water.weather.gov/ahps2/hydrograph.php?wfo=pbz&gage=pmrp1,htirg,Yes,W,-9999 Feet,Year-round,No,No,No,US Geological Survey,No,Yes,Yes,Yes,Yes,NGVD29,782.5,,782.5,,,3072655.0,-0.08,Monongahela River,jam
6641,14183000.0,"NORTH SANTIAM RIVER AT MEHAMA, OR",44.789,-122.619,17090005.0,PST,1130,cfs,2022-08-14 15:45:00,3.12,ft,2022-08-14 15:45:00,10.0,0.89,0.01,0.32,14183000.0,Mehama,at,N Santiam River,meho3,River Stage/Flow Location,14183000.0,44.789167,122.618611,pqr,nwrfc,or,47.0,Pacific Northwest Region,PST,No,602.49 ft,8.6,11.0,0.0,13.5,FT,,https://water.weather.gov/ahps2/hydrograph.php?wfo=pqr&gage=meho3,hgirg,Yes,W,-9999 Feet,Year-round,No,No,Yes,US Geological Survey,Yes,Yes,No,No,Yes,NGVD29,602.49,,602.49 ft,,,14184100.0,-0.07,N Santiam River,jam
1506,2336340.0,"NANCY CREEK AT JOHNSON FERRY RD, AT CHAMBLEE, GA",33.8978,-84.3453,3130001.0,EST,10.2,cfs,2022-08-14 18:30:00,3.93,ft,2022-08-14 18:30:00,0.27,2.72,0.01,0.26,2336340.0,Johnson Ferry Road near Chamblee,at,Nancy Creek,ncdg1,Stage/Flow and Precipitation Location,2336340.0,33.897778,84.345556,ffc,serfc,ga,89.0,South Atlantic-Gulf Region,EST,No,,15.0,16.0,20.0,24.0,FT,,https://water.weather.gov/ahps2/hydrograph.php?wfo=ffc&gage=ncdg1,hgirg,Yes,W,-9999 Feet,Data Point,Yes,No,Yes,US Geological Survey,Yes,No,,,,NAVD88,837.47,,850 ft,,,2336410.0,-0.54,Nancy Creek,jam
5381,8164370.0,"Navidad Rv at Morales, TX",29.1355,-96.7444,12100102.0,CST,0,,0000-00-00 00:00:00,6.46,ft,2022-08-14 17:00:00,,,0.01,0.16,8164370.0,Morales,near,Navidad River,mrat2,River Stage/Flow Location,8164370.0,29.135278,96.744167,hgx,wgrfc,tx,239.0,Texas-Gulf Region,CST,No,,15.0,29.0,30.0,34.0,FT,,https://water.weather.gov/ahps2/hydrograph.php?wfo=hgx&gage=mrat2,hgirg,Yes,W,-9999 Feet,High Water,No,No,No,US Geological Survey,Yes,Yes,Yes,No,Yes,NGVD29,65.44,,,,,8164390.0,-0.83,Navidad River,jam
5089,8033000.0,"Neches Rv nr Diboll, TX",31.133,-94.8099,12020002.0,CST,59.5,cfs,2022-08-14 17:15:00,1.07,ft,2022-08-14 17:15:00,1.1,1.88,0.01,0.94,8033000.0,Diboll,near,Neches River,dibt2,River Stage/Flow Location,8033000.0,31.13296,94.80993,shv,wgrfc,tx,5.0,Texas-Gulf Region,CST,No,134.46 ft,11.5,12.0,17.0,20.0,FT,,https://water.weather.gov/ahps2/hydrograph.php?wfo=shv&gage=dibt2,hgirg,Yes,W,0 Feet,High Water,No,No,Yes,US Geological Survey,Yes,Yes,Yes,No,Yes,NGVD 1929,136.46,,134.46 ft,,,8033500.0,-0.77,Neches River,jam
946,2087183.0,"NEUSE RIVER NEAR FALLS, NC",35.94,-78.5808,3020201.0,EST,97.9,cfs,2022-08-14 18:15:00,1.13,ft,2022-08-14 18:15:00,1.6,1.66,0.01,0.89,2087183.0,Neuse River Below Falls Dam,above,Neuse River,neun7,River Stage/Flow Location,2087183.0,35.94,78.575556,rah,serfc,nc,183.0,South Atlantic-Gulf Region,EST,No,,5.0,6.0,7.0,8.0,FT,,https://water.weather.gov/ahps2/hydrograph.php?wfo=rah&gage=neun7,hgirg,Yes,W,-9999 Feet,No routine,No,No,No,US Geological Survey,No,No,,,,NAVD88,198.4,,,,,2087500.0,-0.61,Neuse River,jam
1437,2321000.0,NEW RIVER NR LAKE BUTLER FLA,29.9983,-82.274,3110206.0,EST,31.4,cfs,2022-08-14 18:45:00,3.41,ft,2022-08-14 18:45:00,1.2,3.97,0.04,1.19,2321000.0,Lake Butler (in NAVD88),near,New River,nrbf1,River Stage/Flow Location,2321000.0,29.998056,82.274167,jax,serfc,fl,125.0,South Atlantic-Gulf Region,EST,No,0.88,89.0,91.0,92.5,94.0,FT,,https://water.weather.gov/ahps2/hydrograph.php?wfo=jax&gage=nrbf1,hgirg,Yes,W,84.3 Feet,Data Point,No,No,Yes,US Geological Survey,Yes,No,,,,NAVD88,0.0,0,0.88,,,3165500.0,-1.23,New River,jam
2373,3310000.0,"NORTH FORK NOLIN RIVER AT HODGENVILLE, KY",37.5781,-85.7536,5110001.0,EST,8.49,cfs,2022-08-14 18:15:00,3.76,ft,2022-08-14 18:15:00,0.73,9.41,0.03,0.8,3310000.0,Hodgenville,at,Nolin River,hgvk2,River Stage/Flow Location,3310000.0,37.578056,85.753611,lmk,ohrfc,ky,123.0,Ohio Region,EST,No,,0.0,0.0,0.0,0.0,FT,,https://water.weather.gov/ahps2/hydrograph.php?wfo=lmk&gage=hgvk2,hgirg,Yes,W,-9999 Feet,Data Point,No,No,Yes,US Geological Survey,Yes,No,,,,NAVD88,693.0,693,,,,3310300.0,-0.69,Nolin River,jam
4754,7239300.0,"North Canadian River blw Weavers Ck nr Watonga, OK",35.812,-98.4209,11100301.0,CST,401,cfs,2022-08-14 17:30:00,10.16,ft,2022-08-14 17:30:00,4.0,1.01,0.02,0.2,7239300.0,Watonga,near,North Canadian River,wato2,River Stage/Flow Location,7239300.0,35.811989,98.420905,oun,abrfc,ok,11.0,Arkansas-White-Red Region,CST,No,1453.6,13.0,15.0,17.0,18.0,FT,,https://water.weather.gov/ahps2/hydrograph.php?wfo=oun&gage=wato2,hgirg,Yes,W,-9999 Feet,High Water,No,No,Yes,US Geological Survey,No,Yes,Yes,Yes,Yes,NGVD29,1453.6,,1453.6,,,7239450.0,-0.32,North Canadian River,jam
4761,7241550.0,"North Canadian River near Harrah, OK",35.5003,-97.1939,11100302.0,CST,41.8,cfs,2022-08-14 17:00:00,2.85,ft,2022-08-14 17:00:00,1.3,3.21,0.01,0.35,7241550.0,Harrah,near,North Canadian River,hrho2,River Stage/Flow Location,7241550.0,35.500341,97.193919,oun,abrfc,ok,109.0,Arkansas-White-Red Region,CST,No,1055.69,11.0,14.0,16.0,18.0,FT,,https://water.weather.gov/ahps2/hydrograph.php?wfo=oun&gage=hrho2,hgirg,Yes,W,-9999 Feet,High Water,No,No,Yes,US Geological Survey,Yes,Yes,Yes,Yes,Yes,NGVD29,1055.69,,1055.69,,,7242000.0,-0.2,North Canadian River,jam
2421,3331040.0,"PIKE LAKE AT WARSAW, IN",41.2623,-85.85,5120106.0,EST,0,,0000-00-00 00:00:00,5.93,ft,2022-08-14 17:00:00,,,0.01,0.17,3331040.0,Pike Lake at Warsaw,at,Northern Indiana Lakes,piki3,River Stage/Flow Location,3331040.0,41.262222,85.85,iwx,ohrfc,in,85.0,Ohio Region,EST,No,800,0.0,0.0,0.0,0.0,FT,,https://water.weather.gov/ahps2/hydrograph.php?wfo=iwx&gage=piki3,hpirg,Yes,W,-9999 Feet,Data Point,Yes,No,Yes,the USGS (03331040),Yes,No,,,,NGVD29,800.0,,800,,,3331440.0,-0.3,Northern Indiana Lakes,jam
5504,8210000.0,"Nueces Rv nr Three Rivers, TX",28.4275,-98.1781,12110111.0,CST,30,cfs,2022-08-14 17:15:00,1.36,ft,2022-08-14 17:15:00,3.6,13.64,0.05,3.82,8210000.0,Three Rivers,near,Nueces River,thet2,River Stage/Flow Location,8210000.0,28.427222,98.177778,crp,wgrfc,tx,297.0,Texas-Gulf Region,CST,No,99.26,20.0,25.0,27.0,35.0,FT,,https://water.weather.gov/ahps2/hydrograph.php?wfo=crp&gage=thet2,hgirg,Yes,W,-9999 Feet,High Water,No,No,Yes,US Geological Survey,No,Yes,Yes,No,Yes,NGVD29,99.26,,99.26,,99.26 ft,8210500.0,-0.01,Nueces River,jam
1471,2330000.0,"OCHLOCKONEE RIVER NR BLOXHAM, FLA.",30.3833,-84.6549,3120003.0,EST,1590,cfs,2022-08-14 18:15:00,8.91,ft,2022-08-14 18:15:00,60.0,3.92,0.16,1.83,2330000.0,Bloxham (SR 20),near,Ochlockonee River,blxf1,River Stage/Flow Location,2330000.0,30.383056,84.655,tae,serfc,fl,73.0,South Atlantic-Gulf Region,EST,No,24.46,16.0,20.0,23.0,27.0,FT,,https://water.weather.gov/ahps2/hydrograph.php?wfo=tae&gage=blxf1,hgirg,Yes,W,3 Feet,High Water,No,No,Yes,US Geological Survey,Yes,Yes,Yes,No,Yes,,24.46,,24.46,,,2330150.0,-0.09,Ochlockonee River,jam
1311,2223000.0,"OCONEE RIVER AT MILLEDGEVILLE, GA",33.0902,-83.2148,3070102.0,EST,5950,cfs,2022-08-14 18:45:00,11.36,ft,2022-08-14 18:45:00,840.0,16.44,0.44,4.03,2223000.0,Milledgeville,at,Oconee River,mlgg1,Stage/Flow and Precipitation Location,2223000.0,33.089444,83.215556,ffc,serfc,ga,9.0,South Atlantic-Gulf Region,EST,No,,20.0,22.0,32.0,38.0,FT,,https://water.weather.gov/ahps2/hydrograph.php?wfo=ffc&gage=mlgg1,hgirg,Yes,W,-9999 Feet,Year-round,No,No,Yes,US Geological Survey,Yes,Yes,Yes,Yes,Yes,NAVD88,230.3,230.3 ft,,,,2223248.0,-1.48,Oconee River,jam
1226,2202500.0,"OGEECHEE RIVER NEAR EDEN, GA",32.1901,-81.4159,3060202.0,EST,272,cfs,2022-08-14 18:15:00,2.2,ft,2022-08-14 18:15:00,3.0,1.12,0.01,0.46,2202500.0,Eden,near,Ogeechee River,edeg1,River Stage/Flow Location,2202500.0,32.190101,81.416335,chs,serfc,ga,103.0,South Atlantic-Gulf Region,EST,No,17.887,10.0,11.0,14.0,16.0,FT,,https://water.weather.gov/ahps2/hydrograph.php?wfo=chs&gage=edeg1,hgirg,Yes,W,-9999 Feet,Year-round,No,No,Yes,US Geological Survey,Yes,Yes,Yes,No,Yes,NAVD88,17.06,17.06,17.887,,,2203536.0,-28.35,Ogeechee River,jam
1969,3085730.0,Ohio River at Emsworth Dam Upper Pool @ Emsworth,40.5039,-80.0856,5030101.0,EST,0,,0000-00-00 00:00:00,16.55,ft,2022-08-14 18:45:00,,,0.02,0.12,3085730.0,Emsworth L/d  Pool,above,Ohio River,emxp1,River Stage/Flow Location,3085730.0,40.505278,80.089722,pbz,ohrfc,pa,3.0,Ohio Region,EST,No,,0.0,0.0,0.0,0.0,FT,,https://water.weather.gov/ahps2/hydrograph.php?wfo=pbz&gage=emxp1,hpirg,Yes,W,-9999 Feet,Data Point,No,No,No,US Geological Survey,Yes,No,,,,NGVD29,694.0,,,,,3085734.0,-0.43,Ohio River,jam
2001,3108500.0,"Ohio River at Montgomery Lock & Dam, Lower Pool",40.6473,-80.3887,5030101.0,EST,0,,0000-00-00 00:00:00,12.8,ft,2022-08-14 18:45:00,,,0.02,0.16,3108500.0,Montgomery Lock and Dam,at,Ohio River,mgyp1,River Stage/Flow Location,3108500.0,40.647222,80.388889,pbz,ohrfc,pa,7.0,Ohio Region,EST,No,652.52 ft,23.3,33.0,36.0,38.0,FT,,https://water.weather.gov/ahps2/hydrograph.php?wfo=pbz&gage=mgyp1,htirg,Yes,W,-9999 Feet,Year-round,No,No,Yes,US Geological Survey,No,Yes,Yes,Yes,Yes,NGVD29,652.5,,652.52 ft,,,3110690.0,-0.16,Ohio River,jam
2009,3112500.0,"OHIO RIVER AT WHEELING, WV",40.0573,-80.7284,5030106.0,EST,0,,0000-00-00 00:00:00,15.98,ft,2022-08-14 18:30:00,,,0.07,0.44,3112500.0,Wheeling,at,Ohio River,wlgw2,River Stage/Flow Location,3112500.0,40.057222,80.728611,pbz,ohrfc,wv,69.0,Ohio Region,EST,No,608.099975585938 ft,26.7,36.0,40.0,42.0,FT,,https://water.weather.gov/ahps2/hydrograph.php?wfo=pbz&gage=wlgw2,hgirg,Yes,W,-9999 Feet,Year-round,No,No,Yes,US Geological Survey,Yes,Yes,Yes,Yes,Yes,NGVD 1929,608.1,607.2,608.099975585938 ft,,,3114280.0,-1.53,Ohio River,jam
2012,3114306.0,"Ohio River above Sardis, OH",39.6303,-80.8747,5030201.0,EST,12500,cfs,2022-08-14 18:45:00,12.27,ft,2022-08-14 18:45:00,-2000.0,-13.79,0.03,0.25,3114306.0,Sardis,above,Ohio River,saro1,River Stage/Flow Location,3114306.0,39.630278,80.874722,pbz,ohrfc,oh,111.0,Ohio Region,EST,No,,0.0,0.0,0.0,0.0,FT,,https://water.weather.gov/ahps2/hydrograph.php?wfo=pbz&gage=saro1,hgirg,Yes,W,-9999 Feet,Data Point,No,No,No,US Geological Survey,Yes,No,,,,,,,,,,3150700.0,-0.43,Ohio River,jam
2151,3201500.0,"OHIO RIVER AT POINT PLEASANT, WV",38.844,-82.1396,5050008.0,EST,0,,0000-00-00 00:00:00,24.98,ft,2022-08-14 18:00:00,,,0.02,0.08,3201500.0,Point Pleasant,at,Ohio River,popw2,River Stage/Flow Location,3201500.0,38.843889,82.139722,rlx,ohrfc,wv,53.0,Ohio Region,EST,No,,38.0,40.0,44.0,48.0,FT,,https://water.weather.gov/ahps2/hydrograph.php?wfo=rlx&gage=popw2,hgirg,Yes,W,-9999 Feet,Year-round,No,No,Yes,US Geological Survey,Yes,Yes,Yes,Yes,Yes,NAVD88,513.08,513.08,,,514.1,3206000.0,-0.16,Ohio River,jam
2227,3238000.0,"OHIO RIVER AT MAYSVILLE, KY",38.6841,-83.7839,5090201.0,EST,0,,0000-00-00 00:00:00,34.03,ft,2022-08-14 18:00:00,,,0.03,0.09,3238000.0,Maysville,at,Ohio River,myvk2,River Stage/Flow Location,3238000.0,38.684104,83.783897,iln,ohrfc,ky,161.0,Ohio Region,EST,No,,48.0,50.0,58.0,66.0,FT,,https://water.weather.gov/ahps2/hydrograph.php?wfo=iln&gage=myvk2,hgirg,Yes,W,-9999 Feet,Year-round,No,No,Yes,US Geological Survey,Yes,Yes,Yes,No,Yes,NAVD88,450.15,450.15,,,451.50 ft,3255000.0,-0.04,Ohio River,jam
2335,3293551.0,"OHIO R US OF MCALPINE DAM @ RRB AT LOUISVILLE, KY",38.2659,-85.7689,5140101.0,EST,0,,0000-00-00 00:00:00,12.9,ft,2022-08-14 18:00:00,,,0.13,1.02,3293551.0,McAlpine Upper,at,Ohio River,mluk2,River Stage/Flow Location,3293551.0,38.265833,85.768889,lmk,ohrfc,ky,111.0,Ohio Region,EST,No,407.18,21.0,23.0,30.0,38.0,FT,,https://water.weather.gov/ahps2/hydrograph.php?wfo=lmk&gage=mluk2,hpirg,Yes,W,-9999 Feet,Year-round,No,No,Yes,US Geological Survey,Yes,Yes,Yes,Yes,Yes,NGVD29,407.18,,407.18,,408 ft,3294500.0,-1.71,Ohio River,jam
2711,3611000.0,"OHIO RIVER AT PADUCAH, KY",37.0895,-88.5945,5140206.0,CST,0,,0000-00-00 00:00:00,17.49,ft,2022-08-14 17:00:00,,,0.05,0.29,3611000.0,Paducah,at,Ohio River,pahk2,River Stage/Flow Location,3611000.0,37.089444,88.594444,pah,lmrfc,ky,145.0,Ohio Region,CST,No,285.57,32.0,39.0,43.0,52.0,FT,,https://water.weather.gov/ahps2/hydrograph.php?wfo=pah&gage=pahk2,hgirg,Yes,W,-9999 Feet,Year-round,No,No,Yes,US Geological Survey,Yes,Yes,Yes,Yes,Yes,Ohio River Datum,286.26,285.46,285.57,,286.26 ft,3612600.0,-0.14,Ohio River,jam
4444,6918250.0,"Osage River at Taberville, MO",38.0039,-93.9947,10290105.0,CST,1030,cfs,2022-08-14 17:45:00,9.28,ft,2022-08-14 17:45:00,55.0,5.64,0.05,0.54,6918250.0,Taberville,near,Osage River,tbvm7,River Stage/Flow Location,6918250.0,38.003889,93.994722,sgf,mbrfc,mo,185.0,Missouri Region,CST,No,,21.0,23.0,34.0,46.0,FT,,https://water.weather.gov/ahps2/hydrograph.php?wfo=sgf&gage=tbvm7,hgirg,Yes,W,6 Feet,High Water,No,No,Yes,US Geological Survey,No,Yes,Yes,Yes,Yes,NAVD88,697.31,697.31,,,,6922440.0,-0.01,Osage River,jam
4463,6922500.0,"Osage River at Warsaw, MO",38.2445,-93.3871,10290109.0,CST,0,,0000-00-00 00:00:00,28.79,ft,2022-08-14 17:45:00,,,0.08,0.28,6922500.0,Warsaw,at,Osage River,wrsm7,River Stage/Flow Location,6922500.0,38.24444,93.38722,sgf,mbrfc,mo,15.0,Missouri Region,CST,No,,0.0,34.0,0.0,0.0,FT,,https://water.weather.gov/ahps2/hydrograph.php?wfo=sgf&gage=wrsm7,hgirg,Yes,W,-9999 Feet,No routine,No,No,Yes,US Geological Survey,Yes,No,,,,NAVD88,631.06,631.06,,,,6926000.0,-6.44,Osage River,jam
5704,9381800.0,"PARIA RIVER NEAR KANAB, UTAH",37.1075,-111.906,14070007.0,MST,6.96,cfs,2022-08-14 16:10:00,8.56,ft,2022-08-14 16:10:00,6.73,2926.09,0.51,6.34,9381800.0,Kanab,near,Paria River,paku1,River Stage/Flow Location,9381800.0,37.107483,111.90601,slc,cbrfc,ut,25.0,Upper Colorado Region,MST,No,,0.0,0.0,0.0,0.0,FT,,https://water.weather.gov/ahps2/hydrograph.php?wfo=slc&gage=paku1,hgirg,Yes,W,-9999 Feet,Data Point,No,No,Yes,US Geological Survey,No,No,,,,NAVD88,4348.6,,,,,9382000.0,-0.43,Paria River,jam
1768,2479310.0,"PASCAGOULA RIVER AT GRAHAM FERRY, MS",30.6106,-88.6414,3170006.0,CST,9230,cfs,2022-08-14 17:45:00,8.38,ft,2022-08-14 17:45:00,50.0,0.54,0.04,0.48,2479310.0,Graham Ferry,at,Pascagoula River,pgfm6,River Stage/Flow Location,2479310.0,30.610556,88.641389,lix,lmrfc,ms,59.0,South Atlantic-Gulf Region,CST,No,,15.0,16.0,18.0,20.0,FT,,https://water.weather.gov/ahps2/hydrograph.php?wfo=lix&gage=pgfm6,hgirg,Yes,W,-9999 Feet,Year-round,No,No,Yes,US Geological Survey,Yes,Yes,Yes,Yes,Yes,NGVD29,0.0,0 ft,,,,2480212.0,-21.49,Pascagoula River,jam
2563,3376300.0,"PATOKA RIVER AT WINSLOW, IN",38.3803,-87.2167,5120209.0,EST,173,cfs,2022-08-14 17:30:00,8.56,ft,2022-08-14 17:30:00,2.0,1.17,0.01,0.12,3376300.0,Winslow,above,Patoka River,wnsi3,River Stage/Flow Location,3376300.0,38.380278,87.216667,pah,ohrfc,in,125.0,Ohio Region,CST,No,400,0.0,0.0,0.0,0.0,FT,,https://water.weather.gov/ahps2/hydrograph.php?wfo=pah&gage=wnsi3,hgirg,Yes,W,-9999 Feet,Data Point,No,No,Yes,US Geological Survey,No,No,,,,NGVD29,400.0,,400,,,3376500.0,-0.5,Patoka River,jam
1394,2294650.0,"PEACE RIVER AT SR 60 AT BARTOW, FL",27.9022,-81.8173,3100101.0,EST,104,cfs,2022-08-14 18:15:00,4.8,ft,2022-08-14 18:15:00,1.0,0.97,0.01,0.21,2294650.0,SR 60 Bartow,at,Peace River (FL),barf1,River Stage/Flow Location,2294650.0,27.901944,81.8175,tbw,serfc,fl,0.0,South Atlantic-Gulf Region,EST,Yes,,7.6,8.0,9.2,10.0,FT,,https://water.weather.gov/ahps2/hydrograph.php?wfo=tbw&gage=barf1,hgirg,Yes,W,-9999 Feet,High Water,No,No,Yes,US Geological Survey,No,Yes,Yes,Yes,Yes,NGVD29,0.0,,,,,2295637.0,-0.18,Peace River (FL),jam
1796,2484650.0,"PEARL RIVER AT RATLIFF`S FERRY NR RATLIFF, MS",32.5942,-89.8406,3180002.0,CST,0,,0000-00-00 00:00:00,297.72,ft,2022-08-14 17:15:00,,,0.03,0.01,2484650.0,Ratliff&#039;s Ferry,at,Pearl River,ratm6,River Stage/Flow Location,2484650.0,32.59416,89.84055,jan,lmrfc,ms,0.0,South Atlantic-Gulf Region,CST,No,0 ft,302.0,303.0,310.0,315.0,FT,,https://water.weather.gov/ahps2/hydrograph.php?wfo=jan&gage=ratm6,hgirg,Yes,W,-9999 Feet,Year-round,No,No,Yes,U.S. Geological Survey,Yes,Yes,Yes,Yes,Yes,NVGD 29,0.63,,0 ft,,,2485601.0,-0.02,Pearl River,jam
1814,2489000.0,"PEARL RIVER NR COLUMBIA, MS",31.2378,-89.8469,3180004.0,CST,2800,cfs,2022-08-14 17:15:00,2.36,ft,2022-08-14 17:15:00,40.0,1.45,0.04,1.72,2489000.0,Columbia,near,Pearl River,clmm6,River Stage/Flow Location,2489000.0,31.237778,89.846944,jan,lmrfc,ms,91.0,South Atlantic-Gulf Region,CST,No,115.81 ft,16.0,17.0,23.0,26.0,FT,,https://water.weather.gov/ahps2/hydrograph.php?wfo=jan&gage=clmm6,hgirg,Yes,W,-9999 Feet,Year-round,No,No,Yes,U.S. Geological Survey,Yes,Yes,Yes,Yes,Yes,NGVD 1929,115.81,,115.81 ft,,,2490200.0,-0.04,Pearl River,jam
1827,2492600.0,"Pearl River at Pearl River, LA",30.3852,-89.7367,3180004.0,CST,0,,0000-00-00 00:00:00,8.86,ft,2022-08-14 17:00:00,,,0.01,0.11,2492600.0,Pearl River,near,Pearl River,perl1,River Stage/Flow Location,2492600.0,30.385,89.736667,lix,lmrfc,la,103.0,South Atlantic-Gulf Region,CST,No,,12.0,14.0,17.0,18.0,FT,,https://water.weather.gov/ahps2/hydrograph.php?wfo=lix&gage=perl1,hgirg,Yes,W,-9999 Feet,Year-round,No,No,Yes,US Geological Survey,Yes,Yes,Yes,Yes,Yes,NAVD88,-0.86,-0.86 ft,,,,2492620.0,-0.54,Pearl River,jam
5570,8405200.0,"PECOS RIVER BELOW DARK CANYON AT CARLSBAD, NM",32.4093,-104.215,13060011.0,MST,96.4,cfs,2022-08-14 16:45:00,1.45,ft,2022-08-14 16:45:00,3.6,3.88,0.03,2.11,8405200.0,Carlsbad below Dark Canyon,other,Pecos River,cpdn5,River Stage/Flow Location,8405200.0,32.409167,104.215,maf,wgrfc,nm,15.0,Rio Grande Region,MST,No,3075.19 ft,12.0,14.0,17.0,20.0,FT,,https://water.weather.gov/ahps2/hydrograph.php?wfo=maf&gage=cpdn5,hgirg,Yes,W,-9999 Feet,High Water,No,No,Yes,US Geological Survey,Yes,Yes,Yes,No,Yes,NGVD29,3075.19,,3075.19 ft,,,8407000.0,-0.6,Pecos River,jam
1043,2131000.0,"PEE DEE RIVER AT PEEDEE, SC",34.2043,-79.5484,3040201.0,EST,3040,cfs,2022-08-14 18:00:00,4.73,ft,2022-08-14 18:00:00,150.0,5.19,0.04,0.85,2131000.0,Pee Dee,at,Pee Dee River,pdes1,River Stage/Flow Location,2131000.0,34.204167,79.548611,ilm,serfc,sc,0.0,South Atlantic-Gulf Region,EST,No,,18.0,19.0,23.0,28.0,FT,,https://water.weather.gov/ahps2/hydrograph.php?wfo=ilm&gage=pdes1,hgirg,Yes,W,-9999 Feet,Year-round,No,No,Yes,US Geological Survey,No,Yes,Yes,No,Yes,,23.54,,,,24.73 ft,2131210.0,-0.32,Pee Dee River,jam
6334,12395500.0,PEND OREILLE RIVER AT NEWPORT WA,48.1822,-117.034,17010216.0,PST,9490,cfs,2022-08-14 15:15:00,31.65,ft,2022-08-14 15:45:00,-170.0,-1.76,0.01,0.03,12395500.0,Newport,at,Pend Oreille River,atgw1,River Stage/Flow Location,12395500.0,48.182222,117.033333,otx,nwrfc,wa,51.0,Pacific Northwest Region,PST,No,1999.7,0.0,0.0,0.0,0.0,FT,,https://water.weather.gov/ahps2/hydrograph.php?wfo=otx&gage=atgw1,hgirg,Yes,W,25 Feet,Data Point,No,No,Yes,US Geological Survey,No,No,,,,NGVD29 ,1999.7,,1999.7,,,12396500.0,-0.29,Pend Oreille River,jam
712,1610000.0,"POTOMAC RIVER AT PAW PAW, WV",39.5389,-78.4556,2070003.0,EST,957,cfs,2022-08-14 18:15:00,4.22,ft,2022-08-14 18:15:00,9.33,0.98,0.01,0.24,1610000.0,Paw Paw,at,Potomac River,paww2,Stage/Flow and Precipitation Location,1610000.0,39.538889,78.456389,lwx,marfc,md,1.0,Mid Atlantic Region,EST,No,,22.5,25.0,30.0,37.0,FT,,https://water.weather.gov/ahps2/hydrograph.php?wfo=lwx&gage=paww2,hgirg,Yes,W,-9999 Feet,Year-round,No,No,Yes,US Geological Survey,No,Yes,Yes,Yes,Yes,NAVD88,487.21,,487.884 ft,,,1618000.0,-0.42,Potomac River,jam
3915,6324500.0,Powder River at Moorhead MT,45.0572,-105.878,10090207.0,MST,52.8,cfs,2022-08-14 16:45:00,2.05,ft,2022-08-14 16:45:00,1.0,1.93,0.01,0.49,6324500.0,Moorhead,at,Powder River (WY-MT),mhdm8,Stage/Flow and Precipitation Location,6324500.0,45.057197,105.878378,byz,mbrfc,mt,75.0,Missouri Region,MST,No,,0.0,0.0,0.0,0.0,FT,,https://water.weather.gov/ahps2/hydrograph.php?wfo=byz&gage=mhdm8,hgirz,Yes,W,-9999 Feet,Data Point,No,No,Yes,US Geological Survey,Yes,No,,,,NGVD 1929,3350.6,,,,3344.6 ft,6326500.0,-4.35,Powder River (WY-MT),jam
244,1387998.0,Ramapo River above dam at Pompton Lakes NJ,40.9928,-74.2789,2030103.0,EST,0,,0000-00-00 00:00:00,10.08,ft,2022-08-14 18:30:00,,,0.02,0.2,1387998.0,Pompton Lakes Dam,at,Ramapo River,plun4,River Stage/Flow Location,1387998.0,40.9925,74.278889,phi,marfc,nj,,Mid Atlantic Region,EST,No,190.96 ft,11.5,0.0,0.0,0.0,FT,,https://water.weather.gov/ahps2/hydrograph.php?wfo=phi&gage=plun4,hpirg,Yes,W,,Data Point,No,No,Yes,US Geological Survey,Yes,No,,,,NGVD 1929,190.96,,190.96 ft,,,1388000.0,-0.15,Ramapo River,jam
3979,6418800.0,"RAPID CREEK ABOVE WRF NR RAPID CITY, SD",44.0268,-103.101,10120110.0,MST,31.2,cfs,2022-08-14 16:15:00,3.51,ft,2022-08-14 16:15:00,0.9,2.97,0.01,0.29,6418800.0,Water Reclamation Facility near Rapid City,above,Rapid Creek,rcvs2,River Stage/Flow Location,6418800.0,44.026667,103.101111,unr,mbrfc,sd,103.0,Missouri Region,MST,No,,8.0,9.0,11.0,13.0,FT,,https://water.weather.gov/ahps2/hydrograph.php?wfo=unr&gage=rcvs2,hgirg,Yes,W,-9999 Feet,No routine,No,No,Yes,US Geological Survey,Yes,No,,,,NAVD88,3003.24,3003.24,,,,6421500.0,-0.18,Rapid Creek,jam
3115,4266500.0,RAQUETTE RIVER AT PIERCEFIELD NY,44.2347,-74.5719,4150305.0,EST,637,cfs,2022-08-14 17:45:00,4.47,ft,2022-08-14 17:45:00,84.0,15.19,0.23,5.42,4266500.0,Piercefield,at,Raquette River,pien6,River Stage/Flow Location,4266500.0,44.234722,74.572222,btv,nerfc,ny,89.0,Great Lakes Region,EST,No,1502.12,9.0,12.5,13.0,0.0,FT,,https://water.weather.gov/ahps2/hydrograph.php?wfo=btv&gage=pien6,hgirg,Yes,W,-9999 Feet,Year-round,No,No,Yes,US Geological Survey,No,Yes,Yes,Yes,Yes,NAVD 1988,1502.03,1502.03,1502.12,,,4267500.0,-1.95,Raquette River,jam
4827,7308500.0,"Red Rv nr Burkburnett, TX",34.1101,-98.5317,11130102.0,CST,3.15,cfs,2022-08-14 17:30:00,2.34,ft,2022-08-14 17:30:00,0.23,7.88,0.01,0.43,7308500.0,Burkburnett,near,Red River,bkbt2,River Stage/Flow Location,7308500.0,34.110093,98.531723,oun,abrfc,tx,485.0,Arkansas-White-Red Region,CST,No,952.57,7.0,9.0,12.0,14.0,FT,,https://water.weather.gov/ahps2/hydrograph.php?wfo=oun&gage=bkbt2,hgirg,Yes,W,-9999 Feet,High Water,No,No,Yes,US Geological Survey,Yes,Yes,Yes,Yes,Yes,NGVD29,952.57,,952.57,,,7315500.0,-0.31,Red River,jam
4920,7341500.0,"Red River at Fulton, AR",33.6073,-93.8138,11140201.0,CST,3310,cfs,2022-08-14 17:15:00,-2.42,ft,2022-08-14 17:15:00,-10.0,-0.3,-0.01,0.41,7341500.0,Fulton,at,Red River,flta4,River Stage/Flow Location,7341500.0,33.6073,93.8138,shv,abrfc,ar,57.0,Arkansas-White-Red Region,CST,No,224.94 ft,25.0,27.0,30.0,32.5,FT,,https://water.weather.gov/ahps2/hydrograph.php?wfo=shv&gage=flta4,hgirg,Yes,W,-9999 Feet,Year-round,No,No,Yes,US Geological Survey,Yes,Yes,Yes,Yes,Yes,NGVD 1929,224.94,,224.94 ft,,,7348500.0,-0.36,Red River,jam
3227,5070000.0,"RED RIVER OF THE NORTH NEAR THOMPSON, ND",47.7589,-96.944,9020301.0,CST,1290,cfs,2022-08-14 17:15:00,18.22,ft,2022-08-14 17:15:00,10.0,0.78,0.01,0.05,5070000.0,Thompson,near,Red River of the North,tpnn8,River Stage/Flow Location,5070000.0,47.758889,96.943611,fgf,ncrfc,nd,35.0,Souris-Red-Rainy Region,CST,No,779.00 ft,0.0,0.0,0.0,0.0,FT,,https://water.weather.gov/ahps2/hydrograph.php?wfo=fgf&gage=tpnn8,hgir2,Yes,W,-9999 Feet,Data Point,No,No,Yes,US Geological Survey,Yes,No,,,,NAVD88,779.8,779.80 ft,779.00 ft,,,5092000.0,-0.08,Red River of the North,jam
1674,2394682.0,"RICHLAND CREEK AT OLD DALLAS RD, NEAR DALLAS, GA",34.079,-84.8544,3150104.0,EST,0.92,cfs,2022-08-14 18:30:00,0.89,ft,2022-08-14 18:30:00,0.09,10.84,0.01,1.14,2394682.0,Old Dallas Road near Dallas,at,Richland Creek,rcdg1,Stage/Flow and Precipitation Location,2394682.0,34.078972,84.854444,ffc,serfc,ga,223.0,South Atlantic-Gulf Region,EST,No,,6.0,8.0,0.0,0.0,FT,,https://water.weather.gov/ahps2/hydrograph.php?wfo=ffc&gage=rcdg1,hgirg,Yes,W,-9999 Feet,Data Point,No,No,Yes,US Geological Survey,Yes,No,,,,NAVD88,796.72,,800 ft,,,3431655.0,-0.4,Richland Creek,jam
5523,8286900.0,ABIQUIU RESERVOIR NEAR ABIQUIU N MEX,36.24,-106.429,13020102.0,MST,0,,0000-00-00 00:00:00,196.15,ft,2022-08-14 16:30:00,,,0.01,0.01,8286900.0,Abiquiu Dam,at,Rio Chama,abin5,River Stage/Flow Location,8286900.0,36.24,106.428889,abq,wgrfc,nm,39.0,Rio Grande Region,MST,No,,0.0,0.0,0.0,0.0,FT,,https://water.weather.gov/ahps2/hydrograph.php?wfo=abq&gage=abin5,hpirg,Yes,W,-9999 Feet,No routine,No,No,No,US Geological Survey,No,No,,,,NAD83,,,,,,8290000.0,-0.27,Rio Chama,jam
5541,8359500.0,"RIO GRANDE AT NARROWS IN ELEPHANT BUTTE RES., NM",33.3862,-107.163,13020211.0,MST,508,cfs,2022-08-14 16:15:00,6.64,ft,2022-08-14 16:15:00,5.0,0.99,0.01,0.15,8359500.0,The Narrows in Elephant Butte Lake,at,Rio Grande,ebnn5,River Stage/Flow Location,8359500.0,33.383616,107.162746,epz,wgrfc,nm,51.0,Rio Grande Region,MST,No,4363.63,0.0,0.0,0.0,0.0,FT,,https://water.weather.gov/ahps2/hydrograph.php?wfo=epz&gage=ebnn5,hgirg,Yes,W,3 Feet,Data Point,No,No,Yes,U.S. Geological Survey,No,No,,,,NGVD29,,,4363.63,,,8361000.0,-0.31,Rio Grande,jam
5543,8364000.0,"RIO GRANDE AT EL PASO, TX",31.8029,-106.541,13030102.0,MST,688,cfs,2022-08-14 16:00:00,3.88,ft,2022-08-14 16:00:00,29.0,4.4,0.06,1.57,8364000.0,El Paso (Courchesne Bridge),at,Rio Grande,eprt2,River Stage/Flow Location,8364000.0,31.80319,106.54131,epz,wgrfc,tx,141.0,Rio Grande Region,MST,No,,7.5,8.5,9.5,11.5,FT,,https://water.weather.gov/ahps2/hydrograph.php?wfo=epz&gage=eprt2,hgirg,Yes,W,2.05 Feet,Year-round,Yes,No,Yes,IBWC-US Section,No,No,,,,NGVD 1929,3722.3,,,,,8374550.0,-0.45,Rio Grande,jam
887,2054500.0,"ROANOKE RIVER AT LAFAYETTE, VA",37.2365,-80.2092,3010101.0,EST,69.3,cfs,2022-08-14 18:50:00,1.65,ft,2022-08-14 18:50:00,1.8,2.67,0.01,0.61,2054500.0,Lafayette,at,Roanoke River,laav2,River Stage/Flow Location,2054500.0,37.236389,80.209444,rnk,serfc,va,121.0,South Atlantic-Gulf Region,EST,No,,6.0,8.0,11.0,13.0,FT,,https://water.weather.gov/ahps2/hydrograph.php?wfo=rnk&gage=laav2,hgirg,Yes,W,,No routine,No,No,Yes,US Geological Survey,Yes,No,,,,NGVD1929,1174.47,,,,,2054750.0,-0.23,Roanoke River,jam
921,2079500.0,"ROANOKE RIVER AT BUGGS ISLAND, VA",36.6032,-78.2978,3010106.0,EST,0,,0000-00-00 00:00:00,3.55,ft,2022-08-14 18:15:00,,,0.2,5.97,2079500.0,BUGGS ISLAND,at,Roanoke River,bugv2,River Stage/Flow Location,2079500.0,36.603056,78.298056,akq,serfc,va,117.0,South Atlantic-Gulf Region,EST,No,196.72,0.0,0.0,0.0,0.0,FT,,https://water.weather.gov/ahps2/hydrograph.php?wfo=akq&gage=bugv2,hgirg,Yes,W,-9999 Feet,Data Point,No,No,Yes,US Geological Survey,Yes,No,,,,NGVD29,196.72,,196.72,,,2080500.0,-19.49,Roanoke River,jam
924,2081000.0,"ROANOKE RIVER NEAR SCOTLAND NECK, NC",36.2092,-77.3839,3010107.0,EST,0,,0000-00-00 00:00:00,5.98,ft,2022-08-14 18:00:00,,,0.05,0.84,2081000.0,Scotland Neck,near,Roanoke River,scon7,River Stage/Flow Location,2081000.0,36.209167,77.383889,rah,serfc,nc,83.0,South Atlantic-Gulf Region,EST,No,,28.0,28.0,31.0,34.0,FT,,https://water.weather.gov/ahps2/hydrograph.php?wfo=rah&gage=scon7,hgirg,Yes,W,-9999 Feet,High Water,No,No,Yes,US Geological Survey,Yes,Yes,Yes,No,Yes,NAVD88,4.85,4.85,,,,2081028.0,-1.21,Roanoke River,jam
3445,5437610.0,"ROCK RIVER AT LATHAM PARK, IL",42.3689,-89.0586,7090005.0,CST,0,,0000-00-00 00:00:00,6.96,ft,2022-08-14 16:30:00,,,0.01,0.14,5437610.0,Latham Park,at,Rock River,lati2,River Stage/Flow Location,5437610.0,42.368633,89.057261,lot,ncrfc,il,201.0,Upper Mississippi Region,CST,No,,8.0,9.0,11.0,13.5,FT,,https://water.weather.gov/ahps2/hydrograph.php?wfo=lot&gage=lati2,hgirg,Yes,W,2.5 Feet,High Water,Yes,No,Yes,US Geological Survey,Yes,Yes,Yes,Yes,Yes,NAVD88,698.74,698.74,,,,5437645.0,-1.77,Rock River,jam
3457,5446500.0,"ROCK RIVER NEAR JOSLIN, IL",41.5561,-90.1853,7090005.0,CST,11200,cfs,2022-08-14 16:45:00,8.91,ft,2022-08-14 16:45:00,100.0,0.9,0.04,0.45,5446500.0,Joslin,near,Rock River,josi2,River Stage/Flow Location,5446500.0,41.556111,90.185278,dvn,ncrfc,il,161.0,Upper Mississippi Region,CST,No,564.06 ft,11.0,12.0,14.0,16.5,FT,,https://water.weather.gov/ahps2/hydrograph.php?wfo=dvn&gage=josi2,hgirg,Yes,W,-9999 Feet,Summer-only,No,No,Yes,U.S. Geological Survey,Yes,Yes,Yes,Yes,Yes,NGVD29,564.06,563.74 ft,564.06 ft,,,6483290.0,-0.14,Rock River,jam
991,2101726.0,"ROCKY R AT US 64 NEAR SILER CITY, NC",35.7351,-79.4231,3030003.0,EST,4.12,cfs,2022-08-14 18:30:00,2.08,ft,2022-08-14 18:30:00,0.27,7.01,0.01,0.48,2101726.0,Siler City,at,Rocky River ,slcn7,River Stage/Flow Location,2101726.0,35.73514,79.42307,rah,serfc,nc,37.0,South Atlantic-Gulf Region,EST,No,,16.0,20.0,32.0,36.0,FT,,https://water.weather.gov/ahps2/hydrograph.php?wfo=rah&gage=slcn7,hgirg,Yes,W,-9999 Feet,Data Point,No,No,Yes,US Geological Survey,No,No,,,,NAVD88,482.9,482.9,,,,4201500.0,-0.28,Rocky River ,jam
6134,11463500.0,RUSSIAN R A GEYSERVILLE CA,38.7127,-122.896,18010110.0,PST,35.4,cfs,2022-08-14 15:15:00,23.33,ft,2022-08-14 15:15:00,1.0,2.91,0.01,0.04,11463500.0,Geyserville,at,Russian River,geyc1,River Stage/Flow Location,11463500.0,38.712687,122.89583,mtr,cnrfc,ca,97.0,California Region,PST,No,190 ft,38.0,39.7,46.0,50.0,FT,,https://water.weather.gov/ahps2/hydrograph.php?wfo=mtr&gage=geyc1,hgirg,Yes,W,-9999 Feet,Data Point,No,No,Yes,US Geological Survey,No,No,,,,NGVD 1929,190.0,,190 ft,,,11463980.0,-0.17,Russian River,jam
6138,11464000.0,RUSSIAN R NR HEALDSBURG CA,38.6132,-122.836,18010110.0,PST,26.3,cfs,2022-08-14 15:45:00,-0.79,ft,2022-08-14 15:45:00,-0.5,-1.87,-0.01,1.28,11464000.0,Healdsburg,near,Russian River,heac1,River Stage/Flow Location,11464000.0,38.613242,122.836382,mtr,cnrfc,ca,97.0,California Region,PST,No,77.01 ft,20.0,23.0,27.0,29.0,FT,,https://water.weather.gov/ahps2/hydrograph.php?wfo=mtr&gage=heac1,hgirg,Yes,W,-9999 Feet,Year-round,No,No,Yes,US Geological Survey,No,No,,,,NGVD 1929,77.01,,77.01 ft,,,11467002.0,-0.13,Russian River,jam
5066,8022040.0,"Sabine Rv nr Beckville, TX",32.3285,-94.3538,12010002.0,CST,117,cfs,2022-08-14 17:45:00,6.61,ft,2022-08-14 17:45:00,1.0,0.87,0.01,0.15,8022040.0,Beckville,near,Sabine River,bekt2,River Stage/Flow Location,8022040.0,32.327222,94.353333,shv,wgrfc,tx,365.0,Texas-Gulf Region,CST,No,190 ft,25.5,26.0,30.0,35.0,FT,,https://water.weather.gov/ahps2/hydrograph.php?wfo=shv&gage=bekt2,hgirg,Yes,W,0 Feet,High Water,No,No,Yes,US Geological Survey,Yes,Yes,Yes,No,Yes,NGVD 1929,190.0,,190 ft,,,8022500.0,-0.05,Sabine River,jam
4451,6919020.0,"Sac River at Hwy J below Stockton, MO",37.7359,-93.7797,10290106.0,CST,1780,cfs,2022-08-14 17:45:00,10.96,ft,2022-08-14 17:45:00,1675.0,1595.24,4.97,82.97,6919020.0,Highway J near Stockton,below,Sac River,sjzm7,River Stage/Flow Location,6919020.0,37.735833,93.779722,sgf,mbrfc,mo,39.0,Missouri Region,CST,No,750.19,15.5,17.5,45.0,0.0,FT,,https://water.weather.gov/ahps2/hydrograph.php?wfo=sgf&gage=sjzm7,hgirg,Yes,W,5 Feet,No routine,No,No,Yes,US Geological Survey,Yes,No,,,,NAVD88,750.56,,750.19,,,6919900.0,-0.17,Sac River,jam
4231,6803513.0,"Salt Creek at 70th Street at Lincoln, Nebr.",40.8861,-96.6242,10200203.0,CST,69,cfs,2022-08-14 17:15:00,3.29,ft,2022-08-14 17:15:00,4.0,6.15,0.03,0.92,6803513.0,Lincoln (70th Street),at,Salt Creek,lscn1,River Stage/Flow Location,6803513.0,40.885838,96.624284,oax,mbrfc,ne,109.0,Missouri Region,CST,No,1095.85 ft,32.0,34.0,0.0,0.0,FT,,https://water.weather.gov/ahps2/hydrograph.php?wfo=oax&gage=lscn1,hgirg,Yes,W,-9999 Feet,Data Point,No,No,Yes,the USGS (06803513),Yes,No,,,,NGVD29,1095.85,,1095.85 ft,,,6803555.0,-0.53,Salt Creek,jam
3615,5531300.0,"SALT CREEK AT ELMHURST, IL",41.8861,-87.9592,7120004.0,CST,44.1,cfs,2022-08-14 16:20:00,5.2,ft,2022-08-14 16:20:00,1.7,4.01,0.02,0.39,5531300.0,Elmhurst,at,Salt Creek (IL),emhi2,Stage/Flow and Precipitation Location,5531300.0,41.886111,87.959167,lot,ncrfc,il,43.0,Upper Mississippi Region,CST,No,,10.0,11.0,12.0,14.0,FT,,https://water.weather.gov/ahps2/hydrograph.php?wfo=lot&gage=emhi2,hgirg,Yes,W,5 Feet,No routine,Yes,No,Yes,US Geological Survey,Yes,No,,,,NAVD88,651.64,651.64,651.93,,,5531410.0,-0.02,Salt Creek (IL),jam
5794,9498500.0,"SALT RIVER NEAR ROOSEVELT, AZ",33.6195,-110.922,15060103.0,MST,1010,cfs,2022-08-14 15:30:00,8.4,ft,2022-08-14 15:30:00,11.0,1.1,0.02,0.24,9498500.0,Roosevelt,near,Salt River,slra3,River Stage/Flow Location,9498500.0,33.619495,110.921504,psr,cbrfc,az,0.0,Lower Colorado Region,MST7,No,,24.0,30.0,34.0,36.0,FT,,https://water.weather.gov/ahps2/hydrograph.php?wfo=psr&gage=slra3,hgirg,Yes,W,-9999 Feet,Year-round,No,No,Yes,US Geological Survey,No,Yes,No,No,Yes,NGVD29,2177.14,,,,2177.1 ft,9512165.0,-1.03,Salt River,jam
1135,2163001.0,"SALUDA RIVER NEAR WILLIAMSTON, SC",34.6148,-82.444,3050109.0,EST,449,cfs,2022-08-14 17:45:00,3.91,ft,2022-08-14 17:45:00,24.0,5.65,0.05,1.3,2163001.0,WILLIAMSTON,near,Saluda River,wlss1,River Stage/Flow Location,2163001.0,34.614722,82.444167,gsp,serfc,sc,7.0,South Atlantic-Gulf Region,EST,No,,21.0,22.0,24.0,29.0,FT,,https://water.weather.gov/ahps2/hydrograph.php?wfo=gsp&gage=wlss1,hgirg,Yes,W,-9999 Feet,Data Point,No,No,Yes,US Geological Survey,Yes,No,,,,NGVD29,650.0,,,,,2163500.0,-0.85,Saluda River,jam
5455,8183200.0,"San Antonio Rv nr Floresville, TX",29.11,-98.1744,12100303.0,CST,125,cfs,2022-08-14 17:00:00,4.04,ft,2022-08-14 17:00:00,9.0,7.76,0.06,1.51,8183200.0,Floresville,near,San Antonio River,flvt2,River Stage/Flow Location,8183200.0,29.11,98.174444,ewx,wgrfc,tx,493.0,Texas-Gulf Region,CST,No,,21.0,27.0,33.0,42.0,FT,,https://water.weather.gov/ahps2/hydrograph.php?wfo=ewx&gage=flvt2,hgirg,Yes,W,-9999 Feet,High Water,No,No,Yes,US Geological Survey,Yes,Yes,Yes,Yes,Yes,,,374.68,,,,8188060.0,-0.11,San Antonio River,jam
5690,9342500.0,"SAN JUAN RIVER AT PAGOSA SPRINGS, CO",37.2655,-107.011,14080101.0,MST,180,cfs,2022-08-14 16:00:00,4.2,ft,2022-08-14 16:00:00,2.0,1.12,0.01,0.24,9342500.0,Pagosa Springs,at,San Juan River,pspc2,River Stage/Flow Location,9342500.0,37.265528,107.011,gjt,cbrfc,co,7.0,Upper Colorado Region,MST,No,7047.53 ft,9.48,10.5,11.7,12.6,FT,,https://water.weather.gov/ahps2/hydrograph.php?wfo=gjt&gage=pspc2,hgirg,Yes,W,-9999 Feet,Data Point,No,No,Yes,US Geological Survey,Yes,Yes,Yes,Yes,Yes,NGVD29,7047.53,,7047.53 ft,,,9365000.0,-1.69,San Juan River,jam
5699,9368000.0,"SAN JUAN RIVER AT SHIPROCK, NM",36.7767,-108.683,14080105.0,MST,531,cfs,2022-08-14 16:00:00,7.4,ft,2022-08-14 16:00:00,18.0,3.51,0.03,0.41,9368000.0,Shiprock,at,San Juan River,shrn5,River Stage/Flow Location,9368000.0,36.776667,108.683056,abq,cbrfc,nm,45.0,Upper Colorado Region,MST,No,,13.5,15.5,18.0,20.5,FT,,https://water.weather.gov/ahps2/hydrograph.php?wfo=abq&gage=shrn5,hgirg,Yes,W,0 Feet,Year-round,No,No,Yes,US Geological Survey,No,Yes,Yes,Yes,Yes,NGVD29,4890.0,,,,,9371010.0,-0.18,San Juan River,jam
3722,5576900.0,"SANGAMON RIVER NEAR SPRINGFIELD, IL",39.8708,-89.6139,7130008.0,CST,0,,0000-00-00 00:00:00,23.45,ft,2022-08-14 16:15:00,,,0.02,0.09,5576900.0,Springfield,near,Sangamon River,srsi2,River Stage/Flow Location,5576900.0,39.870833,89.613889,ilx,ncrfc,il,167.0,Upper Mississippi Region,CST,No,,0.0,0.0,0.0,0.0,FT,,https://water.weather.gov/ahps2/hydrograph.php?wfo=ilx&gage=srsi2,hgirg,Yes,W,-9999 Feet,Data Point,No,No,Yes,US Geological Survey,Yes,No,,,,NAVD88,484.71,484.71 ft,,,,5578000.0,-0.16,Sangamon River,jam
1439,2321898.0,SANTA FE RIVER AT O'LENO STATE PARK FLA,29.9266,-82.5596,3110206.0,EST,219,cfs,2022-08-14 18:15:00,37.49,ft,2022-08-14 18:15:00,1.0,0.46,0.01,0.03,2321898.0,O&#039;leno State Park (in NAVD88),at,Santa Fe River,olpf1,River Stage/Flow Location,2321898.0,29.926565,82.559647,jax,serfc,fl,23.0,South Atlantic-Gulf Region,EST,No,0.81,42.0,43.0,52.0,56.0,FT,,https://water.weather.gov/ahps2/hydrograph.php?wfo=jax&gage=olpf1,hgirg,Yes,W,36 Feet,High Water,No,No,Yes,US Geological Survey,Yes,No,,,,NGVD29,0.0,0,0.81,,,2321958.0,-0.33,Santa Fe River,jam
1327,2226500.0,"SATILLA RIVER NEAR WAYCROSS, GA",31.2384,-82.3228,3070201.0,EST,268,cfs,2022-08-14 18:45:00,7.15,ft,2022-08-14 18:45:00,3.0,1.13,0.02,0.28,2226500.0,Waycross,near,Satilla River,aysg1,River Stage/Flow Location,2226500.0,31.238056,82.324722,jax,serfc,ga,299.0,South Atlantic-Gulf Region,EST,No,,14.0,16.0,18.0,20.0,FT,,https://water.weather.gov/ahps2/hydrograph.php?wfo=jax&gage=aysg1,hgirg,Yes,W,4 Feet,Year-round,No,No,Yes,US Geological Survey,Yes,Yes,Yes,Yes,Yes,NAD27,65.5,65.5,,,,2228000.0,-0.26,Satilla River,jam
1208,2196670.0,"SAVANNAH RIVER JEFFERSON DAVIS BR, AT AUGUSTA, GA",33.4793,-81.9634,3060106.0,EST,4150,cfs,2022-08-14 18:30:00,13.69,ft,2022-08-14 18:30:00,70.0,1.72,0.19,1.41,2196670.0,Savannah River Jefferson Davis Bridge at Augusta,at,Savannah River,srag1,River Stage/Flow Location,2196670.0,33.4767,81.9572,cae,serfc,ga,245.0,South Atlantic-Gulf Region,EST,No,,0.0,0.0,0.0,0.0,FT,,https://water.weather.gov/ahps2/hydrograph.php?wfo=cae&gage=srag1,,Yes,W,-9999 Feet,No routine,No,No,Yes,US Geological Survey,No,No,,,,NAVD88,100.0,100,,,,2197000.0,-0.19,Savannah River,jam
417,1472000.0,"Schuylkill River at Pottstown, PA",40.2418,-75.6516,2040203.0,EST,548,cfs,2022-08-14 18:15:00,1.47,ft,2022-08-14 18:15:00,7.0,1.29,0.01,0.68,1472000.0,Pottstown,at,Schuylkill River,ptnp1,River Stage/Flow Location,1472000.0,40.241667,75.651944,phi,marfc,pa,0.0,Mid Atlantic Region,EST,No,117.86 ft,11.0,12.5,18.0,22.0,FT,,https://water.weather.gov/ahps2/hydrograph.php?wfo=phi&gage=ptnp1,hgirg,Yes,W,0 Feet,Year-round,No,No,Yes,US Geological Survey,Yes,Yes,Yes,No,Yes,NGVD 1929,117.86,,117.86 ft,,,1473500.0,-0.51,Schuylkill River,jam
2211,3229610.0,Scioto River near Commercial Point OH,39.7742,-83.0077,5060001.0,EST,649,cfs,2022-08-14 18:15:00,8.91,ft,2022-08-14 18:15:00,11.0,1.72,0.02,0.22,3229610.0,Commercial Point,near,Scioto River,cmmo1,River Stage/Flow Location,3229610.0,39.774167,83.007778,iln,ohrfc,oh,129.0,Ohio Region,EST,No,,21.0,0.0,0.0,0.0,FT,,https://water.weather.gov/ahps2/hydrograph.php?wfo=iln&gage=cmmo1,hgirg,Yes,W,-9999 Feet,No routine,No,No,Yes,US Geological Survey,No,No,,,,NGVD 1929,,,,,,3230700.0,-1.09,Scioto River,jam
3075,4232730.0,SENECA RIVER NEAR SENECA FALLS NY,42.9389,-76.7611,4140201.0,EST,340,cfs,2022-08-14 17:45:00,5.32,ft,2022-08-14 17:45:00,-170.0,-33.33,0.09,1.72,4232730.0,Seneca Falls,near,Seneca River,sefn6,River Stage/Flow Location,4232730.0,42.938889,76.761389,bgm,nerfc,ny,99.0,Great Lakes Region,EST,No,376.81,0.0,0.0,0.0,0.0,FT,,https://water.weather.gov/ahps2/hydrograph.php?wfo=bgm&gage=sefn6,hgirg,Yes,W,-9999 Feet,Data Point,No,No,Yes,US Geological Survey,Yes,No,,,,NAVD88,376.25,376.25,376.81,,,4235600.0,-0.84,Seneca River,jam
3195,5056770.0,"SHEYENNE RIVER AT CO RD 20 NR. KLOTEN, ND",47.6868,-98.1304,9020203.0,CST,172,cfs,2022-08-14 17:00:00,31.68,ft,2022-08-14 17:00:00,2.0,1.18,0.01,0.03,5056770.0,McVille,near,Sheyenne River,mvcn8,River Stage/Flow Location,5056770.0,47.686944,98.130278,fgf,ncrfc,nd,63.0,Souris-Red-Rainy Region,CST,No,,0.0,0.0,0.0,0.0,FT,,https://water.weather.gov/ahps2/hydrograph.php?wfo=fgf&gage=mvcn8,hgirg,Yes,W,-9999 Feet,Data Point,No,No,Yes,US Geological Survey,No,No,,,,NAVD88,1325.0,1325.00 ft,,,,5058500.0,-0.44,Sheyenne River,jam
6410,13022500.0,"SNAKE RIVER ABOVE RESERVOIR, NEAR ALPINE, WY",43.1961,-110.889,17040103.0,MST,4060,cfs,2022-08-14 16:30:00,4.41,ft,2022-08-14 16:30:00,20.0,0.5,0.01,0.23,13022500.0,Alpine,near,Snake River,alpw4,River Stage/Flow Location,13022500.0,43.19625,110.88944,riw,nwrfc,wy,23.0,Pacific Northwest Region,MST,No,,0.0,0.0,0.0,0.0,FT,,https://water.weather.gov/ahps2/hydrograph.php?wfo=riw&gage=alpw4,hgirg,Yes,W,-9999 Feet,Year-round,No,No,Yes,US Geological Survey,No,Yes,Yes,Yes,Yes,NAVD 1988,5717.0,5717,,,,13032500.0,-0.37,Snake River,jam
6431,13057000.0,SNAKE RIVER NR MENAN ID,43.7528,-111.979,17040201.0,MST,7100,cfs,2022-08-14 16:30:00,4.38,ft,2022-08-14 16:30:00,30.0,0.42,0.01,0.23,13057000.0,Menan,near,Snake River,meni1,River Stage/Flow Location,13057000.0,43.752639,111.979294,pih,nwrfc,id,51.0,Pacific Northwest Region,MST,No,,7.8,8.5,0.0,0.0,FT,,https://water.weather.gov/ahps2/hydrograph.php?wfo=pih&gage=meni1,hgirg,Yes,W,-9999 Feet,Data Point,Yes,No,Yes,IDWR-Water District 1,Yes,No,,,,NGVD29,4800.0,,,,,13057155.0,-0.13,Snake River,jam
6436,13060000.0,SNAKE RIVER NR SHELLEY ID,43.4131,-112.135,17040206.0,MST,5990,cfs,2022-08-14 16:15:00,6.92,ft,2022-08-14 16:15:00,30.0,0.5,0.01,0.14,13060000.0,Shelley,near,Snake River,shyi1,River Stage/Flow Location,13060000.0,43.413125,112.1349,pih,nwrfc,id,11.0,Pacific Northwest Region,MST,No,4599.0 ft,12.0,12.5,13.0,13.5,FT,,https://water.weather.gov/ahps2/hydrograph.php?wfo=pih&gage=shyi1,hgirg,Yes,W,-9999 Feet,Year-round,No,No,Yes,US Geological Survey,No,No,,,,NGVD29,4599.0,,4599.0 ft,,,13062500.0,-0.18,Snake River,jam
6441,13069500.0,SNAKE RIVER NR BLACKFOOT ID,43.1253,-112.519,17040206.0,MST,3170,cfs,2022-08-14 16:15:00,3.69,ft,2022-08-14 16:15:00,20.0,0.63,0.01,0.27,13069500.0,Blackfoot (Tilden Bridge-Ft. Hall),near,Snake River,bfti1,River Stage/Flow Location,13069500.0,43.125278,112.518889,pih,nwrfc,id,11.0,Pacific Northwest Region,MST,No,,10.2,11.0,0.0,0.0,FT,,https://water.weather.gov/ahps2/hydrograph.php?wfo=pih&gage=bfti1,hgirg,Yes,W,-9999 Feet,Year-round,Yes,No,Yes,US Geological Survey,No,No,,,,NGVD29,4400.83,,,,4399.83 ft,13094000.0,-0.67,Snake River,jam
6531,13290450.0,SNAKE RIVER AT HELLS CANYON DAM ID-OR STATE LINE,45.2544,-116.697,17060101.0,PST,13700,cfs,2022-08-14 15:30:00,65.3,ft,2022-08-14 15:30:00,2200.0,19.13,0.77,1.19,13290450.0,Hells Canyon,at,Snake River,hcdi1,River Stage/Flow Location,13290450.0,45.254444,116.696944,boi,nwrfc,id,0.0,Pacific Northwest Region,MST,No,,0.0,0.0,0.0,0.0,FT,,https://water.weather.gov/ahps2/hydrograph.php?wfo=boi&gage=hcdi1,hgirg,Yes,W,-9999 Feet,Year-round,No,No,No,US Geological Survey,No,Yes,Yes,Yes,Yes,,1435.0,,,,1400 ft,13317660.0,-0.61,Snake River,jam
702,1605500.0,"SOUTH BRANCH POTOMAC RIVER AT FRANKLIN, WV",38.6357,-79.3378,2070001.0,EST,48.3,cfs,2022-08-14 18:50:00,1.74,ft,2022-08-14 18:50:00,13.6,39.19,0.1,6.1,1605500.0,Franklin,at,South Branch Potomac River,fklw2,River Stage/Flow Location,1605500.0,38.635556,79.338056,lwx,marfc,wv,71.0,Mid Atlantic Region,EST,No,1692.5 ft,6.0,7.0,9.0,11.0,FT,,https://water.weather.gov/ahps2/hydrograph.php?wfo=lwx&gage=fklw2,hgirg,Yes,W,-9999 Feet,Year-round,No,No,Yes,US Geological Survey,Yes,Yes,Yes,Yes,Yes,NAVD88,1692.1,,1692.5 ft,,,1606500.0,-0.27,South Branch Potomac River,jam
2627,3437495.0,"S FK LITTLE R AT HWY 68 BY-PASS AT HOPKINSVILLE,KY",36.8495,-87.4289,5130205.0,CST,1.83,cfs,2022-08-14 17:30:00,5.58,ft,2022-08-14 17:30:00,0.08,4.57,0.01,0.18,3437495.0,Hopkinsville - Bypass,at,South Fork Little River,hlbk2,River Stage/Flow Location,3437495.0,36.849444,87.428889,pah,ohrfc,ky,47.0,Ohio Region,CST,Yes,,16.0,18.0,19.0,20.0,FT,,https://water.weather.gov/ahps2/hydrograph.php?wfo=pah&gage=hlbk2,hgirg,Yes,W,0 Feet,High Water,No,No,Yes,US Geological Survey,Yes,No,,,,NAVD88,520.0,520.0 ft,,,,3437500.0,-0.47,South Fork Little River,jam
3718,5576000.0,"SOUTH FORK SANGAMON RIVER NEAR ROCHESTER, IL",39.7423,-89.5673,7130007.0,CST,641,cfs,2022-08-14 16:45:00,11.57,ft,2022-08-14 16:45:00,33.0,5.43,0.19,1.67,5576000.0,Rochester,near,South Fork Sangamon River,roci2,Stage/Flow and Precipitation Location,5576000.0,39.742273,89.567317,ilx,ncrfc,il,167.0,Upper Mississippi Region,CST,No,,0.0,0.0,0.0,0.0,FT,,https://water.weather.gov/ahps2/hydrograph.php?wfo=ilx&gage=roci2,hgirg,Yes,W,-9999 Feet,Data Point,No,No,Yes,US Geological Survey,Yes,No,,,,NGVD29,511.3,,511.30 ft,,,5576022.0,-0.09,South Fork Sangamon River,jam
741,1626850.0,"SOUTH RIVER NEAR DOOMS, VA",38.0887,-78.877,2070005.0,EST,61,cfs,2022-08-14 18:45:00,2.33,ft,2022-08-14 18:45:00,1.6,2.69,0.01,0.43,1626850.0,Dooms,near,South River,doov2,River Stage/Flow Location,1626850.0,38.088611,78.877222,lwx,marfc,va,0.0,Mid Atlantic Region,EST,No,,9.0,11.0,13.0,15.0,FT,,https://water.weather.gov/ahps2/hydrograph.php?wfo=lwx&gage=doov2,hgirg,Yes,W,-9999 Feet,Data Point,No,No,Yes,US Geological Survey,Yes,No,,,,NGVD29,1247.04,,,,,2203655.0,-0.33,South River,jam
1243,2204070.0,"SOUTH RIVER AT KLONDIKE ROAD, NEAR LITHONIA, GA",33.6301,-84.1285,3070103.0,EST,125,cfs,2022-08-14 18:45:00,5.15,ft,2022-08-14 18:45:00,3.0,2.46,0.01,0.19,2204070.0,Klondike Road near Lithonia,at,South River,soug1,Stage/Flow and Precipitation Location,2204070.0,33.629722,84.128611,ffc,serfc,ga,89.0,South Atlantic-Gulf Region,EST,No,,10.0,12.0,17.0,21.0,FT,,https://water.weather.gov/ahps2/hydrograph.php?wfo=ffc&gage=soug1,hgirg,Yes,W,-9999 Feet,Data Point,No,No,Yes,US Geological Survey,Yes,Yes,Yes,Yes,Yes,NAVD88,660.7,660.7 ft,,,,2204520.0,-0.14,South River,jam
6497,13171500.0,CJ STRIKE RES NR GRAND VIEW ID,42.9436,-115.975,17050101.0,MST,0,,0000-00-00 00:00:00,54.83,ft,2022-08-14 16:15:00,,,0.02,0.04,13171500.0,C J Strike Reservoir,at,Southwest Idaho Reservoirs,cjsi1,River Stage/Flow Location,13171500.0,42.943611,115.975,boi,nwrfc,id,73.0,Pacific Northwest Region,MST,No,,0.0,0.0,0.0,0.0,FT,,https://water.weather.gov/ahps2/hydrograph.php?wfo=boi&gage=cjsi1,hpirg,Yes,W,0 Feet,No routine,No,No,No,US Geological Survey,No,No,,,,USGS,,,,,,13190500.0,-0.22,Southwest Idaho Reservoirs,jam
552,1546500.0,"Spring Creek near Axemann, PA",40.8898,-77.7942,2050204.0,EST,55,cfs,2022-08-14 18:45:00,2.2,ft,2022-08-14 18:45:00,1.4,2.61,0.01,0.46,1546500.0,Axemann,near,Spring Creek,axep1,River Stage/Flow Location,1546500.0,40.889722,77.794444,ctp,marfc,pa,27.0,Mid Atlantic Region,EST,No,,0.0,0.0,0.0,0.0,FT,,https://water.weather.gov/ahps2/hydrograph.php?wfo=ctp&gage=axep1,hgirg,Yes,W,,Data Point,No,No,Yes,US Geological Survey,Yes,No,,,,,788.81,,,,,2356638.0,-1.02,Spring Creek,jam
4575,7069305.0,"Spring River at Spring Street Bridge at Hardy, AR",36.3136,-91.4828,11010010.0,CST,577,cfs,2022-08-14 17:45:00,3.21,ft,2022-08-14 17:45:00,9.0,1.58,0.01,0.31,7069305.0,Hardy,at,Spring River (AR),hdya4,River Stage/Flow Location,7069305.0,36.313611,91.482778,lzk,lmrfc,ar,,Arkansas-White-Red Region,CST,No,,8.0,10.0,14.0,16.0,FT,,https://water.weather.gov/ahps2/hydrograph.php?wfo=lzk&gage=hdya4,hgirg,Yes,W,,Year-round,No,No,No,US Geological Survey,Yes,Yes,Yes,Yes,Yes,,340.91,,,,,7069500.0,-0.57,Spring River (AR),jam
16,1021000.0,"St. Croix River at Baring, Maine",45.1369,-67.3181,1050001.0,EST,977,cfs,2022-08-14 18:45:00,4.78,ft,2022-08-14 18:45:00,8.0,0.83,0.01,0.21,1021000.0,Baring,above,St. Croix River,barm1,River Stage/Flow Location,1021000.0,45.136944,67.318056,car,nerfc,me,29.0,New England Region,EST,No,,10.1,0.0,0.0,0.0,FT,,https://water.weather.gov/ahps2/hydrograph.php?wfo=car&gage=barm1,hgirg,Yes,W,-9999 Feet,No routine,No,No,Yes,US Geological Survey,No,No,,,,NAVD88,65.72,65.72,,,,1021060.0,-2072.73,St. Croix River,jam
1344,2234435.0,"LAKE JESUP OUTLET NEAR SANFORD, FL",28.7842,-81.1812,3080101.0,EST,951,cfs,2022-08-14 18:30:00,0.92,ft,2022-08-14 18:30:00,975.9,-3919.28,0.1,12.2,2234435.0,Lake Jesup Outlet near Sanford,at,St. Johns River,lkjf1,River Stage/Flow Location,2234435.0,28.785833,81.180556,mlb,serfc,fl,,South Atlantic-Gulf Region,EST,No,,0.0,0.0,0.0,0.0,FT,,https://water.weather.gov/ahps2/hydrograph.php?wfo=mlb&gage=lkjf1,hgirg,Yes,W,,Data Point,No,No,Yes,US Geological Survey,No,No,,,,,,,,,,2234500.0,-6.33,St. Johns River,jam
1357,2244040.0,"ST. JOHNS R AT BUFFALO BLUFF NEAR SATSUMA, FL",29.5964,-81.6831,3080103.0,EST,-21300,cfs,2022-08-14 18:15:00,11.63,ft,2022-08-14 18:15:00,-2800.0,15.14,0.05,0.43,2244040.0,Buffalo Bluff (in MHHW),at,St. Johns River,palf1,River Stage/Flow Location,2244040.0,29.596111,81.683333,jax,serfc,fl,107.0,South Atlantic-Gulf Region,EST,No,,1.0,1.5,2.0,3.0,FT,,https://water.weather.gov/ahps2/hydrograph.php?wfo=jax&gage=palf1,hgirg,Yes,W,-2.2 Feet,Data Point,No,No,Yes,US Geological Survey,Yes,No,,,,,0.0,0.62,,,,2245290.0,-13.68,St. Johns River,jam
2940,4177080.0,"E BR ST JOSEPH R AT TERRITORIAL RD NR WALDRON, MI",41.7095,-84.4908,4100003.0,EST,52.5,cfs,2022-08-14 17:00:00,4.07,ft,2022-08-14 17:00:00,1.3,2.54,0.03,0.74,4177080.0,Territorial Road near Waldron MI,at,St. Joseph River (OH/IN),joem4,River Stage/Flow Location,4177080.0,41.709495,84.490782,iwx,ohrfc,mi,59.0,Great Lakes Region,EST,No,,0.0,0.0,0.0,0.0,FT,,https://water.weather.gov/ahps2/hydrograph.php?wfo=iwx&gage=joem4,hgirz,Yes,W,-9999 Feet,Data Point,No,No,Yes,USGS (04177080),Yes,No,,,,NAVD88,868.63,868.63,,,,4180500.0,-0.38,St. Joseph River (OH/IN),jam
803,1661500.0,"ST MARYS RIVER AT GREAT MILLS, MD",38.2417,-76.5037,2070011.0,EST,7.91,cfs,2022-08-14 18:15:00,1.5,ft,2022-08-14 18:15:00,2.09,35.91,0.05,3.45,1661500.0,Great Mills,at,St. Marys River,gmrm2,River Stage/Flow Location,1661500.0,38.241667,76.503611,lwx,marfc,md,0.0,Mid Atlantic Region,EST,No,,5.0,6.0,8.0,10.0,FT,,https://water.weather.gov/ahps2/hydrograph.php?wfo=lwx&gage=gmrm2,hgirg,Yes,W,-9999 Feet,Data Point,No,No,Yes,US Geological Survey,Yes,No,,,,NAVD88,6.86,,,,,2228500.0,-0.17,St. Marys River,jam
1335,2231175.0,"ST MARYS RIVER AT FERRY LANDING NEAR FOLKSTON, GA",30.7831,-82.0242,3070204.0,EST,***,cfs,2022-04-01 00:45:00,2.18,ft,2022-08-14 18:15:00,,,0.08,3.81,2231175.0,Traders Hill,at,St. Marys River,smtg1,River Stage/Flow Location,2231175.0,30.783056,82.024167,jax,serfc,ga,49.0,South Atlantic-Gulf Region,EST,No,,5.0,7.0,12.0,16.0,FT,,https://water.weather.gov/ahps2/hydrograph.php?wfo=jax&gage=smtg1,hgirg,Yes,W,-0.5 Feet,Data Point,No,No,Yes,US Geological Survey,Yes,No,,,,,,,,,,2231254.0,-412.0,St. Marys River,jam
1086,2146330.0,"SUGAR CREEK AT ARROWOOD ROAD NEAR CHARLOTTE, NC",35.1397,-80.9111,3050103.0,EST,0,,0000-00-00 00:00:00,0.63,ft,2022-08-14 18:55:00,,,0.02,3.28,2146330.0,Arrowood Rd,at,Sugar Creek NC,awrn7,River Stage/Flow Location,2146330.0,35.139722,80.911111,gsp,serfc,nc,119.0,South Atlantic-Gulf Region,EST,No,,13.0,14.0,15.0,16.0,FT,,https://water.weather.gov/ahps2/hydrograph.php?wfo=gsp&gage=awrn7,hgirr,Yes,W,-9999 Feet,Data Point,No,No,No,US Geological Survey,Yes,No,,,,,560.05,,,,,2146381.0,-1.1,Sugar Creek NC,jam
3813,6085800.0,Sun River at Simms MT,47.5016,-111.932,10030104.0,MST,163,cfs,2022-08-14 16:30:00,2.6,ft,2022-08-14 16:30:00,15.0,10.14,0.03,1.17,6085800.0,Simms,near,Sun River,ssrm8,River Stage/Flow Location,6085800.0,47.501628,111.931914,tfx,mbrfc,mt,13.0,Missouri Region,MST,No,,6.0,7.5,8.5,10.5,FT,,https://water.weather.gov/ahps2/hydrograph.php?wfo=tfx&gage=ssrm8,hgirg,Yes,W,-9999 Feet,High Water,Yes,No,Yes,US Geological Survey,Yes,Yes,Yes,Yes,Yes,NAVD88,3570.0,,,,3570 ft,6089000.0,-0.78,Sun River,jam
466,1500500.0,SUSQUEHANNA RIVER AT UNADILLA NY,42.3215,-75.3164,2050101.0,EST,115,cfs,2022-08-14 17:00:00,2.24,ft,2022-08-14 17:00:00,3.0,2.68,0.01,0.45,1500500.0,Unadilla,at,Susquehanna River,undn6,River Stage/Flow Location,1500500.0,42.321389,75.316944,bgm,marfc,ny,0.0,Mid Atlantic Region,EST,Yes,997.25 ft,9.0,11.0,13.0,14.5,FT,,https://water.weather.gov/ahps2/hydrograph.php?wfo=bgm&gage=undn6,hgirg,Yes,W,-9999 Feet,Year-round,No,No,Yes,US Geological Survey,Yes,Yes,Yes,No,Yes,NAVD88,996.85,996.85 ft,997.25 ft,,,1502632.0,-1.05,Susquehanna River,jam
513,1531500.0,"Susquehanna River at Towanda, PA",41.7654,-76.4408,2050106.0,EST,940,cfs,2022-08-14 18:45:00,-0.11,ft,2022-08-14 18:45:00,-17.0,-1.78,-0.01,10.0,1531500.0,Towanda,at,Susquehanna River,towp1,River Stage/Flow Location,1531500.0,41.765278,76.441111,bgm,marfc,pa,15.0,Mid Atlantic Region,EST,No,694.38 ft,14.0,16.0,18.0,25.1,FT,,https://water.weather.gov/ahps2/hydrograph.php?wfo=bgm&gage=towp1,hgirg,Yes,W,-9999 Feet,Year-round,No,No,Yes,US Geological Survey,Yes,Yes,Yes,Yes,Yes,NGVD29,694.38,693.72 ft,694.38 ft,,,1576000.0,-0.12,Susquehanna River,jam
1446,2323566.0,MANATEE SPRING NR CHIEFLAND FLA,29.4897,-82.9768,3110205.0,EST,151,cfs,2022-08-14 18:15:00,3,ft,2022-08-14 18:30:00,-3.0,-1.95,0.12,4.17,2323566.0,Manatee Springs - Source (in NAVD88),at,Suwannee River,mspf1,River Stage/Flow Location,2323566.0,29.49,82.976944,tae,serfc,fl,29.0,South Atlantic-Gulf Region,EST,No,0,5.0,7.0,10.0,12.5,FT,,https://water.weather.gov/ahps2/hydrograph.php?wfo=tae&gage=mspf1,hgirg,Yes,W,1 Feet,Data Point,No,No,Yes,US Geological Survey,Yes,No,,,,NAVD88,0.0,,0,,,2323592.0,-9.45,Suwannee River,jam
1753,2473500.0,"TALLAHALA CREEK AT LAUREL, MS",31.6808,-89.1156,3170005.0,CST,113,cfs,2022-08-14 17:45:00,1.47,ft,2022-08-14 17:45:00,4.0,3.67,0.05,3.52,2473500.0,Laurel,at,Tallahala Creek,lurm6,River Stage/Flow Location,2473500.0,31.6808,89.1155,jan,lmrfc,ms,67.0,South Atlantic-Gulf Region,CST,No,201.37 ft,12.0,13.0,16.5,19.0,FT,,https://water.weather.gov/ahps2/hydrograph.php?wfo=jan&gage=lurm6,hgirg,Yes,W,-9999 Feet,Year-round,No,No,Yes,U.S. Geological Survey,Yes,Yes,Yes,Yes,Yes,NGVD 1929,201.37,,201.37 ft,,,2474500.0,-0.75,Tallahala Creek,jam
2420,3330500.0,"TIPPECANOE RIVER AT OSWEGO, IN",41.3206,-85.7892,5120106.0,EST,62.4,cfs,2022-08-14 17:45:00,5.72,ft,2022-08-14 17:45:00,0.8,1.3,0.01,0.18,3330500.0,Oswego,at,Tippecanoe River,owgi3,River Stage/Flow Location,3330500.0,41.320556,85.789167,iwx,ohrfc,in,85.0,Ohio Region,EST,No,,7.0,7.5,8.0,9.0,FT,,https://water.weather.gov/ahps2/hydrograph.php?wfo=iwx&gage=owgi3,hgirg,Yes,W,-9999 Feet,Data Point,No,No,Yes,the USGS (03330500),Yes,No,,,,NAVD88,829.59,829.59,,,,3331500.0,-0.16,Tippecanoe River,jam
1714,2433500.0,"TOMBIGBEE RIVER AT BIGBEE, MS",34.0114,-88.5136,3160101.0,CST,232,cfs,2022-08-14 17:30:00,3.57,ft,2022-08-14 17:30:00,19.0,8.92,0.09,2.59,2433500.0,Bigbee,at,Tombigbee River,bgbm6,River Stage/Flow Location,2433500.0,34.011389,88.513611,meg,serfc,ms,,South Atlantic-Gulf Region,CST,No,190 ft,13.0,14.0,23.0,26.0,FT,,https://water.weather.gov/ahps2/hydrograph.php?wfo=meg&gage=bgbm6,hgirg,Yes,W,,Year-round,No,No,Yes,US Geological Survey,No,Yes,Yes,No,Yes,NGVD 1929,190.0,,190 ft,,,2437000.0,-0.17,Tombigbee River,jam
1722,2447025.0,"TOMBIGBEE R AT HEFLIN L&D NR GAINESVILLE, AL",32.8482,-88.1561,3160106.0,CST,1290,cfs,2022-08-14 17:45:00,109.39,ft,2022-08-14 17:45:00,10.0,0.78,0.01,0.01,2447025.0,Gainesville Lock and Dam,at,Tombigbee River,gnsa1,River Stage/Flow Location,2447025.0,32.852222,88.154167,bmx,serfc,al,0.0,South Atlantic-Gulf Region,CST,No,,101.0,101.0,110.0,118.0,FT,,https://water.weather.gov/ahps2/hydrograph.php?wfo=bmx&gage=gnsa1,htirg,Yes,W,-9999 Feet,Year-round,No,No,Yes,US Geological Survey,Yes,Yes,Yes,No,Yes,NGVD 1929,0.0,,,,0 ft,2467000.0,-0.04,Tombigbee River,jam
5141,8062500.0,"Trinity Rv nr Rosser, TX",32.4265,-96.463,12030105.0,CST,698,cfs,2022-08-14 17:30:00,3.12,ft,2022-08-14 17:30:00,31.0,4.65,0.04,1.3,8062500.0,Rosser,near,Trinity River,rsrt2,River Stage/Flow Location,8062500.0,32.426389,96.462778,fwd,wgrfc,tx,0.0,Texas-Gulf Region,CST,No,297.65 ft,20.0,31.0,36.0,38.0,FT,,https://water.weather.gov/ahps2/hydrograph.php?wfo=fwd&gage=rsrt2,hgirg,Yes,W,-9999 Feet,High Water,No,No,Yes,US Geological Survey,Yes,Yes,Yes,No,Yes,USGS NAD 1929,297.65,,297.65 ft,,,8062700.0,-0.5,Trinity River,jam
5155,8066190.0,"Livingston Res nr Goodrich, TX",30.6335,-95.0102,12030202.0,CST,0,,0000-00-00 00:00:00,128.91,ft,2022-08-14 17:15:00,,,0.01,0.01,8066190.0,Lake Livingston,at,Trinity River,lvdt2,River Stage/Flow Location,8066190.0,30.633333,95.01,hgx,wgrfc,tx,373.0,Texas-Gulf Region,CST,No,,0.0,0.0,0.0,0.0,FT,,https://water.weather.gov/ahps2/hydrograph.php?wfo=hgx&gage=lvdt2,hpirg,Yes,W,-9999 Feet,Data Point,No,No,Yes,US Geological Survey,Yes,No,,,,,0.0,,,,,8066250.0,-0.22,Trinity River,jam
2181,3213700.0,"TUG FORK AT WILLIAMSON, WV",37.6732,-82.2801,5070201.0,EST,756,cfs,2022-08-14 18:00:00,4.32,ft,2022-08-14 18:00:00,12.0,1.61,0.03,0.7,3213700.0,Williamson,at,Tug Fork River,wilw2,River Stage/Flow Location,3213700.0,37.673056,82.280278,rlx,ohrfc,wv,59.0,Ohio Region,EST,No,620.52,25.0,27.0,32.0,42.7,FT,,https://water.weather.gov/ahps2/hydrograph.php?wfo=rlx&gage=wilw2,hgirg,Yes,W,-9999 Feet,Year-round,No,No,Yes,US Geological Survey,Yes,Yes,Yes,Yes,Yes,NAVD88,619.68,619.68,620.52,,620.9,3214500.0,-0.2,Tug Fork River,jam
1906,3050500.0,"TYGART VALLEY RIVER NEAR ELKINS, WV",38.9237,-79.879,5020001.0,EST,0,,0000-00-00 00:00:00,3.25,ft,2022-08-14 18:30:00,,,0.01,0.31,3050500.0,Elkins,at,Tygart Valley River,elkw2,River Stage/Flow Location,3050500.0,38.923611,79.879167,rlx,ohrfc,wv,83.0,Ohio Region,EST,No,,15.0,17.0,0.0,0.0,FT,,https://water.weather.gov/ahps2/hydrograph.php?wfo=rlx&gage=elkw2,hgirg,Yes,W,-9999 Feet,Data Point,No,No,Yes,US Geological Survey,Yes,No,,,,NAVD88,1894.35,1894.35,,1893.95,,3051000.0,-0.26,Tygart Valley River,jam
4670,7166500.0,"VERDIGRIS R NR ALTOONA, KS",37.5298,-95.6747,11070101.0,CST,7.73,cfs,2022-08-14 17:45:00,3.11,ft,2022-08-14 17:45:00,0.59,8.26,0.01,0.32,7166500.0,Altoona,at,Verdigris River,atok1,River Stage/Flow Location,7166500.0,37.52977,95.6744,ict,abrfc,ks,205.0,Arkansas-White-Red Region,CST,No,,15.0,19.0,21.0,26.0,FT,,https://water.weather.gov/ahps2/hydrograph.php?wfo=ict&gage=atok1,hgirg,Yes,W,-9999 Feet,High Water,No,No,Yes,US Geological Survey,No,Yes,Yes,Yes,Yes,NAVD88,796.65,796.650 ft,,,,7170500.0,-0.81,Verdigris River,jam
2399,3322900.0,"WABASH RIVER AT LINN GROVE, IN",40.6439,-85.0309,5120101.0,EST,32.3,cfs,2022-08-14 17:45:00,4.35,ft,2022-08-14 17:45:00,1.1,3.53,0.01,0.23,3322900.0,Linn Grove,at,Wabash River,lyni3,River Stage/Flow Location,3322900.0,40.643889,85.030889,iwx,ohrfc,in,1.0,Ohio Region,EST,No,,9.0,11.0,14.0,17.0,FT,,https://water.weather.gov/ahps2/hydrograph.php?wfo=iwx&gage=lyni3,hgirg,Yes,W,-9999 Feet,High Water,No,No,Yes,the USGS (03322900),Yes,Yes,Yes,Yes,Yes,NAVD88,807.34,807.34,,,,3323500.0,-0.11,Wabash River,jam
2436,3336000.0,"WABASH RIVER AT COVINGTON, IN",40.14,-87.4067,5120108.0,EST,2160,cfs,2022-08-14 17:45:00,5.13,ft,2022-08-14 17:45:00,20.0,0.93,0.03,0.59,3336000.0,Covington,at,Wabash River,cvgi3,River Stage/Flow Location,3336000.0,40.14,87.406667,ind,ohrfc,in,45.0,Ohio Region,EST,No,473.97 ft,11.0,16.0,24.0,29.0,FT,,https://water.weather.gov/ahps2/hydrograph.php?wfo=ind&gage=cvgi3,hgir2,Yes,W,1.04 KCFS,High Water,No,No,Yes,US Geological Survey,Yes,Yes,Yes,Yes,Yes,NAVD88,473.69,473.69 ft,473.97 ft,,,3340500.0,-0.24,Wabash River,jam
2455,3342000.0,"WABASH RIVER AT RIVERTON, IN",39.0203,-87.5686,5120111.0,EST,3570,cfs,2022-08-14 17:00:00,3.75,ft,2022-08-14 17:00:00,40.0,1.13,0.03,0.81,3342000.0,Riverton,at,Wabash River,rvti3,River Stage/Flow Location,3342000.0,39.020278,87.568611,ind,ohrfc,in,153.0,Ohio Region,EST,No,414.65 ft,10.0,15.0,22.0,26.0,FT,,https://water.weather.gov/ahps2/hydrograph.php?wfo=ind&gage=rvti3,hgirg,Yes,W,1.56 KCFS,Year-round,No,No,Yes,US Geological Survey,Yes,Yes,Yes,Yes,Yes,NGVD29,414.65,,414.65 ft,,,3377500.0,-0.42,Wabash River,jam
1011,2110704.0,"WACCAMAW RIVER AT CONWAY MARINA AT CONWAY, SC",33.8329,-79.0436,3040206.0,EST,-731,cfs,2022-08-14 18:15:00,8.05,ft,2022-08-14 18:15:00,162.0,-18.14,0.07,0.88,2110704.0,Conway,near,Waccamaw River,cnws1,River Stage/Flow Location,2110704.0,33.832778,79.044167,ilm,serfc,sc,0.0,South Atlantic-Gulf Region,EST,No,-5.06 ft,10.0,11.0,12.0,14.0,FT,,https://water.weather.gov/ahps2/hydrograph.php?wfo=ilm&gage=cnws1,hgirg,Yes,W,-9999 Feet,Year-round,No,No,Yes,US Geological Survey,No,Yes,Yes,No,Yes,,-5.06,,-5.06 ft,,,2110802.0,-1.84,Waccamaw River,jam
5893,10301115.0,"WALKER RVR BLW YERINGTON WEIR NR YERINGTON, NV",39.0204,-119.156,16050303.0,PST,39.4,cfs,2022-08-14 15:50:00,1.98,ft,2022-08-14 15:50:00,0.8,2.07,0.01,0.51,10301115.0,Yerington Weir near Yerington,below,Walker River,wryn2,River Stage/Flow Location,10301115.0,39.0203,119.1558,rev,cnrfc,nv,19.0,Great Basin Region,PST,No,,0.0,0.0,0.0,0.0,FT,,https://water.weather.gov/ahps2/hydrograph.php?wfo=rev&gage=wryn2,hgirg,Yes,W,0 Feet,No routine,No,No,Yes,US Geological Survey,No,No,,,,NAVD88,4390.0,,,,,10301120.0,-0.15,Walker River,jam
6917,21720698.0,"WANDO RIVER ABOVE MT PLEASANT, SC",32.8591,-79.8962,3050201.0,EST,-35800,cfs,2022-08-14 18:15:00,16.45,ft,2022-08-14 18:15:00,-79800.0,-181.36,0.76,4.84,21720698.0,Mount Pleasant (IN MLLW),above,Wando River,wris1,River Stage/Flow Location,21720698.0,32.858889,79.896389,chs,serfc,sc,19.0,South Atlantic-Gulf Region,EST,No,-2.241,0.0,0.0,0.0,0.0,FT,,https://water.weather.gov/ahps2/hydrograph.php?wfo=chs&gage=wris1,hgirg,Yes,W,-9999 Feet,Data Point,No,No,Yes,US Geological Survey,Yes,No,,,,MLLW,0.0,-3.223,-2.241,-3.104,-6.093,217206962.0,-0.72,Wando River,jam
5850,10136500.0,"WEBER RIVER AT GATEWAY, UT",41.1369,-111.832,16020102.0,MST,348,cfs,2022-08-14 16:30:00,12.99,ft,2022-08-14 16:30:00,5.0,1.46,0.01,0.08,10136500.0,Gateway,near,Weber River,gatu1,River Stage/Flow Location,10136500.0,41.136888,111.832438,slc,cbrfc,ut,29.0,Great Basin Region,MST,No,,16.0,17.0,18.0,19.0,FT,,https://water.weather.gov/ahps2/hydrograph.php?wfo=slc&gage=gatu1,hgirg,Yes,W,-9999 Feet,Year-round,No,No,Yes,US Geological Survey,No,Yes,Yes,No,Yes,NAVD88,4794.09,4794.09,,,,10141000.0,-0.09,Weber River,jam
3661,5540095.0,"WEST BRANCH DU PAGE RIVER NEAR WARRENVILLE, IL",41.8175,-88.1714,7120004.0,CST,46.9,cfs,2022-08-14 16:15:00,7.73,ft,2022-08-14 16:15:00,3.3,7.57,0.03,0.39,5540095.0,Warrenville,near,West Branch Du Page River,wrni2,River Stage/Flow Location,5540095.0,41.8175,88.171389,lot,ncrfc,il,43.0,Upper Mississippi Region,CST,No,,11.0,11.5,14.5,17.5,FT,,https://water.weather.gov/ahps2/hydrograph.php?wfo=lot&gage=wrni2,hgirg,Yes,W,7 Feet,High Water,Yes,No,Yes,US Geological Survey,Yes,Yes,Yes,Yes,Yes,NAVD88,676.79,676.79,,,,5540130.0,-0.24,West Branch Du Page River,jam
534,1541303.0,"West Branch Susquehanna River at Hyde, PA",41.0045,-78.4567,2050201.0,EST,128,cfs,2022-08-14 18:00:00,2.84,ft,2022-08-14 18:00:00,3.0,2.4,0.01,0.35,1541303.0,Hyde,at,West Branch Susquehanna River,hyep1,River Stage/Flow Location,1541303.0,41.004444,78.456944,ctp,marfc,pa,33.0,Mid Atlantic Region,EST,No,1093.9,0.0,0.0,0.0,0.0,FT,,https://water.weather.gov/ahps2/hydrograph.php?wfo=ctp&gage=hyep1,hgirg,Yes,W,-9999 Feet,Data Point,No,No,Yes,US Geological Survey,Yes,No,,,,NGVD29,1093.9,,1093.9,,,1545500.0,-3.85,West Branch Susquehanna River,jam
566,1551500.0,"WB Susquehanna River at Williamsport, PA",41.2362,-76.9966,2050206.0,EST,1070,cfs,2022-08-14 18:15:00,0.04,ft,2022-08-14 18:15:00,10.0,0.94,0.01,33.33,1551500.0,Williamsport,at,West Branch Susquehanna River,wilp1,River Stage/Flow Location,1551500.0,41.236111,76.996944,ctp,marfc,pa,0.0,Mid Atlantic Region,EST,No,494.98,10.0,20.0,21.0,30.0,FT,,https://water.weather.gov/ahps2/hydrograph.php?wfo=ctp&gage=wilp1,hgirg,Yes,W,0 Feet,Year-round,No,No,Yes,US Geological Survey,Yes,Yes,Yes,Yes,Yes,NGVD29,494.98,,494.98,,,1553025.0,-0.14,West Branch Susquehanna River,jam
3526,5476500.0,"Des Moines River at Estherville, IA",43.3993,-94.846,7100002.0,CST,0,,0000-00-00 00:00:00,2.51,ft,2022-08-14 17:00:00,,,0.01,0.4,5476500.0,Estherville,at,West Fork Des Moines River,esvi4,Stage/Flow and Precipitation Location,5476500.0,43.399142,94.845971,dmx,ncrfc,ia,63.0,Upper Mississippi Region,CST,No,,8.0,10.0,13.0,14.5,FT,,https://water.weather.gov/ahps2/hydrograph.php?wfo=dmx&gage=esvi4,hgirg,Yes,W,-9999 Feet,High Water,Yes,Yes,Yes,US Geological Survey,Yes,Yes,Yes,Yes,Yes,NAVD88,1247.55,,1247.55 ft,,,5476590.0,-0.99,West Fork Des Moines River,jam
1922,3058500.0,"WEST FORK RIVER AT BUTCHERVILLE, WV",39.0906,-80.4676,5020002.0,EST,177,cfs,2022-08-14 18:30:00,2.04,ft,2022-08-14 18:30:00,6.0,3.51,0.02,0.99,3058500.0,Butcherville,at,West Fork River,bcvw2,River Stage/Flow Location,3058500.0,39.090556,80.4675,rlx,ohrfc,wv,41.0,Ohio Region,EST,No,,12.0,16.0,18.0,19.3,FT,,https://water.weather.gov/ahps2/hydrograph.php?wfo=rlx&gage=bcvw2,hgirg,Yes,W,-9999 Feet,Data Point,No,No,Yes,US Geological Survey,Yes,No,,,,NAVD88,992.44,,,,993 ft,3058975.0,-0.38,West Fork River,jam
5166,8068090.0,"W Fk San Jacinto Rv abv Lk Houston nr Porter, TX",30.1412,-95.3382,12040101.0,CST,40.6,cfs,2022-08-14 17:45:00,56.72,ft,2022-08-14 17:45:00,5.2,14.69,0.05,0.09,8068090.0,Porter,near,West Fork San Jacinto River,poet2,River Stage/Flow Location,8068090.0,30.1412,95.3381,hgx,wgrfc,tx,339.0,Texas-Gulf Region,CST,No,,73.0,81.0,88.5,92.0,FT,,https://water.weather.gov/ahps2/hydrograph.php?wfo=hgx&gage=poet2,hgirg,Yes,W,0 Feet,High Water,No,No,Yes,US Geological Survey,No,Yes,Yes,Yes,Yes,NAVD88,0.0,,,,,8069500.0,-0.07,West Fork San Jacinto River,jam
3876,6204050.0,West Rosebud Creek near Roscoe MT,45.2432,-109.731,10070005.0,MST,199,cfs,2022-08-14 16:00:00,1.32,ft,2022-08-14 16:00:00,3.0,1.53,0.01,0.76,6204050.0,Roscoe,near,West Rosebud Creek,wrdm8,River Stage/Flow Location,6204050.0,45.243056,109.730556,byz,mbrfc,mt,95.0,Missouri Region,MST,No,6535.6,0.0,0.0,0.0,0.0,FT,,https://water.weather.gov/ahps2/hydrograph.php?wfo=byz&gage=wrdm8,hgirz,Yes,W,-9999 Feet,Data Point,No,No,Yes,US Geological Survey,Yes,No,,,,NGVD 1929,6535.6,,6535.6,,,6204070.0,-0.46,West Rosebud Creek,jam
4555,7060500.0,"White River at Calico Rock, AR",36.1167,-92.1431,11010004.0,CST,13800,cfs,2022-08-14 17:15:00,7.13,ft,2022-08-14 17:15:00,800.0,6.15,0.21,3.03,7060500.0,Calico Rock,at,White River,clra4,River Stage/Flow Location,7060500.0,36.116111,92.143056,lzk,lmrfc,ar,0.0,Arkansas-White-Red Region,CST,No,316.38 ft,16.0,19.0,25.0,30.0,FT,,https://water.weather.gov/ahps2/hydrograph.php?wfo=lzk&gage=clra4,hgirg,Yes,W,0 Feet,High Water,No,No,No,US Geological Survey,Yes,Yes,Yes,Yes,Yes,NGVD 1929,316.38,,316.38 ft,,,7060728.0,-0.07,White River,jam
4557,7061000.0,"White River at Batesville, AR",35.7603,-91.6411,11010004.0,CST,37900,cfs,2022-05-07 21:45:00,9.36,ft,2022-08-14 17:00:00,,,0.08,0.86,7061000.0,Batesville,at,White River,baga4,River Stage/Flow Location,7061000.0,35.760278,91.641111,lzk,lmrfc,ar,0.0,Arkansas-White-Red Region,CST,No,,14.0,15.0,18.0,22.0,FT,,https://water.weather.gov/ahps2/hydrograph.php?wfo=lzk&gage=baga4,hgirg,Yes,W,0 Feet,Year-round,No,No,Yes,US Geological Survey,Yes,Yes,Yes,Yes,Yes,,233.43,,,,233.43 ft,7074500.0,-0.94,White River,jam
5686,9306290.0,"WHITE RIVER BELOW BOISE CREEK, NEAR RANGELY, CO.",40.1797,-108.565,14050007.0,MST,87,cfs,2022-08-14 16:45:00,2.01,ft,2022-08-14 16:45:00,7.9,9.99,0.04,2.03,9306290.0,Rangely,near,White River (CO-UT),whbc2,River Stage/Flow Location,9306290.0,40.179693,108.565377,gjt,cbrfc,co,103.0,Upper Colorado Region,MST,No,5395 ft,7.5,8.0,9.0,11.0,FT,,https://water.weather.gov/ahps2/hydrograph.php?wfo=gjt&gage=whbc2,hgirg,Yes,W,-9999 Feet,Year-round,No,No,Yes,US Geological Survey,Yes,Yes,Yes,No,Yes,NGVD29,5395.0,,5395 ft,,5395 ft,9306500.0,-1.5,White River (CO-UT),jam
2462,3347000.0,"WHITE RIVER AT MUNCIE, IN",40.2039,-85.3861,5120201.0,EST,40.7,cfs,2022-08-14 17:30:00,4.11,ft,2022-08-14 17:30:00,2.2,5.71,0.01,0.24,3347000.0,Muncie,at,White River (IN),miei3,River Stage/Flow Location,3347000.0,40.2039,85.3861,ind,ohrfc,in,35.0,Ohio Region,EST,No,915.90 ft,7.0,9.0,12.0,15.0,FT,,https://water.weather.gov/ahps2/hydrograph.php?wfo=ind&gage=miei3,hgirg,Yes,W,0.0024 KCFS,High Water,No,No,Yes,US Geological Survey,Yes,Yes,Yes,Yes,Yes,NAVD88,915.46,915.46 ft,915.90 ft,,,3348130.0,-0.85,White River (IN),jam
2476,3351000.0,"WHITE RIVER NEAR NORA, IN",39.9106,-86.1055,5120201.0,EST,405,cfs,2022-08-14 17:00:00,2.42,ft,2022-08-14 17:00:00,5.0,1.25,0.01,0.41,3351000.0,82nd Street Bridge near Nora,at,White River (IN),nori3,River Stage/Flow Location,3351000.0,39.9106,86.1056,ind,ohrfc,in,97.0,Ohio Region,EST,Yes,710.94 ft,8.0,11.0,16.0,19.0,FT,,https://water.weather.gov/ahps2/hydrograph.php?wfo=ind&gage=nori3,hgirg,Yes,W,0.12 KCFS,Year-round,No,No,Yes,US Geological Survey,Yes,Yes,Yes,Yes,Yes,NGVD29,710.94,,710.94 ft,,,3351005.0,-0.37,White River (IN),jam
2482,3351201.0,"WHITE RIVER AT INDIANAPOLIS MUSEUM OF ART, IN",39.8312,-86.1855,5120201.0,EST,298,cfs,2022-08-14 17:15:00,3.51,ft,2022-08-14 17:15:00,4.0,1.36,0.01,0.29,3351201.0,Indianapolis Museum of Art,at,White River (IN),imai3,River Stage/Flow Location,3351201.0,39.831111,86.185556,ind,ohrfc,in,97.0,Ohio Region,EST,No,685.15 ft,8.0,12.0,16.0,25.0,FT,,https://water.weather.gov/ahps2/hydrograph.php?wfo=ind&gage=imai3,hgirg,Yes,W,-9999 Feet,Data Point,No,No,Yes,US Geological Survey,Yes,No,,,,NGVD29,685.15,,685.15 ft,,,3354000.0,-2.2,White River (IN),jam
3219,5062500.0,"WILD RICE RIVER AT TWIN VALLEY, MN",47.2656,-96.2475,9020108.0,CST,61,cfs,2022-08-14 17:45:00,2,ft,2022-08-14 17:45:00,1.5,2.52,0.01,0.5,5062500.0,Twin Valley,at,Wild Rice River (MN),twvm5,River Stage/Flow Location,5062500.0,47.265556,96.2475,fgf,ncrfc,mn,107.0,Souris-Red-Rainy Region,CST,No,1008.16 ft,9.0,10.0,12.0,14.0,FT,,https://water.weather.gov/ahps2/hydrograph.php?wfo=fgf&gage=twvm5,hgirg,Yes,W,-9999 Feet,High Water,No,No,Yes,US Geological Survey,Yes,Yes,Yes,No,Yes,NGVD29,1008.16,,1008.16 ft,,,5064000.0,-0.24,Wild Rice River (MN),jam
4336,6879810.0,"WILDCAT C AT SCENIC DRIVE, MANHATTAN, KS",39.1884,-96.6426,10270101.0,CST,1.27,cfs,2022-08-14 17:15:00,2.57,ft,2022-08-14 17:15:00,0.15,13.39,0.01,0.39,6879810.0,Manhattan Scenic Drive,at,Wildcat Creek,mwck1,River Stage/Flow Location,6879810.0,39.188333,96.6425,top,mbrfc,ks,161.0,Missouri Region,CST,Yes,,9.0,14.0,17.0,23.0,FT,,https://water.weather.gov/ahps2/hydrograph.php?wfo=top&gage=mwck1,hgir2,Yes,W,-9999 Feet,High Water,Yes,No,Yes,US Geological Survey,Yes,Yes,Yes,Yes,Yes,NAVD88,1040.96,1040.96 ft,,,,6879815.0,-0.36,Wildcat Creek,jam
6628,14166000.0,"WILLAMETTE RIVER AT HARRISBURG, OR",44.2704,-123.174,17090003.0,PST,4430,cfs,2022-08-14 15:50:00,2.29,ft,2022-08-14 15:50:00,30.0,0.68,0.02,0.88,14166000.0,Harrisburg,at,Willamette River,haro3,River Stage/Flow Location,14166000.0,44.270401,123.173704,pqr,nwrfc,or,0.0,Pacific Northwest Region,PST,No,288.39 ft,10.8,14.0,0.0,17.0,FT,,https://water.weather.gov/ahps2/hydrograph.php?wfo=pqr&gage=haro3,hgirg,Yes,W,-9999 Feet,Year-round,No,No,Yes,US Geological Survey,Yes,Yes,No,No,Yes,NGVD29,288.39,,288.39 ft,,,14171600.0,-0.1,Willamette River,jam
4094,6481497.0,"WILLOW CREEK NEAR CROOKS, SD",43.6308,-96.8273,10170203.0,CST,0,,0000-00-00 00:00:00,3.47,ft,2022-08-14 17:45:00,,,0.02,0.58,6481497.0,Crooks,near,Willow Creek,wccs2,River Stage/Flow Location,6481497.0,43.630833,96.826944,fsd,mbrfc,sd,99.0,Missouri Region,CST,No,,8.0,9.0,11.0,13.0,FT,,https://water.weather.gov/ahps2/hydrograph.php?wfo=fsd&gage=wccs2,hgirg,Yes,W,-9999 Feet,Data Point,No,No,Yes,US Geological Survey,Yes,No,,,,NAVD88,1475.57,1475.57,,,,6609560.0,-0.02,Willow Creek,jam
3384,5398000.0,"WISCONSIN RIVER AT ROTHSCHILD, WI",44.8868,-89.6357,7070002.0,CST,2750,cfs,2022-08-14 17:00:00,13.75,ft,2022-08-14 17:00:00,70.0,2.61,0.06,0.44,5398000.0,Rothschild,at,Wisconsin River,rotw3,River Stage/Flow Location,5398000.0,44.885833,89.634722,grb,ncrfc,wi,73.0,Upper Mississippi Region,CST,No,1125.86 ft,18.0,25.0,27.0,28.0,FT,,https://water.weather.gov/ahps2/hydrograph.php?wfo=grb&gage=rotw3,hgirp,Yes,W,-9999 Feet,High Water,No,No,Yes,US Geological Survey,Yes,Yes,Yes,Yes,Yes,NAVD88,1125.82,1125.82 ft,1125.86 ft,,,5400760.0,-0.35,Wisconsin River,jam
1412,2313000.0,"WITHLACOOCHEE RIVER AT SR 200 NEAR HOLDER, FL",28.9889,-82.3495,3100208.0,EST,375,cfs,2022-08-14 18:45:00,1.09,ft,2022-08-14 18:45:00,14.0,3.88,0.03,2.83,2313000.0,Holder at SR 200,near,Withlacoochee River (FL),hldf1,River Stage/Flow Location,2313000.0,28.988611,82.349722,tbw,serfc,fl,17.0,South Atlantic-Gulf Region,EST,Yes,,7.0,8.0,9.0,11.0,FT,,https://water.weather.gov/ahps2/hydrograph.php?wfo=tbw&gage=hldf1,hgirg,Yes,W,-9999 Feet,High Water,No,No,Yes,US Geological Survey,No,Yes,Yes,No,Yes,NAVD88,26.61,,,,,2313200.0,-0.04,Withlacoochee River (FL),jam
1020,2112000.0,"YADKIN RIVER AT WILKESBORO, NC",36.1525,-81.1456,3040101.0,EST,439,cfs,2022-08-14 18:45:00,2.33,ft,2022-08-14 18:45:00,5.0,1.15,0.01,0.43,2112000.0,Wilkesboro,at,Yadkin River,wksn7,River Stage/Flow Location,2112000.0,36.1525,81.145556,rnk,serfc,nc,0.0,South Atlantic-Gulf Region,EST,No,942.35 ft,12.0,14.0,17.0,22.0,FT,,https://water.weather.gov/ahps2/hydrograph.php?wfo=rnk&gage=wksn7,hgirg,Yes,W,-9999 Feet,High Water,No,No,Yes,US Geological Survey,Yes,Yes,Yes,No,Yes,NGVD 1929,942.35,,942.35 ft,,,2116500.0,-0.92,Yadkin River,jam
5671,9251000.0,"YAMPA RIVER NEAR MAYBELL, CO",40.5027,-108.033,14050002.0,MST,65.1,cfs,2022-08-14 16:15:00,1.29,ft,2022-08-14 16:15:00,3.7,6.03,0.02,1.57,9251000.0,Maybell,near,Yampa River,mblc2,River Stage/Flow Location,9251000.0,40.502747,108.033415,gjt,cbrfc,co,81.0,Upper Colorado Region,MST,No,5900.23 ft,10.0,12.0,13.0,14.0,FT,,https://water.weather.gov/ahps2/hydrograph.php?wfo=gjt&gage=mblc2,hgirg,Yes,W,-9999 Feet,Year-round,No,No,Yes,US Geological Survey,Yes,No,,,,NGVD29,5900.23,,5900.23 ft,,5900.23 ft,9260050.0,-0.61,Yampa River,jam
1265,2207300.0,"YELLOW RIVER AT MILSTEAD, GA",33.6925,-83.9967,3070103.0,EST,0,,0000-00-00 00:00:00,5.41,ft,2022-08-14 18:30:00,,,0.01,0.19,2207300.0,Milstead,near,Yellow River,msdg1,River Stage/Flow Location,2207300.0,33.6925,83.996667,ffc,serfc,ga,247.0,South Atlantic-Gulf Region,EST,No,,11.0,13.0,17.0,21.0,FT,,https://water.weather.gov/ahps2/hydrograph.php?wfo=ffc&gage=msdg1,hgirg,Yes,W,-9999 Feet,Data Point,No,No,Yes,US Geological Survey,Yes,No,,,,,,685.4 ft,,,,2207335.0,-0.6,Yellow River,jam
3871,6192500.0,"Yellowstone River near Livingston, MT",45.5972,-110.566,10070002.0,MST,3270,cfs,2022-08-14 16:45:00,2.46,ft,2022-08-14 16:45:00,50.0,1.55,0.03,1.23,6192500.0,Livingston,near,Yellowstone River,livm8,River Stage/Flow Location,6192500.0,45.597211,110.566497,byz,mbrfc,mt,67.0,Missouri Region,MST,No,4542.49 ft,0.0,10.0,0.0,0.0,FT,,https://water.weather.gov/ahps2/hydrograph.php?wfo=byz&gage=livm8,hgirz,Yes,W,-9999 Feet,Summer-only,No,No,Yes,US Geological Survey,Yes,Yes,Yes,Yes,Yes,NGVD 1929,4542.49,,4542.49 ft,,,6309000.0,-0.3,Yellowstone River,jam
1793,2484000.0,"YOCKANOOKANY RIVER NR KOSCIUSKO, MS",33.0322,-89.5778,3180001.0,CST,43.3,cfs,2022-08-14 17:45:00,4.62,ft,2022-08-14 17:45:00,3.7,9.34,0.08,1.76,2484000.0,Kosciusko,near,Yockanookany River,kscm6,River Stage/Flow Location,2484000.0,33.032222,89.577778,jan,lmrfc,ms,0.0,South Atlantic-Gulf Region,CST,No,374.34 ft,14.0,15.0,21.5,23.0,FT,,https://water.weather.gov/ahps2/hydrograph.php?wfo=jan&gage=kscm6,hgirg,Yes,W,-9999 Feet,Year-round,No,No,Yes,U.S. Geological Survey,Yes,Yes,Yes,Yes,Yes,NGVD 1929,374.34,,374.34 ft,,,2484500.0,-0.49,Yockanookany River,jam
